name,address,number,lat,long
도로변-횡단보도(정류소),서울특별시 강남구 갤러리아,-,37.5279412,127.0417992
도로변(횡단보도 포함),서울특별시 강남구 한양아파트 35동,-,37.5288,127.037
정류소-도로(가로)변,서울특별시 강남구 한양아파트 61동,-,37.5302,127.0337
도로변(횡단보도 포함),서울특별시 강남구 현대아파트 91동,-,37.5301,127.0341
정류소-도로(가로)변,서울특별시 강남구 현대아파트 84동,-,37.5283,127.0305
지하철역1번출구,서울특별시 강남구 압구정역,-,37.5276,127.0289
도로변(횡단보도 포함),서울특별시 강남구 신현대아파트 103동,-,37.5263,127.0258
도로변(횡단보도 포함),서울특별시 강남구 신사중학교,-,37.5245,127.0212
도로변(횡단보도 포함),서울특별시 강남구 압구정동 408,-,37.5234,127.0195
지하철역5번출구,서울특별시 강남구 압구정역,-,37.5269,127.0281
도로변(횡단보도 포함),서울특별시 강남구 라움,-,37.508,127.0396
도로변(횡단보도 포함),서울특별시 강남구 우리은행 압구정로데오지점,-,37.5283,127.0373
정류소-도로(가로)변,서울특별시 강남구 동서상가,-,37.5278,127.0388
지하철역6번출구,서울특별시 강남구 압구정로데오역,-,37.5273,127.0405
도로변(횡단보도 포함),서울특별시 강남구 청담동 78-16,-,37.5272,127.0412
정류소-도로(가로)변,서울특별시 강남구 압구정로 440 삼아제약,-,37.5263914,127.0450787
도로변(횡단보도 포함),서울특별시 강남구 버버리 코리아,-,37.5246,127.0427
도로변(횡단보도 포함),서울특별시 강남구 125-22 1층,-,37.5247,127.0503
도로변(횡단보도 포함),서울특별시 강남구 탐앤탐스 청담점,-,37.525,127.0502
도로변(횡단보도 포함),서울특별시 강남구 대치4동 937,-,37.4967,127.0534
도로변(횡단보도 포함),서울특별시 강남구 국민은행 학동사거리점,-,37.5235134,127.0388537
정류소-도로(가로)변,서울특별시 강남구 쉐이크쉑 청담점,-,37.523064,127.0375987
정류소-도로(가로)변,서울특별시 강남구 압구정동 도산대로 217,-,37.5206,127.0305
도로변(횡단보도 포함),신사동 561-31번지 1층 신웅타워 2호 강남구 서울특별시 KR,-,37.5189,127.0257
정류소-도로(가로)변,서울특별시 강남구 KT 신사점,-,37.5174,127.0224
지하철역1-2-7-8번출구,서울특별시 강남구 신사역,-,37.5163,127.0201
정류소-도로(가로)변,서울특별시 강남구 역삼동 729-38,-,37.4984,127.0427
도로변(횡단보도 포함),서울특별시 강남구 논현동 5-1 페이토빌딩 ,-,37.5173,127.0233
도로변(횡단보도 포함),서울특별시 강남구 을지병원,-,37.5186,127.0287
도로변(횡단보도 포함),서울특별시 강남구 에이스침대,-,37.5172363,127.0473248
도로변(횡단보도 포함),서울특별시 강남구 도산대로 306,-,37.5216,127.0346
정류소-도로(가로)변,서울특별시 강남구 신한은행 도산대로지점,-,37.5221,127.0365
도로변(횡단보도 포함),서울특별시 강남구 삼성역,-,37.508861,127.063149
도로변(횡단보도 포함),서울특별시 강남구 포르쉐스튜디오,-,37.523116,127.0419539
정류소-도로(가로)변,서울특별시 강남구 도산대로 442 피엔폴루스,-,37.5232913,127.0440476
도로변(횡단보도 포함),서울특별시 강남구 보테가라운지,-,37.524517,127.04142
정류소-도로(가로)변,서울특별시 강남구 스타벅스 청담점,-,37.5243631,127.0515599
도로변(횡단보도 포함),서울특별시 강남구 프리마호텔,-,37.5242756,127.052191
정류소-도로(가로)변,서울특별시 강남구 세븐일레븐 청담루나점,-,37.5201056,127.0560505
지하철역10-11번출구,서울특별시 강남구 청담역,-,37.5191,127.0519
정류소-도로(가로)변,서울특별시 강남구 강남세무서,-,37.5187481,127.0469012
지하철역3-4번출구,서울특별시 강남구 강남구청역,-,37.517473,127.0411685
도로변(횡단보도 포함),서울특별시 강남구 바나프레소 세관사거리점,-,37.5158,127.0357
정류소-도로(가로)변,서울특별시 강남구 서울제이에스병원,-,37.5172363,127.0473248
도로변(횡단보도 포함),서울특별시 강남구 학동로 227,-,37.515,127.0338
지하철역6-9번출구,서울특별시 강남구 학동역,-,37.514236,127.031593
삼익뮤직프라자:정류소-도로(가로)변,서울특별시 강남구 논현동 58-3,-,37.5143,127.0294
도로변(횡단보도 포함),서울특별시 강남구 나뚜찌,-,37.5082,127.0599
정류소-도로(가로)변,서울특별시 강남구 포레힐호텔,-,37.51204,127.023636
지하철역8번출구,서울특별시 강남구 논현역,-,37.511206,127.021728
정류소-도로(가로)변,서울특별시 강남구 영동가구(학동로106),-,37.4951,126.9982
지하철역1-2-5번출구,서울특별시 강남구 학동역,-,37.4951,126.9982
정류소-도로(가로)변,서울 강남구 학동로 308 시너지정형외과빌딩,-,37.5154,127.0363
정류소-도로(가로)변,서울특별시 강남구 정관장 강남구청역점,-,37.5164,127.0404
도로변(횡단보도 포함),서울특별시 강남구 허브프라자,-,37.486,127.0221
정류소-도로(가로)변,서울특별시 강남구 서광아파트 101동,-,37.5174,127.0427
도로변(횡단보도 포함),서울특별시 강남구 삼성월드 아파트 ,-,37.5174,127.0439
도로변(횡단보도 포함),서울특별시 강남구 강남구청,-,37.517473,127.0411685
지하철역4번출구,서울특별시 강남구 청담역,-,37.5191,127.0519
정류소-도로(가로)변,서울특별시 강남구 청담불한증막,-,37.5196,127.0563
정류소-도로(가로)변,서울특별시 강남구 삼성동 봉은사로 633,-,37.5152,127.0645
도로변(횡단보도 포함),서울특별시 강남구 미켈란107,-,37.5145,127.0606
지하철역1번출구,서울특별시 강남구 봉은사역,-,37.5142,127.0601
정류소-도로(가로)변,서울특별시 강남구 GS25 봉은사점,-,37.5141,127.0587
도로변(횡단보도 포함),서울특별시 강남구 봉은사,-,37.5148,127.0574
도로변(횡단보도 포함),서울특별시 강남구 더라빌입구,-,37.5158,127.0428
도로변(횡단보도 포함),서울특별시 강남구 삼성동 봉은사로 503,-,37.5135,127.0538
도로변(횡단보도 포함),서울특별시 강남구 국민은행 삼성중앙역지점,-,37.5132,127.0526
정류소-도로(가로)변,서울특별시 강남구 봉은사로 471,-,37.5126,127.0512
정류소-도로(가로)변,서울특별시 강남구 한국통신사업자,-,37.5116,127.0473
정류소-도로(가로)변,서울특별시 강남구 삼성2동주민센터,-,37.511,127.046
정류소-도로(가로)변,서울특별시 강남구 논현동 277-33,-,37.5101,127.0422
정류소-도로(가로)변,서울특별시 강남구 쿨마트 논현점,-,37.5092,127.0397
도로변(횡단보도 포함),서울특별시 강남구 아크로힐스 103동,-,37.509,127.0388
정류소-도로(가로)변,서울특별시 강남구 타이어T-스테이션 강남논현점,-,37.5085,127.0374
정류소-도로(가로)변,서울특별시 강남구 올리브영 언주역점,-,37.5078,127.0351
도로변(횡단보도 포함),서울특별시 강남구 거평타운,-,37.5057,127.0284
정류소-도로(가로)변,서울특별시 강남구 신논현역,-,37.5045,127.0248
정류소-도로(가로)변,서울특별시 강남구 삼정호텔(차병원 건강검진센터),-,37.5065,127.0315
도로변(횡단보도 포함),서울특별시 강남구 여송빌딩,-,37.511,127.0574
정류소-도로(가로)변,서울특별시 강남구 송산빌딩,-,37.4698,127.0423
도로변(횡단보도 포함),서울특별시 강남구 홍익궁중육개장,-,37.5077,127.0362
도로변(횡단보도 포함),서울특별시 강남구 자미온,-,37.5162,127.0379
도로변(횡단보도 포함),서울특별시 강남구 우리은행 역삼동지점,-,37.5087,127.0391
정류소-도로(가로)변,서울특별시 강남구 NK타워,-,37.5092,127.0406
정류소-도로(가로)변,서울특별시 강남구 구다모,-,37.5108,127.0462
정류소-도로(가로)변,서울특별시 강남구 광동한방병원,-,37.5142,127.062
도로변(횡단보도 포함),서울특별시 강남구 삼성동 테헤란로 513 K타워,-,37.5078,127.0589
도로변(횡단보도 포함),서울특별시 강남구 국민은행 삼성동지점,-,37.5073,127.0572
도로변(횡단보도 포함),서울특별시 강남구 KB우준타워,-,37.5069,127.0562
지하철역5-6-10번출구,서울특별시 강남구 선릉역,-,37.504487,127.048957
정류소-도로(가로)변,서울특별시 강남구 한국기술센터,-,37.5032,127.0438
정류소-도로(가로)변,서울특별시 강남구 KEB하나은행 역삼역금융센터,-,37.5016,127.0388
지하4-5-8번출구,서울특별시 강남구 역삼역,-,37.4999072,127.0373932
도로변(횡단보도 포함),서울특별시 강남구 특허청,-,37.4998,127.0328
정류소-도로(가로)변,서울특별시 강남구 단풍나무집 강남점,-,37.4988,127.0296
지하철역12번출구,서울특별시 강남구 강남역,-,37.497952,127.027619
지하철역3-6번출구,서울특별시 강남구 신사역,-,37.524124,127.022883
도로변(횡단보도 포함),서울특별시 강남구 전기공사공제조합,-,37.513,127.0208
도로변(횡단보도 포함),서울특별시 강남구 온누리제일그랜드약국,-,37.5051,127.0246
지하철역5번출구,서울특별시 강남구 신논현역,-,37.504724,127.02538
정류소-도로(가로)변,서울특별시 강남구 한국자산관리공사,-,37.5129039,127.0597409
도로변(횡단보도 포함),서울특별시 강남구 ABC마트 GS강남본점,-,37.5009,127.0265
정류소-도로(가로)변,서울특별시 강남구 씨티약국,-,37.4998,127.027
도로변(횡단보도 포함),서울특별시 강남구 YBM어학원 강남센터,-,37.4991,127.0273
지하철역4번출구,서울특별시 강남구 압구정역,-,37.5305954,127.0306881
도로변(횡단보도 포함),서울특별시 강남구 브라운성형외과의원,-,37.5253,127.0282
정류소-도로(가로)변,서울특별시 강남구 국민은행 압구정종합금융센터,-,37.5229,127.0281
도로변(횡단보도 포함),서울특별시 강남구 하이마트 압구정점,-,37.5197,127.0276
지하철역4-7번출구,서울특별시 강남구 학동역,-,37.514236,127.031593
도로변(횡단보도 포함),서울특별시 강남구 기업은행 언주역지점,-,37.5073,127.0334
도로변(횡단보도 포함),서울특별시 강남구 차병원연구소,-,37.5071,127.0337
정류소-도로(가로)변,서울특별시 강남구 안덕빌딩,-,37.5058,127.0344
도로변(횡단보도 포함),서울특별시 강남구 배민라이더스 남부센터,-,37.505,127.0348
정류소-도로(가로)변,서울특별시 강남구 수협은행 강남기업금융센터,-,37.5017,127.0364
정류소-도로(가로)변,서울특별시 강남구 GS빌딩,-,37.5025,127.0377
지하철역3번출구,서울특별시 강남구 언주역,-,37.507323,127.033903
도로변(횡단보도 포함),서울특별시 강남구 이자카야찬,-,37.5101,127.0327
정류소-도로(가로)변,서울특별시 강남구 스타벅스 논현힐탑점,-,37.5114,127.0321
지하철역3번출구,서울특별시 강남구 학동역,-,37.514236,127.031593
도로변(횡단보도 포함),서울특별시 강남구 국제모피,-,37.5167,127.0296
도로변(횡단보도 포함),서울특별시 강남구 로뎀빌딩,-,37.5122,127.0218
정류소-도로(가로)변,서울특별시 강남구 농협 압구정역지점,-,37.5238,127.0285
도로변(횡단보도 포함),서울특별시 강남구 글로벌뱅앤올룹슨,-,37.5276,127.0333
도로변(횡단보도 포함),서울특별시 강남구 서울세관,-,37.5185,127.0348
정류소-도로(가로)변,서울특별시 강남구 신한은행 영동지점,-,37.517,127.035
도로변(횡단보도 포함),서울특별시 강남구 강남지인병원,-,37.5128,127.0353
정류소-도로(가로)변,서울특별시 강남구 강남 YMCA(논현동225-6),-,37.5104,127.0361
도로변(횡단보도 포함),서울특별시 강남구 르노삼성자동차 강남지점,-,37.5071,127.0398
정류소-도로(가로)변,서울특별시 강남구 언주로 516,-,37.5047,127.0419
정류소-도로(가로)변,서울특별시 강남구 임페리얼 팔레스,-,37.5139,127.0356
정류소-도로(가로)변,서울특별시 강남구 세븐일레븐 논현2호점,-,37.517,127.0356
정류소-도로(가로)변,서울특별시 강남구 아크로갤러리,-,37.5228035,127.0338199
정류소-도로(가로)변,서울특별시 강남구 윤당 아트홀,-,37.5256576,127.0335769
정류소-도로(가로)변,서울특별시 강남구 KS병원,-,37.5093,127.0441
정류소-도로(가로)변,서울특별시 강남구 건우한의원,-,37.5134,127.0428
정류소-도로(가로)변,서울특별시 강남구 청담동 40-25번지도시빌딩,-,37.5186,127.0409
정류소-도로(가로)변,서울특별시 강남구 영동고교입구,-,37.5214,127.0399
정류소-도로(가로)변,서울특별시 강남구 버거킹 청담점,-,37.5242,127.0395
도로변(횡단보도 포함),서울특별시 강남구 Tag Heuer,-,37.5258,127.0402
정류소-도로(가로)변,서울특별시 강남구 청담성모치과,-,37.5232,127.0486
도로변(횡단보도 포함),서울특별시 강남구 피카소 라운지,-,37.5237,127.0484
정류소-도로(가로)변,서울특별시 강남구 설빙 청담공원점,-,37.5202,127.0493
도로변(횡단보도 포함),서울특별시 강남구 노브랜드 강남삼성점,-,37.5163,127.0513
도로변(횡단보도 포함),서울특별시 강남구 리칭,-,37.5086,127.0558
정류소-도로(가로)변,서울특별시 강남구 홈플러스 익스프레스 삼성2점,-,37.5105,127.0548
정류소-도로(가로)변,서울특별시 강남구 강남구도시관리공단,-,37.5157,127.0521
정류소-도로(가로)변,서울특별시 강남구 아베뉴 주노,-,37.5204,127.0495
정류소-도로(가로)변,서울특별시 강남구 리버뷰오피스텔,-,37.5223,127.0555
정류소-도로(가로)변,서울특별시 강남구 대신증권 청담WM센터,-,37.5208,127.0562
정류소-도로(가로)변,서울특별시 강남구 동남철물,-,37.515,127.0594
도로(가로)변,서울특별시 강남구 무역센터,-,37.5136,127.0601
정류소-도로(가로)변,서울특별시 강남구 인터콘티넨탈호텔,-,37.5125,127.0571
정류소-도로(가로)변,서울특별시 강남구 한국산업은행 강남지점,-,37.5076,127.0635
정류소-도로(가로)변,서울특별시 강남구 우리은행 청담동금융센터,-,37.5209,127.0569
정류소-도로(가로)변,서울특별시 강남구 영동낙지(제일정형외과),-,37.5229,127.0559
도로변(횡단보도 포함),서울특별시 강남구 미켈란(삼성동 147-2),-,37.5133,127.0559
도로변(횡단보도 포함),서울특별시 강남구 한국촌(삼성동 153-29),-,37.5114,127.0569
도로변(횡단보도 포함),서울특별시 강남구 세븐럭카지노,-,37.5125,127.0571
도로변(횡단보도 포함),서울특별시 강남구 현대오트론,-,37.5112,127.0661
지하철역3번출구,서울특별시 강남구 양재역,-,37.4853653,127.0388261
도로변(횡단보도 포함),서울특별시 강남구 도곡동 949-3,-,37.4869,127.0332
도로변(횡단보도 포함),서울특별시 강남구 역삼동 837,-,37.4916,127.031
정류소-도로(가로)변,서울특별시 강남구 역삼동 826-22,-,37.4956916,127.0292483
도로변(횡단보도 포함),서울특별시 강남구 역삼동 826-20,-,37.4952676,127.0294042
정류소-도로(가로)변,서울특별시 강남구 역삼동 캠브리지빌딩,-,37.4982,127.0292
정류소-도로(가로)변,서울특별시 강남구 역삼동 735,-,37.499285,127.0332008
정류소-도로(가로)변,서울특별시 강남구 역삼동 718-2,-,37.5010918,127.0390857
정류소-도로(가로)변,서울특별시 강남구 역삼동 706-1,-,37.5025597,127.044093
도로변(횡단보도 포함),서울특별시 강남구 대치동 890-6,-,37.5048901,127.0516185
정류소-도로(가로)변,서울특별시 강남구 대치동945-2,-,37.5079414,127.061582
도로변(횡단보도 포함),서울특별시 강남구 대치동 997-4,-,37.5093239,127.0663945
정류소-도로(가로)변,서울특별시 강남구 대치동 998,-,37.5091124,127.0671097
정류소-도로(가로)변,서울특별시 강남구 테헤란로 432 DB금융센터빌딩,-,37.506,127.0547
정류소-도로(가로)변,서울특별시 강남구 504 해성1빌딩,-,37.507,127.0576
도로변(횡단보도 포함),서울특별시 강남구 510 루첸타워,-,37.5072,127.0585
도로변(횡단보도 포함),서울특별시 강남구 대치동 961,-,37.5030018,127.0590832
정류소-도로(가로)변,서울특별시 강남구 대치동 966-5,-,37.5039421,127.062331
정류소-도로(가로)변,서울특별시 강남구 역삼동 개나리sk뷰아파트상가,-,37.5005,127.0505
도로변(횡단보도 포함),서울특별시 강남구 대치동 986-6,-,37.5002855,127.0644634
도로변(횡단보도 포함),서울특별시 강남구 대치동 941-20,-,37.4989485,127.0600581
도로변(횡단보도 포함),서울특별시 강남구 대치동 939-21,-,37.4976419,127.0564374
도로변(횡단보도 포함),서울특별시 강남구 대치동 938-23,-,37.497337,127.0549304
도로변(횡단보도 포함),서울특별시 강남구 대치동 1024-4,-,37.4969104,127.056225
도로변(횡단보도 포함),서울특별시 강남구 대치동 1022-1,-,37.4978466,127.0586073
도로변(횡단보도 포함),서울특별시 강남구 대치동 1021-8,-,37.498371,127.060633
도로변(횡단보도 포함),서울특별시 강남구 대치동 989-1,-,37.4987679,127.0615973
정류소-도로(가로)변,서울특별시 강남구 대치동 990-1,-,37.499343,127.0634426
정류소-도로(가로)변,서울특별시 강남구 역삼동 한티역,-,37.4967,127.0526
도로변(횡단보도 포함),서울특별시 강남구 역삼동 래미안그레이트아파트,-,37.4952,127.0463
도로변(횡단보도 포함),서울특별시 강남구 역삼동 785-15,-,37.4942981,127.0458923
정류소-도로(가로)변,서울특별시 강남구 역삼동 788-32,-,37.492925,127.0417845
정류소-도로(가로)변,서울특별시 강남구 역삼동 799-21,-,37.4919003,127.0385487
정류소-도로(가로)변,서울특별시 강남구 역삼동 839-17,-,37.4902771,127.0334164
정류소-도로(가로)변,서울특별시 강남구 도곡동 943-2,-,37.4896145,127.0328256
정류소-도로(가로)변,서울특별시 강남구 도곡동 545-7,-,37.4914126,127.0388478
정류소-도로(가로)변,서울특별시 강남구 도곡동 543-5,-,37.4924381,127.0424104
도로변(횡단보도 포함),서울특별시 강남구 대치동940-3 다이소매장앞,-,37.4981,127.0581
정류소-도로(가로)변,서울특별시 강남구 대치동 은마아파트 2동,-,37.4958,127.0669
정류소-도로(가로)변,서울특별시 강남구 대치동 605,-,37.4939595,127.0613227
정류소-도로(가로)변,서울특별시 강남구 대치동 629,-,37.4927153,127.0585168
도로변(횡단보도 포함),서울특별시 강남구 대치동 651,-,37.4921442,127.0573977
지하철역2번출구,서울특별시 강남구 도곡동 도곡역,-,37.49106,127.0556945
정류소-도로(가로)변,서울특별시 강남구 대치역,-,37.494569,127.063446
지하철역1번출구,서울특별시 강남구 대치동 학여울역,-,37.496683,127.070549
정류소-도로(가로)변,서울특별시 강남구 도곡동 숙명여고,-,37.4902,127.0534
지하철역2번출구,서울특별시 강남구 도곡동 매봉역,-,37.487035,127.046918
정류소-도로(가로)변,서울특별시 강남구 도곡동 180-13,-,37.4863667,127.04485
정류소-도로(가로)변,서울특별시 강남구 도곡동 411-20,-,37.4859297,127.0454085
도로변(횡단보도 포함),서울특별시 강남구 도곡동 463,-,37.4865821,127.0471902
정류소-도로(가로)변,서울특별시 강남구 도곡동 개포한신아파트,-,37.4876,127.0487
도로변(횡단보도 포함),서울특별시 강남구 대치동 1009-5,-,37.5014865,127.0677565
도로변(횡단보도 포함),서울특별시 강남구 대치동 1008-3,-,37.5029824,127.0669767
정류소-도로(가로)변,서울특별시 강남구 대치동 1007,-,37.5045459,127.0662051
정류소-도로(가로)변,서울특별시 강남구 대치동 1001,-,37.5074595,127.0644485
정류소-도로(가로)변,서울특별시 강남구 대치동 995-9,-,37.5079019,127.0642156
정류소-도로(가로)변,서울특별시 강남구 대치동 946-11,-,37.5078391,127.0630073
정류소-도로(가로)변,서울특별시 강남구 대치동 947-7,-,37.5070084,127.0634667
도로변(횡단보도 포함),서울특별시 강남구 대치동 949-11,-,37.505221,127.0645273
도로변(횡단보도 포함),서울특별시 강남구 대치동 983-8,-,37.5026417,127.0657142
정류소-도로(가로)변,서울특별시 강남구 대치동 984-4,-,37.5017775,127.0663844
도로변(횡단보도 포함),서울특별시 강남구 대치동 984-6,-,37.50144,127.0665469
도로변(횡단보도 포함),서울특별시 강남구 대치동 50-8,-,37.4971084,127.0704075
정류소-도로(가로)변,서울특별시 강남구 대치동 쌍용아파트,-,37.4982,127.0692
도로변(횡단보도 포함),서울특별시 강남구 대치동 993-2,-,37.5004323,127.0670831
정류소-도로(가로)변,서울특별시 강남구 대치동 994-16,-,37.4983218,127.0683104
도로변(횡단보도 포함),서울특별시 강남구 대치동 994-8,-,37.4986158,127.0681054
도로변(횡단보도 포함),서울특별시 강남구 대치동 994-10 스타벅스,-,37.4981,127.0687
도로변(횡단보도 포함),서울특별시 강남구 은마아파트 1동,-,37.4965,127.0692
정류소-도로(가로)변,서울특별시 강남구 대치동 1020,-,37.4983198,127.0614559
도로변(횡단보도 포함),서울특별시 강남구 대치동 988-14,-,37.4993641,127.0611058
정류소-도로(가로)변,서울특별시 강남구 대치동 974-1,-,37.5007989,127.0601254
도로변(횡단보도 포함),서울특별시 강남구 대치동 962-21,-,37.5014861,127.0598713
정류소-도로(가로)변,서울특별시 강남구 대치동 960-4,-,37.5035488,127.0588751
도로변(횡단보도 포함),서울특별시 강남구 대치동 957-13,-,37.5052502,127.0577623
정류소-도로(가로)변,서울특별시 강남구 대치동 903-29,-,37.5032822,127.0580969
도로변(횡단보도 포함),서울특별시 강남구 대치동 913-16,-,37.5016235,127.0589015
정류소-도로(가로)변,서울특별시 강남구 대치동 1019-14,-,37.4980062,127.060883
정류소-도로(가로)변,서울특별시 강남구 대치동 한티근린공원,-,37.4962,127.062
도로변(횡단보도 포함),서울특별시 강남구 대치동 897,-,37.5028629,127.0500619
도로변(횡단보도 포함),서울특별시 강남구 대치동 889-33,-,37.503771,127.0496025
정류소-도로(가로)변,서울특별시 강남구 진선여고사거리,-,37.5025,127.0428
정류소-도로(가로)변,서울특별시 강남구 역삼동 대림e편한세상,-,37.4994,127.0476
도로변(횡단보도 포함),서울특별시 강남구 도곡동 106-1,-,37.4928283,127.0531484
정류소-도로(가로)변,서울특별시 강남구 도곡동 91,-,37.4907295,127.0533366
정류소-도로(가로)변,서울특별시 강남구 206 대치동부센트레빌 101동,-,37.4917,127.0553
도로변(횡단보도 포함),서울특별시 강남구 역삼동 래미안개나리 103동,-,37.4983,127.045
정류소-도로(가로)변,서울특별시 강남구 역삼동 역삼자이아파트103동,-,37.4997,127.0444
도로변(횡단보도 포함),서울특별시 강남구 역삼동 도곡지구대,-,37.5012,127.0436
도로변(횡단보도 포함),서울특별시 강남구 역삼동 734-17,-,37.4961685,127.039419
정류소-도로(가로)변,서울특별시 강남구 일원동 712-1,-,37.4921538,127.0877843
도로변(횡단보도 포함),서울특별시 강남구 일원동 643-5,-,37.4920684,127.0873352
지하철역출구주변,서울특별시 강남구 대청역,-,37.493601,127.079526
정류소-도로(가로)변,서울특별시 강남구 개포동 183,-,37.4903657,127.0694778
정류소-도로(가로)변,서울특별시 강남구 개포동 개포주공 6단지,-,37.4901,127.0708
정류소-도로(가로)변,서울특별시 강남구 개포동 182-1,-,37.4896697,127.068281
도로변(횡단보도 포함),서울특별시 강남구 개포동 186,-,37.4888986,127.0665922
1번출구-정류소주변,서울특별시 강남구 개포동역,-,37.489167,127.066502
도로변(횡단보도 포함),서울특별시 강남구 개포동 개포주공 1단지,-,37.4814,127.062
도로변(횡단보도 포함),서울특별시 강남구 개포동 655-3,-,37.4810335,127.0532554
정류소-도로(가로)변,서울특별시 강남구 개포동 달터공원,-,37.4766,127.0496
도로변(횡단보도 포함),서울특별시 강남구 개포동 개포지구대,-,37.4797,127.0511
정류소-도로(가로)변,서울특별시 강남구 개포동 1231-1,-,37.4784153,127.0473482
정류소-도로(가로)변,서울특별시 강남구 개포동 1239-19,-,37.4785079,127.0450959
도로변(횡단보도 포함),서울특별시 강남구 개포동 1246-2,-,37.4787172,127.045905
정류소-도로(가로)변,서울특별시 강남구 개포동 대모산역,-,37.491375,127.072761
정류소-도로(가로)변,서울특별시 강남구 개포동 주공7단지,-,37.488985,127.073746
도로변(횡단보도 포함),서울특별시 강남구 일원동 613,-,37.4894677,127.0746782
정류소-도로(가로)변,서울특별시 강남구 일원동 대치아파트,-,37.4923,127.072
정류소-도로(가로)변,서울특별시 강남구 대치동 선경아파트,-,37.4926,127.0639
정류소-도로(가로)변,서울특별시 강남구 개포동 152,-,37.486824,127.0660933
정류소-도로(가로)변,서울특별시 강남구 개포동 주공4단지,-,37.4844,127.0683
정류소-도로(가로)변,서울특별시 강남구 개포동 주공5단지,-,37.4865,127.0689
도로변(횡단보도 포함),서울특별시 강남구 개포동 186-2,-,37.4882,127.0666
정류소-도로(가로)변,서울특별시 강남구 대치동 미도아파트,-,37.4955,127.0671
도로변(횡단보도 포함),서울특별시 강남구 선경아파트 5동,-,37.4931,127.063
정류소-도로(가로)변,서울특별시 강남구 도곡동 타워팰리스 F동 ,-,37.4898,127.0555
정류소-도로(가로)변,서울특별시 강남구 개포동 650 구룡중학교 ,-,37.4858,127.0571
정류소-도로(가로)변,서울특별시 강남구 개포동 주공1단지(3동),-,37.4814,127.0619
정류소-도로(가로)변,서울특별시 강남구 개포동 래미안블레스티지 223동 ,-,37.4802,127.0637
정류소-도로(가로)변,서울특별시 강남구 개포동 개포연금매장,-,37.4825,127.061
정류소-도로(가로)변,서울특별시 강남구 개포동 경남아파트 상가,-,37.4843872,127.054267
정류소-도로(가로)변,서울특별시 강남구 도곡동 467-18,-,37.4870602,127.0510637
정류소-도로(가로)변,서울특별시 강남구 개포동 1194-6,-,37.4743368,127.048422
정류소-도로(가로)변,서울특별시 강남구 개포동 1229-4,-,37.4773465,127.0453232
도로변(횡단보도 포함),서울특별시 강남구 도곡동 518-10,-,37.4823936,127.0430248
도로변(횡단보도 포함),서울특별시 강남구 도곡동 459-4,-,37.4833009,127.0469073
정류소-도로(가로)변,서울특별시 강남구 일원본동 일원역,-,37.483869,127.084032
정류소-도로(가로)변,서울특별시 강남구 일원로 21 서울영희초등학교,-,37.4915,127.0806
1전출구정류소-도로(가로)변,서울특별시 강남구 수서역,-,37.4864403,127.0961272
정류소-도로(가로)변,서울특별시 강남구 수서동 수서동익아파트,-,37.4855,127.0973
정류소-도로(가로)변,서울특별시 강남구 일원본동 푸른마을아파트,-,37.4829,127.0805
정류소-도로(가로)변,서울특별시 강남구 일원본동 731,-,37.4818107,127.0777022
정류소-도로(가로)변,서울특별시 강남구 수서동 724,-,37.4872829,127.1031088
정류소-도로(가로)변,서울특별시 강남구 세곡동 주민센터,-,37.4690094,127.1069041
정류소-도로(가로)변,서울특별시 강남구 세곡동사거리,-,37.4647718,127.1082653
도로변(횡단보도 포함),서울특별시 강남구 세곡동 리엔파크,-,37.463,127.1038
도로변(횡단보도 포함),서울특별시 강남구 세곡동 대왕초교,-,37.4648,127.1052
정류소-도로(가로)변,서울특별시 강남구 개포6단지,-,37.49,127.0705
정류소-도로(가로)변,서울특별시 강남구 개포시립도서관,-,37.4838,127.0641
정류소-도로(가로)변,서울특별시 강남구 개포동 273 포이초등학교,-,37.4753,127.0527
정류소-도로(가로)변,서울특별시 강남구 개포동 272 국악고등학교,-,37.4756,127.0506
정류소-도로(가로)변,서울특별시 강남구 역삼동747-24,-,37.4961951,127.0387017
정류소-도로(가로)변,서울특별시 강남구 LH푸르지오 201동 정류장,-,37.4672,127.0943
정류소-도로(가로)변,서울특별시 강남구 LH푸르지오 201동 건너편 정류장,-,37.4672,127.0943
정류소-도로(가로)변,서울특별시 강남구 세곡중학교,-,37.4704,127.0918
광장등 다중집합장소,서울특별시 강남구 LH강남힐즈테이트 505동,-,37.4703,127.0887
정류소-도로(가로)변,서울특별시 강남구 래미안강남힐즈,-,37.4724,127.0953
정류소-도로(가로)변,서울특별시 강남구 못골마을,-,37.4729,127.1013
정류소-도로(가로)변,서울특별시 강남구 대왕파출소,-,37.4652,127.1076
정류소-도로(가로)변,서울특별시 강남구 삼성병원 견너편,-,37.4907,127.0876
정류소-도로(가로)변,서울특별시 강남구 헌릉로590길 60,-,37.4607,127.1031
정류소-도로(가로)변,서울특별시 강남구 휘문중고,-,37.5042,127.0616
도로(가로)변,서울특별시 강동구 풍성로 207,-,37.5293782,127.1348613
(암사역 방면) 버스정류장 (25-153),서울특별시 강동구 암사동 508 ,-,37.55410579999999,127.1271601
(신암중학교 방면) 버스정류장(25-154),서울특별시 강동구 암사동 508,-,37.55410579999999,127.1271601
(천호역 방면) 버스정류장 (25-161),서울특별시 강동구 천호대로 1005,-,37.5388007,127.1243716
도로(가로)변,서울특별시 강동구 광진교,-,37.544762,127.113096
(둔촌2동 주민센터 방면) 버스정류장(25-010),서울특별시 강동구 천호대로 1139 ,-,37.5345686,127.1381132
(사가정시장 방면) 버스정류장(25-372),서울특별시 강동구 고덕1동 470 ,-,37.5586439,127.1448206
(암사동유적방면) 버스정류장(25-586),서울 강동구 올림픽로112길 17-24 ,-,37.5632691,127.1343348
(현대아파트 방면) 버스정류장(25-281),서울특별시 강동구 성내로 25 ,-,37.5302554,127.1237961
(강동역 방면) 버스정류장(25-014),서울 강동구 천호대로 997,-,37.5392918,127.1232819
(길동사거리 방면) 버스정류장(25-012),서울 강동구 천호대로 1097,-,37.5354311,127.1341939
(길동사거리 방면) 버스정류장 (25-245),서울특별시 강동구 둔촌2동 489 ,-,37.5306426,127.1378472
골프존마켓 둔촌점 앞,서울특별시 강동구 성내동 396-16 ,-,37.5311052,127.1370352
(강동구청 방면) 버스정류장(25-283),서울특별시 강동구 성내로 45 ,-,37.5293701,127.1255567
(명일역 2번출구 방면) 버스정류장(25-146),서울특별시 강동구 고덕로 183 ,-,37.5559511,127.1452509
(동부기술교육원 방면) 버스정류장(25-148),서울특별시 강동구 암사3동 고덕로 137 ,-,37.5549581,127.1407803
(선사고 방면) 버스정류장(25-152),서울특별시 강동구 고덕로 65,-,37.555955,127.1330624
(암사3동주민센터 방면) 버스정류장(25-146),서울특별시 강동구 고덕로 183,-,37.5559511,127.1452509
(강동자이프라자아파트 방면) 버스정류장(25-008),서울특별시 강동구 천호대로186길 7 ,-,37.5333052,127.1419351
(초이동 방면) 버스정류장(25-006),서울특별시 강동구 천호대로 1240 ,-,37.5355401,127.1481916
(황산사거리 방면) 버스정류장(25-002),서울특별시 강동구 천호대로 1477,-,37.5471517,127.1723531
(한산중학교 방면) 버스정류장(25-522),서울특별시 강동구 둔촌동 546,-,37.5278875,127.1427122
(둔촌종합상가 방면) 버스정류장(25-187),서울특별시 강동구 강동대로 305 ,-,37.5200101,127.1406733
(고덕삼환아파트 방면) 버스정류장(25-260),서울특별시 강동구 명일1동 251-1,-,37.5483935,127.1487967
(고덕삼환아파트 방면) 버스정류장(25-265),서울특별시 강동구 명일로 350,-,37.549855,127.1500544
도로(가로)변,서울특별시 강동구 진황도로 200 ,-,37.5284089,127.1434156
(길동신동아아파트사거리 방면) 버스정류장(25-502),서울특별시 강동구 둔촌2동 70-106 ,-,37.5292093,127.1415985
도로(가로)변,서울특별시 강동구 상일로 21,-,37.5489164,127.1729356
(상일여고입구 방면) 버스정류장(25-111),서울특별시 강동구 상일로 55 ,-,37.5530573,127.1724614
정류소-도로(가로)변,서울특별시 강동구 고덕천.상일동역교차로,-,37.5567265,127.171287
(상일동주민센터 방면) 버스정류장(25-250),서울특별시 강동구 고덕주공6단지상일여고,-,37.55092399999999,127.17194
주양쇼핑 앞,서울특별시 강동구 명일동 48 ,-,37.552376,127.1534256
이마트 앞,서울특별시 강동구 고덕로 276 ,-,37.5546516,127.1557517
(명일동 이마트 방면) 버스정류장(25-179),서울특별시 강동구 동남로 870 ,-,37.551183,127.1573277
(명일동현대아파트 방면) 버스정류장(25-181),서울특별시 강동구 동남로 832,-,37.5489092,127.1581466
(한영중고한영외고 방면) 버스정류장(25-183),서울특별시 강동구 길동 산7-3 ,-,37.5410211,127.1562098
(공덕평생학습관 방면) 버스정류장(25-140),서울 강동구 고덕로 253 고덕역 ,-,37.5560093,127.1530778
(서울장애인종합복지관 방면) 버스정류장(25-141),서울특별시 강동구 고덕동 313,-,37.55581230000001,127.1504916
구청사거리 우리은행 앞,서울특별시 강북구 도봉로357 ,-,37.6396017,127.0268044
파리바게트카페 앞,서울특별시 강북구 도봉로337 ,-,37.637986,127.0252528
수유동 앞,서울특별시 강북구 도봉로 317,-,37.6367746,127.0238931
효성인텔리안 앞,서울특별시 강북구 수유3동 230-7 ,-,37.6363827,127.0234734
도봉세무서 앞,서울특별시 강북구 도봉로 117 ,-,37.6197097,127.0282248
마아사거리 맥도날도 뒤,서울특별시 강북구 도봉로48 ,-,37.6131057,127.0303835
y스퀘어 앞,서울특별시 강북구 도봉로52 ,-,37.6136586,127.0304432
삼양동입구 사거리 분수대 앞,서울특별시 강북구 송중동 860-127 ,-,37.6167072,127.0301748
파리바게트 미아사거리역점 앞,서울특별시 강북구 도봉로13길 13,-,37.61479740000001,127.0293444
삼성화재 앞,서울특별시 강북구 도봉로 314,-,37.6360775,127.0241549
수유역 4번 출구 앞,서울특별시 강북구 번동 446-12 ,-,37.6367563,127.0248519
수유역 1번 출구 앞,서울특별시 강북구 도봉로 352 ,-,37.6386636,127.0270104
북한산스카이빌딩 앞,서울특별시 강북구 도봉로308,-,37.6356724,127.0238758
강북구청 광장,서울특별시 강북구 도봉로89길 13,-,37.6393753,127.0253604
솥뚜껑식당 앞,서울특별시 강북구 한천로1019,-,37.6388351,127.0281423
북부수도사업소 앞,서울특별시 강북구 번2동 377,-,37.6339891,127.0361284
강북소방서 앞,서울특별시 강북구 한천로 913,-,37.6332637,127.0375449
강북보건소 앞,서울특별시 강북구 한천로 897 ,-,37.6321857,127.0388254
유니온빌딩 앞 번동주공3단지아파트 한천로변,서울특별시 강북구 번3동 237 ,-,37.6289444,127.0418931
주공1단지 108동 앞,서울특별시 강북구 번3동 242 ,-,37.6245804,127.0470877
정류소-도로(가로)변,서울특별시 강북구 한천로1016 ,-,37.6388609,127.0287584
신한은행 강북금융센터 앞,서울특별시 강북구 도봉로364 ,-,37.6395697,127.0278461
쿨노래방 앞,서울특별시 강북구 한천로1042 ,-,37.6404254,127.0264979
거목노인요양원 앞,서울특별시 강북구 한천로1160 ,-,37.6475252,127.0165749
섬진강 민물장어 앞,서울특별시 강북구 한천로1151 ,-,37.6466001,127.0170426
성북교회 앞,서울특별시 강북구 한천로1121 ,-,37.6446258,127.0184295
하나은행 앞,서울특별시 강북구 한천로1093 ,-,37.6431917,127.0218285
더타이어샵 수유점 앞,서울특별시 강북구 한천로1071,-,37.6418633,127.0237563
법무법인 대양 앞,서울특별시 강북구 도봉로313 ,-,37.6363827,127.0234734
성실교회 앞,서울특별시 강북구 노해로50 ,-,37.6400398,127.0229066
청기와 보신탕 앞,서울특별시 강북구 노해로121 ,-,37.6460252,127.0244078
삼화패인트 앞,서울특별시 강북구 노해로105 ,-,37.6448024,127.0234175
화계유치원 앞,서울특별시 강북구 덕릉로45 ,-,37.634548,127.0189858
국민은행 수유서지점 옆,서울특별시 강북구 덕릉로46,-,37.6340304,127.018612
준 스튜디오(LPG 충전소 옆) 앞,서울특별시 강북구 덕릉로64,-,37.63422690000001,127.0207983
G2BAR 앞,서울특별시 강북구 덕릉로96 ,-,37.634545,127.0243846
인수동주민센터 앞,서울특별시 강북구 인수봉로 255,-,37.6414418,127.0105828
삼각산드림빌라 앞,서울특별시 강북구 인수봉로235 ,-,37.6400442,127.0117446
정류소-도로(가로)변,서울특별시 강북구 인수봉로198,-,37.6372552,127.0132137
남양당한의원 앞,서울특별시 강북구 삼각산로114 ,-,37.6406329,127.0166453
재활용품선별처리시설장 앞,서울특별시 강북구 월계로191-40,-,37.6226604,127.0434227
부동산랜드 번동점 앞,서울특별시 강북구 번동 242-5,-,37.6234392,127.0479145
부영문방구 앞,서울특별시 강북구 월계로57 ,-,37.6121676,127.0357554
(미아동) 이웃사랑치과 앞,서울특별시 강북구 월계로 17 ,-,37.6101341,127.0319172
삼양동입구 사거리 앞,서울특별시 강북구 솔샘로335 ,-,37.6172952,127.0293629
테마빌딩 앞,서울특별시 강북구 솔샘로327 ,-,37.6173397,127.0284097
솔샘터널 위 등산로 입구,서울특별시 강북구 솔샘터널 ,-,37.6186123,127.0087428
삼광교회 앞 버스정류장,서울특별시 강북구 미아동 1353-2,-,37.6199142,127.0134566
송중초 앞 버스정류장(09-245),서울특별시 강북구 오현로 9,-,37.6171496,127.0314853
비발디 PC방 앞,서울특별시 강북구 솔샘로264 ,-,37.61905369999999,127.0216792
모닝글로리 번동점 앞,서울특별시 강북구 오현로197 ,-,37.629038,127.0395548
송중동주민센터 건너편,서울특별시 강북구 오패산로 162 ,-,37.6160871,127.0337701
정류소-도로(가로)변,서울특별시 강북구 삼양로 161 ,-,37.6183622,127.0210925
CU 강북삼양점 앞,서울특별시 강북구 삼양로186 ,-,37.6204786,127.0210749
원헤어샵 앞,서울특별시 강북구 삼양로372 ,-,37.6365809,127.0173865
씨채널안경 수유점 앞,서울특별시 강북구 삼양로464,-,37.6445957,127.0160016
지리산숯불구이 앞,서울특별시 강북구 삼양로643 ,-,37.66034459999999,127.0133944
이종은 치과 앞,서울특별시 강북구 삼양로469 ,-,37.6450138,127.0154612
수유대학약국 앞,서울특별시 강북구 삼양로431-1 ,-,37.6419871,127.0164201
수유1동주민센터 앞,서울특별시 강북구 삼양로335,-,37.6329556,127.0172269
길치과의원 앞,서울특별시 강북구 삼양로293 ,-,37.6295659,127.0176488
정류소-도로(가로)변,서울특별시 강북구 삼양로 296 ,-,37.6298691,127.0180379
동아운수 앞,서울특별시 강북구 인수봉로 139 ,-,37.6321694,127.0133807
올레매장 앞,서울특별시 강북구 도봉로363 ,-,37.6398837,127.0272335
리움헤어 앞,서울특별시 강북구 한천로1056 ,-,37.6412017,127.0254646
정류소-도로(가로)변,서울특별시 강북구 삼각산로115,-,37.6408907,127.0170906
정류소-도로(가로)변,서울특별시 강북구 삼각산로141,-,37.641205,127.0198841
정류소-도로(가로)변,서울특별시 강북구 삼각산로165,-,37.6425665,127.0217313
정류소-도로(가로)변,서울특별시 강북구 한천로1098,-,37.6437515,127.0218642
정류소-도로(가로)변,서울특별시 강북구 한천로1152,-,37.6469051,127.0174137
교보빌딩 앞,서울특별시 강북구 도봉로348,-,37.6382777,127.0265339
수유전철역3번출구 부근 마을버스정류장,서울특별시 강북구 번동 도봉로 332 ,-,37.6373492,127.0255036
정류소-도로(가로)변,서울특별시 강북구 삼양로543 ,-,37.6513672,127.0123754
북서울꿈의숲 동문 버스정류장(09-187),서울특별시 강북구 월계로 173,-,37.6214312,127.0406246
인수중학교 버스정류장 인수봉로265,서울특별시 강북구 인수봉로75길 10 ,-,37.6438503,127.0099435
정류소-도로(가로)변,서울특별시 강북구 인수봉로276,-,37.6433203,127.0111018
극동아파트 정류장 수유동553-3,서울특별시 강북구 수유동 산60-6 ,-,37.6429888,127.0134801
마을버스 정류장 한신대 맞은 편,서울특별시 강북구 인수봉로160 ,-,37.6340957,127.0135886
우이초교 후문 정류장,서울특별시 강북구 삼양로99길 36 ,-,37.6382919,127.0149018
버스중앙차로 수유(강북구청)역 09-013,서울특별시 강북구 번동 도봉로 342,-,37.6380167,127.026135
윤극영가옥 버스정류장,서울특별시 강북구 인수봉로84길5,-,37.6464332,127.0108656
수유 메가박스 앞,서울특별시 강북구 도봉로399 ,-,37.642358,127.0297598
참숲바베큐 앞 버스정류장,서울특별시 강북구 노해로 90 ,-,37.6433374,127.0229982
수유중앙시장입구 옆 버스정류장,서울특별시 강북구 노해로 57 ,-,37.6407197,127.0222053
수유역 8번 출구 앞,서울특별시 강북구 수유동 도봉로 345 ,-,37.6386245,127.0258767
수유3동주민센터 위 횡단보도,서울특별시 강북구 노해로 36 수유3동 주민센터 ,-,37.6386934,127.0231575
정류소-도로(가로)변,서울특별시 강북구 한천로 983 ,-,37.6367404,127.0313375
정류소-도로(가로)변,서울특별시 강북구 한천로 984,-,37.6369864,127.0316686
정류소-도로(가로)변,서울특별시 강북구 덕릉로 171 ,-,37.6354958,127.0327257
정류소-도로(가로)변,서울특별시 강북구 덕릉로 133 ,-,37.6351964,127.0285319
대한병원 마을버스 정류장(09-205),서울특별시 강북구 도봉로 301 ,-,37.6354498,127.022671
우이역 1번출구 앞 버스정류장,서울특별시 강북구 북한산 우이역 ,-,37.662909,127.012798
정류소-도로(가로)변,서울특별시 강북구 솔샘로 233 ,-,37.6202986,127.018925
북서울꿈의숲 버스정류장(09-239),서울특별시 강북구 월계로 173,-,37.6214312,127.0406246
번동 해모로아파트 앞 버스정류장,서울특별시 강북구 오현로 156,-,37.6263134,127.0373569
정류소-도로(가로)변,서울특별시 강북구 오현로 163 ,-,37.6269638,127.0370121
인수중학교 앞 버스정류장(09-116),서울특별시 강북구 인수봉로 269 ,-,37.6428713,127.0095645
한성운수종점 버스정류장(09-290),서울특별시 강북구 한천로 939 ,-,37.6343194,127.0342025
번동주공아파트4단지 앞 버스정류장(09-180),서울특별시 강북구 번2동 234 ,-,37.6307828,127.0391686
번동주공아파트1단지 앞 버스정류장(09-185),서울특별시 강북구 번3동 242 ,-,37.6245804,127.0470877
번동주공아파트3단지 앞 버스정류장(09-183),서울특별시 강북구 번3동 237 ,-,37.6289444,127.0418931
정류소-도로(가로)변,서울특별시 강북구 초안교,-,37.630975,127.041234
수유역 7번 출구 앞,서울특별시 강북구 수유동 191-17 ,-,37.6382148,127.0254741
인수동 환경미화원 후생관 앞,서울특별시 강북구 삼각산로 16,-,37.6385491,127.0084888
강북구 강북재활용 선별장 앞,서울특별시 강북구 번3동 115-10 ,-,37.6226604,127.0434227
강북휴요양병원 앞,서울특별시 강북구 도봉로 161 ,-,37.6231476,127.0269804
정류소-도로(가로)변,서울특별시 강북구 덕릉로 77,-,37.6347566,127.022305
09-134 버스정류장,서울특별시 강북구 삼양로 371,-,37.6365158,127.0170338
미양중고 버스정류장(09847),서울특별시 강북구 인수봉로 39,-,37.6232973,127.0122428
미양중고 버스정류장(09501),서울특별시 강북구 인수봉로14길 4,-,37.6240999,127.0128609
미양중고 버스정류장(09218),서울특별시 강북구 인수봉로 39,-,37.6232973,127.0122428
미양중고 버스정류장(09217),서울특별시 강북구 인수봉로12길 6,-,37.6234561,127.0133429
미아사거리역 버스정류장(09011),서울특별시 강북구 미아동 66-1 ,-,37.6151041,127.0300461
번동초등학교 앞 횡단보도,서울특별시 강북구 오현로 204,-,37.6288618,127.040486
벌말어린이공원 앞 버스정류장(09228),서울특별시 강북구 오현로207 ,-,37.6307828,127.0391686
해모로아파트 상가 앞 버스정류장(09870),서울특별시 강북구 오현로 156 ,-,37.6263134,127.0373569
백련사 앞 버스정류장(09875),서울특별시 강북구 4.19로 88-1 ,-,37.6396099,127.0256575
교통정보센터 앞 09994 버스정류장,서울특별시 강북구 월계로 59 ,-,37.6122599,127.0360181
cu미아창문점 앞 09978 버스정류장,서울특별시 강북구 월계로 83 ,-,37.6137833,127.0378674
롯데마트 삼양점 앞,서울특별시 강북구 삼양로 247,-,37.6254731,127.0177185
2번 출구 앞,서울특별시 강북구 가오리역,-,37.641559,127.01681
미아동 1339-1 앞,서울특별시 강북구 솔샘로212,-,37.6199246,127.0162181
정류소-도로(가로)변,서울특별시 강북구 삼각산로 16,-,37.6385491,127.0084888
인근 중앙버스정류소 미아사거리역(09012),서울특별시 강북구 도봉로 40 ,-,37.6125465,127.0304248
(미아동) 앞 중앙정류소 09010,서울특별시 강북구 도봉로 110,-,37.618768,127.0295273
(미아동) 앞 중앙정류소 09010,서울특별시 강북구 도봉로 108 ,-,37.6186177,127.0295507
(미아동) 앞 중앙정류소 09009,서울특별시 강북구 도봉로 117 ,-,37.6197097,127.0282248
(미아동) 앞 중앙정류소 09008,서울특별시 강북구 도봉로 172,-,37.6241815,127.0273476
(미아동) 앞 중앙정류소 09007,서울특별시 강북구 도봉로 181,-,37.624878,127.02626
(미아동) 앞 중앙정류소 09006,서울특별시 강북구 도봉로 242 ,-,37.6315748,127.0278216
(수유동) 앞 중앙정류소 09005,서울특별시 강북구 도봉로 255,-,37.6311034,127.0238891
(수유동) 앞 중앙정류소 09003,서울특별시 강북구 도봉로 317,-,37.6367746,127.0238931
(번동) 앞 중앙정류소 09002,서울특별시 강북구 도봉로 384,-,37.6408318,127.0291202
(수유동) 앞 중앙정류소 09001,서울특별시 강북구 도봉로 387 ,-,37.6414628,127.028942
(우이동) 앞 도로변,서울특별시 강북구 삼양로 685,-,37.6636721,127.0118984
(번동) 앞 도로변,서울특별시 강북구 덕릉로 186,-,37.6349162,127.0252928
(번동) 앞 중앙정류소 09004,서울특별시 강북구 도봉로 334 ,-,37.6375035,127.0255254
정류소-도로(가로)변,서울특별시 강서구 나누리병원,-,37.5368,126.8372
정류소-도로(가로)변,서울특별시 강서구 까치산역,-,37.5319,126.8466
정류소-도로(가로)변,서울특별시 강서구 화곡역 현대주유소,-,37.5407,126.841
정류소-도로(가로)변,서울특별시 강서구 화곡중고등학교,-,37.548,126.8332
1번출구:정류소-도로(가로)변,서울특별시 강서구 우장산역,-,37.5488,126.8363
정류소-도로(가로)변,서울특별시 강서구 명덕고등학교,-,37.5538,126.8356
정류소-도로(가로)변,서울특별시 강서구 발산역 힐스테이트,-,37.5567,126.8375
정류소-도로(가로)변,서울특별시 강서구 호서전문학교,-,37.5627,126.8397
정류소-도로(가로)변,서울특별시 강서구 KT가양지사,-,37.5648,126.8403
4번출구:정류소-도로(가로)변,서울특별시 강서구 우장산역,-,37.5489,126.8361
정류소-도로(가로)변,서울특별시 강서구 방화중학교,-,37.5644,126.8065
정류소-도로(가로)변,서울특별시 강서구 개화파출소,-,37.5752,126.8023
정류소-도로(가로)변,서울특별시 강서구 개화역,-,37.5784,126.797
정류소-도로(가로)변,서울특별시 강서구 등촌중학교,-,37.5529,126.8603
정류소-도로(가로)변,서울특별시 강서구 하이웨이주유소,-,37.5548,126.855
정류소-도로(가로)변,서울특별시 강서구 한국가스공사,-,37.5381,126.8471
정류소-도로(가로)변,서울특별시 강서구 발산역,-,37.5587,126.8376
정류소-도로(가로)변,서울특별시 강서구 송정역,-,37.5614,126.8121
다중집합장소,서울특별시 강서구 강서보건소,-,37.5491,126.8683
다중집합장소,서울특별시 강서구 도레미빌딩,-,37.5473,126.8778
다중집합장소,서울특별시 강서구 등촌삼거리,-,37.5514,126.864
다중집합장소,서울특별시 강서구 송정초등학교,-,37.5615,126.8112
다중집합장소,서울특별시 강서구 하이웨이주유소,-,37.5551,126.8551
다중집합장소,서울특별시 강서구 강서평생학습관,-,37.5472,126.8733
다중집합장소,서울특별시 강서구 국민은행방화동지점,-,37.573,126.8113
정류소-도로(가로)변,서울특별시 강서구 국립국어원,-,37.5792,126.8135
정류소-도로(가로)변,서울특별시 강서구 영일고등학교,-,37.5473,126.8619
정류소-도로(가로)변,서울특별시 강서구 대일고등학교,-,37.5397,126.8635
정류소-도로(가로)변,서울특별시 강서구 목동사거리,-,37.5328,126.8637
정류소-도로(가로)변,서울특별시 강서구 서울항공비즈니스고등학교,-,37.5693,126.8169
3번출구 지하철입구,서울특별시 강서구 신방화역,-,37.568,126.8167
정류소-도로(가로)변,서울특별시 강서구 공항시장역,-,37.5639,126.8109
정류소-도로(가로)변,서울특별시 강서구 염창동아3차 나이아가라호텔,-,37.5491,126.8777
정류소-도로(가로)변,서울특별시 강서구 염창동새마을금고,-,37.5502,126.8733
정류소-도로(가로)변,서울특별시 강서구 블루나인비지니스센터 이마트,-,37.5566,126.8638
정류소-도로(가로)변,서울특별시 강서구 등촌동대림아파트,-,37.5623,126.8472
정류소-도로(가로)변,서울특별시 강서구 가양동CJ주식회사,-,37.5669,126.8437
정류소-도로(가로)변,서울특별시 강서구 겸재정선기념관,-,37.5723,126.8385
정류소-도로(가로)변,서울특별시 강서구 서남환경공원마곡,-,37.5732,126.8235
정류소-도로(가로)변,서울특별시 강서구 개화산역,-,37.5724,126.8069
정류소-도로(가로)변,서울특별시 강서구 양천향교역,-,37.568,126.8421
2번출구 지하철입구,서울특별시 강서구 증미역,-,37.5573,126.8624
5번출구 지하철입구,서울특별시 강서구 가양역,-,37.5615,126.8542
다중집합장소,서울특별시 강서구 염창동주유소,-,37.5492,126.8759
정류소-도로(가로)변,서울특별시 강서구 양천초등학교,-,37.5697,126.8393
다중집합장소,서울특별시 강서구 강서구청가양동별관,-,37.5608,126.8595
정류소-도로(가로)변,서울특별시 강서구 가양한강타운아파트,-,37.5704,126.8442
정류소-도로(가로)변,서울특별시 강서구 공진중학교,-,37.5661,126.8502
정류소-도로(가로)변,서울특별시 강서구 가양도시개발4단지아파트,-,37.5655,126.8532
정류소-도로(가로)변,서울특별시 강서구 대림경동아파트,-,37.5655,126.8533
정류소-도로(가로)변,서울특별시 강서구 가양5단지아파트,-,37.5641,126.8552
정류소-도로(가로)변,서울특별시 강서구 마포고등학교,-,37.5597,126.8542
정류소-도로(가로)변,서울특별시 강서구 경복여고,-,37.5576,126.8531
정류소-도로(가로)변,서울특별시 강서구 강서구청,-,37.5526,126.8503
정류소-도로(가로)변,서울특별시 강서구 우장초등학교,-,37.5489,126.8461
정류소-도로(가로)변,서울특별시 강서구 폴리텍대학,-,37.548,126.8416
정류소-도로(가로)변,서울특별시 강서구 화곡시장,-,37.5329,126.8467
정류소-도로(가로)변,서울특별시 강서구 화곡역에이스정형외과,-,37.5409,126.8379
정류소-도로(가로)변,서울특별시 강서구 화곡푸르지오,-,37.5401,126.8344
정류소-도로(가로)변,서울특별시 강서구 제일성심병원,-,37.5469,126.8456
4번출구 지하철입구,서울특별시 강서구 가양역,-,37.5614,126.8556
3번출구 지하철입구,서울특별시 강서구 가양역,-,37.5616,126.8552
9번출구 지하철입구,서울특별시 강서구 가양역,-,37.5607,126.8547
5~6번출구 지하철입구,서울특별시 강서구 화곡역,-,37.5413,126.8403
7~8번출구 지하철입구,서울특별시 강서구 화곡역,-,37.5418,126.8399
4번출구:다중집합장소,서울특별시 강서구 신방화역,-,37.5675,126.8182
5번출구:다중집합장소,서울특별시 강서구 신방화역,-,37.5674,126.8181
정류소-도로(가로)변,서울특별시 강서구 엠벨리15단지,-,37.5574,126.8267
정류소-도로(가로)변,서울특별시 강서구 그랜드마트,-,37.5366,126.8481
정류소-도로(가로)변,서울특별시 강서구 가양3동주민센터,-,37.5612,126.86
정류소-도로(가로)변,서울특별시 강서구 강서한강자이아파트,-,37.5651,126.8478
정류소-도로(가로)변,서울특별시 강서구 염창동한마음,-,37.5529,126.8698
정류소-도로(가로)변,서울특별시 강서구 가양3동 1484-6,-,37.5597,126.8636
정류소-도로(가로)변,서울특별시 강서구 휴먼빌아파트,-,37.5691,126.8416
정류소-도로(가로)변,서울특별시 강서구 화원중학교,-,37.5378,126.8408
정류소-도로(가로)변,서울특별시 강서구 강서한방병원,-,37.5302,126.839
정류소-도로(가로)변,서울특별시 강서구 화곡동 유림아파트,-,37.5303,126.8442
정류소-도로(가로)변,서울특별시 강서구 서울신정초등학교,-,37.5326,126.8524
정류소-도로(가로)변,서울특별시 강서구 화곡동남부시장,-,37.5318,126.8588
정류소-도로(가로)변,서울특별시 강서구 목동사거리,-,37.5323,126.8637
정류소-도로(가로)변,서울특별시 강서구 강서면허시험장메이필드호텔,-,37.5502,126.8183
정류소-도로(가로)변,서울특별시 강서구 등촌3동그랜드백화점,-,37.5601,126.8387
정류소-도로(가로)변,서울특별시 강서구 마곡수명산파크5단지6단지,-,37.5515,126.8254
정류소-도로(가로)변,서울특별시 강서구 마곡역,-,37.5618,126.827
정류소-도로(가로)변,서울특별시 강서구 발산역 우장산힐스테이트,-,37.5562,126.8377
정류소-도로(가로)변,서울특별시 강서구 외발산광명마을,-,37.5463,126.8216
정류소-도로(가로)변,서울특별시 강서구 공항동천주교회,-,37.5561,126.8123
정류소-도로(가로)변,서울특별시 강서구 마곡나루역,-,37.5668,126.8266
정류소-도로(가로)변,서울특별시 강서구 마곡엠밸리7단지 712동,-,37.5671,126.8242
정류소-도로(가로)변,서울특별시 강서구 마곡엠밸리5단지,-,37.5654,126.8167
정류소-도로(가로)변,서울특별시 강서구 등촌2동주민센터,-,37.5426,126.8626
정류소-도로(가로)변,서울특별시 강서구 용문사 시립화곡청소년수련관,-,37.5373,126.8634
정류소-도로(가로)변,서울특별시 강서구 강서세무서,-,37.5616,126.8209
정류소-도로(가로)변,서울특별시 강서구 송정역,-,37.5612,126.8119
정류소-도로(가로)변,서울특별시 강서구 마곡엠밸리6.7단지 마곡중학교,-,37.5671,126.8214
정류소-도로(가로)변,서울특별시 강서구 마곡엠벨리4단지,-,37.5702,126.8253
2번출구 정류소-도로(가로)변,서울특별시 강서구 까치산역,-,37.5318,126.8468
정류소-도로(가로)변,서울특별시 강서구 성석교회,-,37.5326,126.8576
정류소-도로(가로)변,서울특별시 강서구 서울신정초등학교,-,37.5325,126.8524
정류소-도로(가로)변,서울특별시 강서구 화곡8동주민센터,-,37.532670669225,126.84843751371
정류소-도로(가로)변,서울특별시 강서구 KT강서지사,-,37.5294,126.8485
정류소-도로(가로)변,서울특별시 강서구 화곡동백구사,-,37.5326,126.8425
정류소-도로(가로)변,서울특별시 강서구 화곡동대림아파트,-,37.5334,126.8373
정류소-도로(가로)변,서울특별시 강서구 마곡실내배드민턴장,-,37.5729,126.8321
정류소-도로(가로)변,서울특별시 강서구 롯데R&D센터,-,37.5713,126.8284
횡단보도,서울특별시 강서구 가로공원로 192 사거리,-,37.536936095954,126.83728557163
횡단보도,서울특별시 강서구 가로공원로 237 화곡터널입구교차로,-,37.53867372785,126.84198294916
횡단보도,서울특별시 강서구 가로공원로 215 가로공원공영주차장,-,37.537768636527,126.83975751578
정류소-도로(가로)변,서울특별시 강서구 허준로 50 동양고등학교,-,37.569220792134,126.84727590032
정류소-도로(가로)변,서울특별시 강서구 허준로 47 가양2단지성지아파트,-,37.569714298214,126.84697914099
정류소-도로(가로)변,서울특별시 강서구 허준로 76 한보구암마을아파트,-,37.56805887215,126.84941927363
정류소-도로(가로)변,서울특별시 강서구 허준로 139 강변아파트,-,37.564555648337,126.85510144939
정류소-도로(가로)변,서울특별시 강서구 허준로 175 도시개발6단지아파트,-,37.562702828157,126.85844462807
정류소-도로(가로)변,서울특별시 강서구 허준로 234 도시개발9단지아파트,-,37.559500730183,126.86371485123
정류소-도로(가로)변,서울특별시 강서구 양천로 628 태영송화아파트,-,37.55398186619,126.86736252759
정류소-도로(가로)변,서울특별시 강서구 마곡중앙로 33 마곡엠밸리14단지,-,37.557121105161,126.82610771998
횡단보도,서울특별시 강서구 마곡동로 55 사거리,-,37.560023583091,126.83316766511
다중집합장소,서울특별시 강서구 마곡동로 62 마곡사이언스타워,-,37.560502853179,126.83378215874
다중집합장소,서울특별시 강서구 마곡중앙10로 70 LG사이언스파크,-,37.563546526118,126.83547804247
다중집합장소,서울특별시 강서구 양천로 108 하나은행,-,37.573257485721,126.81578886958
횡단보도,서울특별시 강서구 방화대로 외발산사거리,-,37.5512,126.8173
3번출구 지하철입구,서울특별시 강서구 금낭화로 135 방화역,-,37.5772,126.8125
정류소-도로(가로)변,서울특별시 강서구 양천로 87 대일빌딩,-,37.573588455216,126.81351273334
정류소-도로(가로)변,서울특별시 강서구 송정로3길 3 공항동주민센터,-,37.55831108163,126.8106997736
정류소-도로(가로)변,서울특별시 강서구 공항동천주교회,-,37.5561,126.812
정류소-도로(가로)변,서울특별시 강서구 양천로 112 신방화사거리,-,37.573231055688,126.81629582473
정류소-도로(가로)변,서울특별시 강서구 개화동로21길 4 방화동도시개발11단지,-,37.570506612612,126.8046946055
정류소-도로(가로)변,서울특별시 강서구 양천로27길 생태공원,-,37.584,126.8186
정류소-도로(가로)변,서울특별시 강서구 양천로27길 서광아파트,-,37.5788,126.8196
정류소-도로(가로)변,서울특별시 강서구 양천로 서남환경공원,-,37.5756,126.8207
정류소-도로(가로)변,서울특별시 강서구 양천로 서남물재생센터,-,37.5801,126.8258
정류소-도로(가로)변,서울특별시 강서구 양천로 마곡배드민턴장,-,37.5729,126.832
다중집합장소,서울특별시 강서구 힐스테이트에코오피스텔,-,37.5594,126.8373
도로(가로)변,서울특별시 강서구 등촌로 213 칼텍스주유소,-,37.548746091478,126.863250781
정류소-도로(가로)변,서울특별시 강서구 대일고교,-,37.5397,126.8635
도로(가로)변,서울특별시 강서구 등촌로 41 강서농협,-,37.533649033996,126.86342218502
횡단보도,서울특별시 강서구 강서로 134 건널목,-,37.539014808032,126.84249788083
다중집합장소,서울특별시 강서구 월정로 176 월정초등학교,-,37.534500285746,126.83574095394
정류소-도로(가로)변,서울특별시 강서구 CJ주식회사,-,37.5669,126.8438
정류소-도로(가로)변,서울특별시 강서구 서울디지털대학교,-,37.5552,126.8541
정류소-도로(가로)변,서울특별시 강서구 관음삼성아파트,-,37.5529,126.8695
정류소-도로(가로)변,서울특별시 강서구 염창동새마을금고,-,37.5502,126.8732
정류소-도로(가로)변,서울특별시 강서구 가양역 우성아파트,-,37.5622,126.8533
정류소-도로(가로)변,서울특별시 강서구 SBS공개홀,-,37.5627,126.8499
정류소-도로(가로)변,서울특별시 강서구 마곡수명산파크3단지,-,37.5533,126.8259
정류소-도로(가로)변,서울특별시 강서구 KBS스포츠월드,-,37.5571,126.849
정류소-도로(가로)변,서울특별시 강서구 강서면허시험장,-,37.5496,126.8189
정류소-도로(가로)변,서울특별시 강서구 외발산신광명마을,-,37.5461,126.8211
정류소-도로(가로)변,서울특별시 강서구 수명산파크7단지,-,67.548,126.8242
정류소-도로(가로)변,서울특별시 강서구 이대서울병원,-,37.5585,126.8369
횡단보도,서울특별시 강서구 마곡수명산파트4단지,-,37.5506,126.8244
정류소-도로(가로)변,서울특별시 강서구 공항중학교,-,37.5628,126.8154
정류소-도로(가로)변,서울특별시 강서구 개화2치안센터,-,37.5785,126.8
정류소-도로(가로)변,서울특별시 강서구 강서공고,-,37.5755,126.8165
정류소-도로(가로)변,서울특별시 강서구 웰튼병원,-,37.567,126.8252
정류소-도로(가로)변,서울특별시 강서구 목동사거리,-,37.5323,126.8637
정류소-도로(가로)변,서울특별시 강서구 용문사,-,37.538,126.8585
정류소-도로(가로)변,서울특별시 강서구 베뉴지웨딩홀,-,37.5601,126.8388
정류소-도로(가로)변,서울특별시 강서구 가양초등학교,-,37.5617,126.8595
정류소-도로(가로)변,서울특별시 강서구 세현고등학교,-,37.5599,126.8634
정류소-도로(가로)변,서울특별시 강서구 강서농수산물도매시장,-,37.5515,126.8202
지하철역 6번 8번 출구,서울특별시 관악구 신림역,-,37.4842,126.9297
도로(가로)변 ,서울특별시 관악구 남부순환로 1937,-,37.4768844,126.9646631
도로(가로)변,서울특별시 관악구 남부순환로 1919,-,37.4776503,126.9626084
지하철역 5번 6번 출구,서울특별시 관악구 서울대입구역,-,37.48121,126.952712
도로(가로)변,서울특별시 관악구 관악로237,-,37.4858244,126.9559394
지하철역 4번 5번 출구,서울특별시 관악구 봉천역,-,37.482476,126.941574
지하철역 2번 3번 4번 출구,서울특별시 관악구 서울대입구역,-,37.48121,126.952712
도로(가로)변,서울특별시 관악구 남부순환로 1840,-,37.48032329999999,126.9542849
지하철역 6번 출구,서울특별시 관악구 사당역,-,37.476559,126.981633
지하철역 1번 2번 3번 출구,서울특별시 관악구 낙성대역,-,37.477117,126.963418
지하철역 4번 출구,서울특별시 관악구 사당역,-,37.476559,126.981633
도로(가로)변,서울특별시 관악구 신림로 158,-,37.4728855,126.9338558
도로(가로)변,서울특별시 관악구 신림로 165,-,37.473698,126.9332337
정류장-도로(가로)변,서울특별시 관악구 산복터널,-,37.45690829999999,126.9208393
도로(가로)변,서울특별시 관악구 남부순환로 1447,-,37.4815247,126.91152
도로(가로)변 ,서울특별시 관악구 태흥아파트,-,37.4659907,126.931088
도로(가로)변,서울특별시 관악구 신림로 78,-,37.4710121,126.9409593
도로(가로)변,서울특별시 관악구 산업정보학교,-,37.47026820000001,126.9422535
정류장-도로(가로)변,서울특별시 관악구 신림복지관,-,37.4649,126.9199
지하철역 1번 2번 출구,서울특별시 관악구 신대방역,-,37.487519,126.913282
도로(가로)변,서울특별시 관악구 주민센터,-,37.4700679,126.9329507
정류장-도로(가로)변,서울특별시 관악구 난곡로 264,-,37.4775008,126.9156531
도로(가로)변,서울특별시 관악구 시흥대로 576,-,37.4840262,126.9030646
도로(가로)변,서울특별시 관악구 남부순환로 1383 ,-,37.480225,126.9044554
도로(가로)변,서울특별시 관악구 남부순환로 1634,-,37.4841283,126.9322058
상가지역,서울특별시 관악구 신림로59길 14,-,37.4832519,126.9287583
도로(가로)변,서울특별시 관악구 남부순환로 1900,-,37.4780351,126.9601519
상가지역,서울특별시 관악구 남부순환로 1599-3,-,37.4844412,126.9282551
도로(가로)변,서울특별시 관악구 신림로 355-1,-,37.48605870000001,126.9291581
도로(가로)변,서울특별시 관악구 남부순환로 1841-1,-,37.4808145,126.9546998
도로(가로)변,서울특별시 관악구 남부순환로 1605,-,37.4843395,126.9290673
도로(가로)변,서울특별시 관악구 남부순화로 1587,-,37.48423990000001,126.9269283
도로(가로)변,서울특별시 관악구 남부순환로 1785,-,37.4819939,126.9486094
도로(가로)변,서울특별시 관악구 르네상스,-,37.4847939,126.9300876
다중집합소 주변,서울특별시 관악구 구민제2운동장,-,37.4581028,126.9336436
도로(가로)변,서울특별시 관악구 남부순환로 1417,-,37.48088240000001,126.9080243
도로(가로)변,서울특별시 관악구 남부순환로 1945,-,37.4767068,126.9652738
도로(가로)변,서울특별시 관악구 관악로 258,-,37.4869557,126.9578267
도로(가로)변,서울특별시 관악구 남부순환로 1474,-,37.4814196,126.9141956
도로(가로)변,서울특별시 관악구 난곡로57길 4-5,-,37.4799239,126.9144908
도로(가로)변,서울특별시 관악구 건영아파트,-,37.4770731,126.9518913
도로(가로)변,서울특별시 관악구 관악로 203,-,37.4832571,126.953768
도로(가로)변,서울특별시 관악구 남부순환로 1587,-,37.48423990000001,126.9269283
도로(가로)변,서울특별시 관악구 남부순환로 1766,-,37.4816696,126.9460869
도로(가로)변,서울특별시 관악구 관악로 172,-,37.4804646,126.9529465
도로(가로)변,서울특별시 관악구 남부순환로 1830,-,37.4807862,126.9531399
도로(가로)변,서울특별시 관악구 관악로 186,-,37.4815821,126.9532724
도로(가로)변,서울특별시 관악구 남부순환로 1827,-,37.4812977,126.9534075
도로(가로)변,서울특별시 관악구 관악로 185,-,37.4817505,126.9526436
도로(가로)변,서울특별시 관악구 남부순환로 1814,-,37.4810002,126.9515596
도로(가로)변,서울특별시 관악구 관악로 173,-,37.4806692,126.9522392
도로(가로)변,서울특별시 관악구 신림로 312,-,37.4821435,126.9301389
도로(가로)변,서울특별시 관악구 신림로 328,-,37.4834152,126.9299715
도로(가로)변,서울특별시 관악구 남부순환로 1618,-,37.4840392,126.9304318
도로(가로)변,서울특별시 관악구 남부순환로 1619,-,37.4846038,126.9304905
도로(가로)변,서울특별시 관악구 남부순환로 1615,-,37.4845117,126.9300644
도로(가로)변,서울특별시 관악구 신림로 360,-,37.4863269,126.9295297
도로(가로)변,서울특별시 관악구 남부순환로 1607,-,37.48439260000001,126.9292576
도로(가로)변,서울특별시 관악구 남부순환로 1603,-,37.4843604,126.9287832
정류장-도로(가로)변,서울특별시 관악구 남부순환로 1598,-,37.4837372,126.9283262
도로(가로)변,서울특별시 관악구 남부순환로 1604,-,37.4838877,126.9289245
도로(가로)변,서울특별시 관악구 신림로 327,-,37.4834622,126.9294937
횡단보도 주변,서울특별시 관악구 신림로 315,-,37.4824595,126.9296176
횡단보도 주변,서울특별시 관악구 신림로 137,-,37.4711157,126.9340392
횡단보도 주변,서울특별시 관악구 신림로 111,-,37.470558,126.9369434
횡단보도 주변,서울특별시 관악구 신림로 105,-,37.4704763,126.9375788
도로(가로)변,서울특별시 관악구 신림로 97,-,37.4702615,126.9386411
상가지역,서울특별시 관악구 신림로 373,-,37.4873675,126.9285254
상가지역,서울특별시 관악구 신림동길 8,-,37.4874706,126.9277663
상가지역,서울특별시 관악구 신림동길 16,-,37.4873169,126.9269137
상가지역,서울특별시 관악구 신림동길 28,-,37.4871398,126.9256747
도로(가로)변,서울특별시 관악구 봉천로 279,-,37.4878071,126.9322902
정류장-도로(가로)변,서울특별시 관악구 봉천로 212,-,37.4895887,126.9250629
정류장-도로(가로)변,서울특별시 관악구 은천로 114,-,37.4865862,126.9479638
정류장-도로(가로)변,서울특별시 관악구 쑥고개로 83,-,37.4794427,126.9457349
상가지역,서울특별시 관악구 남부순환로 1682,-,37.4839934,126.9372382
상가지역,서울특별시 관악구 남부순환로 1990,-,37.4749536,126.9698281
정류장-도로(가로)변,서울특별시 관악구 남부순환로 2056,-,37.47626169999999,126.9771748
도로(가로)변,서울특별시 관악구 난곡로 247,-,37.4760754,126.9157585
도로(가로)변,서울특별시 관악구 난곡로 225,-,37.4742479,126.9168125
도로(가로)변,서울특별시 관악구 신림로 282,-,37.47973169999999,126.9313649
도로(가로)변,서울특별시 관악구 신림로 250,-,37.4781356,126.933823
도로(가로)변,서울특별시 관악구 호암로 589,-,37.4700679,126.9329507
다중집합소 주변,서울특별시 관악구 조원로12길 25,-,37.4825228,126.9077834
도로(가로)변,서울특별시 관악구 조원로 142,-,37.4853658,126.9180914
도로(가로)변,서울특별시 관악구 관악로 168,-,37.4801549,126.9529757
도로(가로)변,서울특별시 관악구 관악로 161,-,37.4795693,126.9521709
도로(가로)변,서울특별시 관악구 남부순환로 1817,-,37.4815987,126.9522003
횡단보도 주변,서울특별시 관악구 봉천로 482,-,37.4816957,126.953385
정류장-도로(가로)변,서울특별시 관악구 관악로 195,-,37.48267990000001,126.9532107
정류장-도로(가로)변,서울특별시 관악구 관악로 196,-,37.4823319,126.9537877
도로(가로)변,서울특별시 관악구 신림로 371,-,37.4872771,126.9285923
정류장-도로(가로)변,서울특별시 관악구 21028,-,37.4784063,126.9516133
정류장-도로(가로)변,서울특별시 관악구 21373,-,37.4784063,126.9516133
도로(가로)변,서울특별시 관악구 은천로 69,-,37.4868591,126.9429033
도로(가로)변,서울특별시 관악구 관악로 145,-,37.478321,126.9512138
정류장-도로(가로)변,서울특별시 관악구 관악로 306,-,37.4921791,126.9583387
도로(가로)변,서울특별시 관악구 남현예술정원,-,37.4763487,126.9808213
도로(가로)변,서울특별시 관악구 남부순환로 2022,-,37.4757073,126.9732932
정류장-도로(가로)변,서울특별시 관악구 구로디지털단지,-,37.485215,126.901594
도로(가로)변,서울특별시 관악구 신림로40,-,37.4705384,126.9453094
도로(가로)변,서울특별시 관악구 문영여고 입구,-,37.4734279,126.9510634
도로(가로)변,서울특별시 관악구 문영여고 건너편,-,37.4734279,126.9510634
도로(가로)변,서울특별시 관악구 신림동 산197-3,-,37.4777625,126.9179591
도로(가로)변,서울특별시 관악구 난곡로 358-1,-,37.4859671,126.9138979
도로(가로)변,서울특별시 관악구 난곡로 349-1,-,37.4851796,126.9136063
정류소-도로(가로)변,서울특별시 광진구 아차산역,-,37.5519,127.0894
정류소-도로(가로)변,서울특별시 광진구 중곡동입구,-,37.5544,127.0885
정류소-도로(가로)변,서울특별시 광진구 용마초,-,37.556,127.0824
정류소-도로(가로)변,서울특별시 광진구 군자교입구,-,37.5587,127.0756
정류소-도로(가로)변,서울특별시 광진구 광나루역,-,37.5454,127.1033
정류소-도로(가로)변,서울특별시 광진구 새밭교회,-,37.5491,127.0927
도로(가로)변,서울특별시 광진구 아차산역사거리,-,37.5509,127.0915
5번출구 지하철 입구,서울특별시 광진구 군자역,-,37.5568,127.0799
횡단보도 입구,서울특별시 광진구 어린이회관,-,37.5469,127.078044
정류소-도로(가로)변,서울특별시 광진구 구의사거리,-,37.5450671,127.0853208
횡단보도 입구,서울특별시 광진구 광진구 민방위교육장,-,37.5389,127.0978
정류소-도로(가로)변,서울특별시 광진구 구의시장삼거리,-,37.544777,127.0902635
정류소-도로(가로)변,서울특별시 광진구 청소년수련원,-,37.5461,127.1056
다중집합장소,서울특별시 광진구 자양동 680-22,-,37.5365522,127.0877846
2번출구 지하철 입구,서울특별시 광진구 구의역,-,37.5375,127.0871
정류소-도로(가로)변,서울특별시 광진구 건국대,-,37.5388,127.0748
신한은행 도로(가로)변,서울특별시 광진구 자양사거리,-,37.5365404,127.0835712
정류소-도로(가로)변,서울특별시 광진구 광장동 극동아파트,-,37.5431233,127.1042357
도로(가로)변,서울특별시 광진구 광장동 강평주유소,-,37.5478727,127.1072075
정류소-도로(가로)변,서울특별시 광진구 자양미소약국,-,37.5326628,127.0769949
정류소-도로(가로)변,서울특별시 광진구 자양 우성아파트,-,37.5337,127.0735
정류소-도로(가로)변,서울특별시 광진구 신양초등학교,-,37.5345681,127.069156
4번출구 지하철 입구,서울특별시 광진구 강변역,-,37.5352,127.0945
정류소-도로(가로)변,서울특별시 광진구 강변역,-,37.536,127.0937
정류소-도로(가로)변,서울특별시 광진구 잠실대교북단 사거리,-,37.5324,127.0853
정류소-도로(가로)변,서울특별시 광진구 서북면옥,-,37.5453552,127.0853009
다중집합장소,서울특별시 광진구 광진구청,-,37.53837420000001,127.0822077
정류소-도로(가로)변,서울특별시 광진구 광진경찰서,-,37.542873,127.083821
다중집합장소,서울특별시 광진구 중곡동 SK아파트 마을마당,-,37.5688959,127.0864699
다중집합장소,서울특별시 광진구 국립정신건강센터,-,37.5649264,127.0851775
횡단보도 입구,서울특별시 광진구 21세기약국,-,37.5579267,127.0875702
횡단보도 입구,서울특별시 광진구 22세기약국,-,37.6003662,127.1007344
정류소-도로(가로)변,서울특별시 광진구 능동교회,-,37.5531493,127.0768769
도로(가로)변,서울특별시 광진구 용마사거리 고려학원,-,37.562676,127.0822372
도로(가로)변,서울특별시 광진구 중곡동 성당(파출소),-,37.563,127.0825
3번출구 정류소-도로(가로)변,서울특별시 광진구 어린이대공원역,-,37.5471,127.0745
정류소-도로(가로)변,서울특별시 광진구 건대역,-,37.5408,127.068
1번출구 지하철 입구,서울특별시 광진구 어린이대공원,-,37.549,127.0753
정류소-도로(가로)변,서울특별시 광진구 능동소방서,-,37.5517,127.0767
도로(가로)변,서울특별시 광진구 화양사거리,-,37.5473,127.067
도로(가로)변,서울특별시 광진구 빗물펌프장,-,37.5642,127.0762
정류소-도로(가로)변,서울특별시 광진구 중곡아파트,-,37.5658,127.0772
도로(가로)변,서울특별시 광진구 중곡동 241-30,-,37.5632341,127.0800193
CU편의점:다중집합장소,서울특별시 광진구 동일로22길 25,-,37.5422777,127.0658004
벤처창업지원센터:다중집합장소,서울특별시 광진구 광나루로 474,-,37.5450413,127.0817751
경성주막:다중집합장소,서울특별시 광진구 자양로18길 41,-,37.5380479,127.0859163
구두상점:다중집합장소,서울특별시 광진구 자양로18길 52,-,37.5379661,127.0863982
편의점:다중집합장소,서울특별시 광진구 자양로18길 53,-,37.5381452,127.0863768
공영주차장:다중집합장소,서울특별시 광진구 자양로18길 78,-,37.5382332,127.0878512
대양참치:다중집합장소,서울특별시 광진구 자양로18길 96,-,37.5385287,127.0887789
소야지 붉은노을점:다중집합장소,서울특별시 광진구 능동로36길 24,-,37.5558218,127.0804375
청춘골뱅이닭발:다중집합장소,서울특별시 광진구 능동로36길 29,-,37.5559741,127.0807831
대봉갈비:다중집합장소,서울특별시 광진구 능동로36길 29,-,37.5559741,127.0807831
쉼터:다중집합장소,서울특별시 광진구 능동로36길 36,-,37.5556107,127.0809833
도로변(횡단보도 포함),서울특별시 구로구 구로동로13,-,37.4828622,126.8868043
정류소-도로(가로)변,서울특별시 구로구 구로동로25,-,37.4838334,126.8863139
지하철역 입구,서울특별시 구로구 구로동로31,-,37.4843979,126.8859731
정류소-도로(가로)변,서울특별시 구로구 남부순환로1295,-,37.4790848,126.8948335
정류소-도로(가로)변,서울특별시 구로구 남부순환로105길76,-,37.4801254,126.8886811
도로변(횡단보도 포함),서울특별시 구로구 남부순환로105길134,-,37.482126,126.886701
도로변(횡단보도 포함),서울특별시 구로구 디지털로230,-,37.4803612,126.8914352
도로변(횡단보도 포함),서울특별시 구로구 디지털로231,-,37.4833793,126.8941131
도로변(횡단보도 포함),서울특별시 구로구 디지털로27길135,-,37.4848127,126.8865877
도로변(횡단보도 포함),서울특별시 구로구 개봉로23가길30,-,37.4950238,126.8580402
도로변(횡단보도 포함),서울특별시 구로구 경인로33길51,-,37.5001669,126.8510677
도로변(횡단보도 포함),서울특별시 구로구 남부순환로775,-,37.4821111,126.8875564
도로변(횡단보도 포함),서울특별시 구로구 경인로313,-,37.4974611,126.8551532
도로변(횡단보도 포함),서울특별시 구로구 경인로281,-,37.4984568,126.8518154
정류소-도로(가로)변,서울특별시 구로구 개봉역,-,37.4946,126.8589
도로변(횡단보도 포함),서울특별시 구로구 고척로101,-,37.5012146,126.8452238
도로변(횡단보도 포함),서울특별시 구로구 고척로85,-,37.5009294,126.8436121
도로변(횡단보도 포함),서울특별시 구로구 고척로102,-,37.5009991,126.845485
도로변(횡단보도 포함),서울특별시 구로구 경인로33길25,-,37.4989857,126.8517179
도로변(횡단보도 포함),서울특별시 구로구 경인로319,-,37.4975773,126.8556106
도로변(횡단보도 포함),서울특별시 구로구 남부순환로775,-,37.4821111,126.8875564
정류소-도로(가로)변,서울특별시 구로구 개봉로 63,-,37.4913,126.8561
도로변(횡단보도 포함),서울특별시 구로구 개봉로 71,-,37.4919702,126.8555209
정류소-도로(가로)변,서울특별시 구로구 개봉로19길 43,-,37.4935634,126.8555418
정류소-도로(가로)변,서울특별시 구로구 개봉로20길 54,-,37.4933988,126.8573378
도로변(횡단보도 포함),서울특별시 구로구 개봉로20길 74,-,37.4932487,126.8584065
정류소-도로(가로)변,서울특별시 구로구 남부순환로95길 16,-,37.4942723,126.8574704
정류소-도로(가로)변,서울특별시 구로구 남부순환로95길 30,-,37.4944201,126.8563891
도로변(횡단보도 포함),서울특별시 구로구 개봉로4,-,37.4860633,126.8567677
도로변(횡단보도 포함),서울특별시 구로구 개봉로1길40,-,37.4850208,126.8544362
도로변(횡단보도 포함),서울특별시 구로구 개봉로10,-,37.48657,126.8567023
도로변(횡단보도 포함),서울특별시 구로구 개봉로22,-,37.4874659,126.8565473
도로변(횡단보도 포함),서울특별시 구로구 개봉로34,-,37.488566,126.8564503
정류소-도로(가로)변,서울특별시 구로구 경서로 47,-,37.5014392,126.8585012
정류소-도로(가로)변,서울특별시 구로구 중앙로109,-,37.5070541,126.8594992
정류소-도로(가로)변,서울특별시 구로구 고척로142-1,-,37.5026074,126.8498258
도로변(횡단보도 포함),서울특별시 구로구 고척로212,-,37.5052678,126.8570212
정류소-도로(가로)변,서울특별시 구로구 경인로33길75,-,37.5011558,126.8507471
정류소-도로(가로)변,서울특별시 구로구 고척로229,-,37.5062366,126.8584372
정류소-도로(가로)변,서울특별시 구로구 고척로 238,-,37.50612479999999,126.8593652
정류소-도로(가로)변,서울특별시 구로구 고척로189,-,37.5046189,126.8543155
정류소-도로(가로)변,서울특별시 구로구 고척로238,-,37.50612479999999,126.8593652
도로변(횡단보도 포함),서울특별시 구로구 고척로153,-,37.5032833,126.8507575
도로변(횡단보도 포함),서울특별시 구로구 고척로196,-,37.5045242,126.855137
도로변(횡단보도 포함),서울특별시 구로구 고척로222,-,37.5055084,126.8577696
도로변(횡단보도 포함),서울특별시 구로구 중앙로15길94,-,37.5071946,126.8547433
도로변(횡단보도 포함),서울특별시 구로구 중앙로15길100-9,-,37.507453,126.8540641
정류소-도로(가로)변,서울특별시 구로구 구일로4길 46,-,37.4922564,126.8771784
정류소-도로(가로)변,서울특별시 구로구 구일로4길 57,-,37.492999,126.8757753
정류소-도로(가로)변,서울특별시 구로구 구로동 693-2,-,37.4898387,126.8754517
정류소-도로(가로)변,서울특별시 구로구 가마산로 87,-,37.4862802,126.8759913
도로변(횡단보도 포함),서울특별시 구로구 구일로 62,-,37.4917465,126.8743489
도로변(횡단보도 포함),서울특별시 구로구 구일로2길 60,-,37.4901992,126.8768791
정류소-도로(가로)변,서울특별시 구로구 구일로8길 31,-,37.4946762,126.8724118
도로변(횡단보도 포함),서울특별시 구로구 구로중앙로 135-6,-,37.4998914,126.8828375
도로변(횡단보도 포함),서울특별시 구로구 구로동로 141,-,37.4912729,126.8833142
도로변(횡단보도 포함),서울특별시 구로구 가마산로 245,-,37.4954708,126.8876994
도로변(횡단보도 포함),서울특별시 구로구 가마산로 235,-,37.4947449,126.8865872
도로변(횡단보도 포함),서울특별시 구로구 가마산로 250,-,37.4947879,126.8886651
도로변(횡단보도 포함),서울특별시 구로구 구로동로 135,-,37.4906074,126.883634
도로변(횡단보도 포함),서울특별시 구로구 가마산로 206,-,37.4929993,126.8839761
도로변(횡단보도 포함),서울특별시 구로구 구로동로 159,-,37.4927179,126.8831909
도로변(횡단보도 포함),서울특별시 구로구 경인로 565,-,37.5035892,126.879696
도로변(횡단보도 포함),서울특별시 구로구 경인로 557,-,37.5030698,126.8789856
도로변(횡단보도 포함),서울특별시 구로구 경인로 518,-,37.4994214,126.8754664
도로변(횡단보도 포함),서울특별시 구로구 구로동로 179,-,37.4944182,126.882521
도로변(횡단보도 포함),서울특별시 구로구 구로동로 203,-,37.49667549999999,126.8822601
도로변(횡단보도 포함),서울특별시 구로구 구로동 490,-,37.4982018,126.8832076
도로변(횡단보도 포함),서울특별시 구로구 구로동로 174,-,37.4941543,126.8833923
도로변(횡단보도 포함),서울특별시 구로구 가마산로 180-2,-,37.4916408,126.8822899
도로변(횡단보도 포함),서울특별시 구로구 가마산로 222,-,37.49345599999999,126.8857763
도로변(횡단보도 포함),서울특별시 구로구 가마산로 9길 4-4,-,37.4914895,126.8816374
도로변(횡단보도 포함),서울특별시 구로구 벚꽃로 484,-,37.4973069,126.8801438
도로변(횡단보도 포함),서울특별시 구로구 구로동로 125-1,-,37.489785,126.8840431
도로변(횡단보도 포함),서울특별시 구로구 구로동로 107,-,37.4881,126.884516
도로변(횡단보도 포함),서울특별시 구로구 가마산로203,-,37.493344,126.8837402
도로변(횡단보도 포함),서울특별시 구로구 가마산로250,-,37.4947879,126.8886651
도로변(횡단보도 포함),서울특별시 구로구 가마산로242,-,37.494317,126.8876532
도로변(횡단보도 포함),서울특별시 구로구 구로동로238-1,-,37.4997947,126.8826151
도로변(횡단보도 포함),서울특별시 구로구 구로동로153,-,37.4923218,126.8834185
정류소-도로(가로)변,서울특별시 구로구 가마산로218,-,37.4922173,126.8849478
정류소-도로(가로)변,서울특별시 구로구 구로동로173,-,37.4938964,126.8828952
도로변(횡단보도 포함),서울특별시 구로구 구로동로216,-,37.497805,126.8826967
도로변(횡단보도 포함),서울특별시 구로구 구로구청,-,37.4954703,126.8876391
도로변(횡단보도 포함),서울특별시 구로구 구로동로 153,-,37.4923218,126.8834185
도로변(횡단보도 포함),서울특별시 구로구 구로동로 219,-,37.4980913,126.8821926
도로변(횡단보도 포함),서울특별시 구로구 가마산로 205,-,37.4934248,126.8840975
도로변(횡단보도 포함),서울특별시 구로구 구로동로 170,-,37.4937154,126.8833819
도로변(횡단보도 포함),서울특별시 구로구 구로동로 210,-,37.497182,126.8826517
도로변(횡단보도 포함),서울특별시 구로구 도림로 6,-,37.4851213,126.8867244
도로변(횡단보도 포함),서울특별시 구로구 도림천로 376,-,37.4913935,126.895083
도로변(횡단보도 포함),서울특별시 구로구 도림천로 448,-,37.4856498,126.8990889
도로변(횡단보도 포함),서울특별시 구로구 디지털로 273,-,37.4839163,126.8940805
도로변(횡단보도 포함),서울특별시 구로구 디지털로 292,-,37.4846486,126.8958823
도로변(횡단보도 포함),서울특별시 구로구 디지털로 319,-,37.4883204,126.8960849
도로변(횡단보도 포함),서울특별시 구로구 디지털로26길 5,-,37.4815733,126.8934683
도로변(횡단보도 포함),서울특별시 구로구 디지털로27길 120-1,-,37.4849114,126.8874964
도로변(횡단보도 포함),서울특별시 구로구 디지털로31길 120,-,37.4885326,126.8906507
도로변(횡단보도 포함),서울특별시 구로구 디지털로32길 55,-,37.4839471,126.8983439
도로변(횡단보도 포함),서울특별시 구로구 디지털로32길 79,-,37.4834102,126.8997098
상가지역,서울특별시 구로구 디지털로32나길 38,-,37.4844951,126.9011683
지하철역 입구,서울특별시 구로구 디지털로32나길 51,-,37.4848624,126.9005444
도로변(횡단보도 포함),서울특별시 구로구 시흥대로 557,-,37.48294050000001,126.901035
정류소-도로(가로)변,서울특별시 구로구 시흥대로 563,-,37.4833531,126.9014123
도로변(횡단보도 포함),서울특별시 구로구 디지털로27가길 17,-,37.4841623,126.8922497
도로변(횡단보도 포함),서울특별시 구로구 디지털로31길 41,-,37.4851381,126.8927305
도로변(횡단보도 포함),서울특별시 구로구 디지털로31길 61,-,37.4858711,126.8915302
도로변(횡단보도 포함),서울특별시 구로구 디지털로31길 86,-,37.4876957,126.8918232
도로변(횡단보도 포함),서울특별시 구로구 디지털로31길 109,-,37.4862522,126.8921456
도로변(횡단보도 포함),서울특별시 구로구 도림천로352,-,37.493394,126.8942303
도로변(횡단보도 포함),서울특별시 구로구 도림로57,-,37.4888737,126.8901255
도로변(횡단보도 포함),서울특별시 구로구 구로동로70,-,37.4851089,126.8861762
정류소-도로(가로)변,서울특별시 구로구 도림로5,-,37.4851848,126.8862949
정류소-도로(가로)변,서울특별시 구로구 구로동로84,-,37.4862267,126.885661
도로변(횡단보도 포함),서울특별시 구로구 구로동로96-1,-,37.4872673,126.8851672
도로변(횡단보도 포함),서울특별시 구로구 구로동로108,-,37.4882079,126.8848683
도로변(횡단보도 포함),서울특별시 구로구 구로동로124,-,37.4895913,126.8845232
도로변(횡단보도 포함),서울특별시 구로구 구로동로126-2,-,37.4898962,126.884556
도로변(횡단보도 포함),서울특별시 구로구 구로중앙로28길66,-,37.500076,126.8893241
도로변(횡단보도 포함),서울특별시 구로구 새말로94,-,37.5054168,126.8905151
정류소-도로(가로)변,서울특별시 구로구 구로중앙로 68,-,37.49578109999999,126.8887906
정류소-도로(가로)변,서울특별시 구로구 구로중앙로152,-,37.5012056,126.8827953
도로변(횡단보도 포함),서울특별시 구로구 가마산로283,-,37.4968668,126.8913745
정류소-도로(가로)변,서울특별시 구로구 새말로81,-,37.5051016,126.8888957
도로변(횡단보도 포함),서울특별시 구로구 가마산로27길45,-,37.4984981,126.8896924
도로변(횡단보도 포함),서울특별시 구로구 공원로27,-,37.4993727,126.8909981
도로변(횡단보도 포함),서울특별시 구로구 공원로51,-,37.501553,126.8891586
도로변(횡단보도 포함),서울특별시 구로구 공원로6길,-,37.5010673,126.8915476
도로변(횡단보도 포함),서울특별시 구로구 공원로54,-,37.5025033,126.8901794
정류소-도로(가로)변,서울특별시 구로구 신도림역,-,37.5088,126.8911
도로변(횡단보도 포함),서울특별시 구로구 새말로117-6,-,37.5086867,126.8909033
도로변(횡단보도 포함),서울특별시 구로구 경인로572,-,37.5032462,126.8810549
도로변(횡단보도 포함),서울특별시 구로구 구로중앙로 68,-,37.49578109999999,126.8887906
도로변(횡단보도 포함),서울특별시 구로구 구로중앙로28길 65,-,37.5004144,126.8888995
도로변(횡단보도 포함),서울특별시 구로구 구로중앙로28길 108,-,37.4995852,126.8872629
도로변(횡단보도 포함),서울특별시 구로구 구로동514-2,-,37.4984561,126.8863727
도로변(횡단보도 포함),서울특별시 구로구 구로동3-64,-,37.5072381,126.8928509
도로변(횡단보도 포함),서울특별시 구로구 오리로15길 32,-,37.49386459999999,126.8314537
도로변(횡단보도 포함),서울특별시 구로구 오리로 1307,-,37.4980002,126.8288922
정류소-도로(가로)변,서울특별시 구로구 오리로1293,-,37.4968409,126.8291953
도로변(횡단보도 포함),서울특별시 구로구 오리로1286,-,37.49624050000001,126.8299895
정류소-도로(가로)변,서울특별시 구로구 궁동 199-26,-,37.4933405,126.8358687
도로변(횡단보도 포함),서울특별시 구로구 부일로 973-9,-,37.4935098,126.8352124
도로변(횡단보도 포함),서울특별시 구로구 부일로 973-9,-,37.4935098,126.8352124
정류소-도로(가로)변,서울특별시 구로구 부일로15길 4,-,37.4934709,126.8343807
정류소-도로(가로)변,서울특별시 구로구 부일로 957,-,37.4934413,126.8336643
정류소-도로(가로)변,서울특별시 구로구 부일로 949,-,37.4933032,126.8304578
도로변(횡단보도 포함),서울특별시 구로구 온수동 119-4,-,37.4925296,126.8235022
정류소-도로(가로)변,서울특별시 구로구 부일로869,-,37.4933032,126.8304578
도로변(횡단보도 포함),서울특별시 구로구 부일로861,-,37.49253849999999,126.8229457
정류소-도로(가로)변,서울특별시 구로구 부일로9길 87,-,37.4960633,126.8242124
도로변(횡단보도 포함),서울특별시 구로구 부일로9길 133,-,37.4968568,126.8221836
정류소-도로(가로)변,서울특별시 구로구 경인로 21,-,37.4896861,126.8247861
도로변(횡단보도 포함),서울특별시 구로구 경인로3길 77,-,37.4916901,126.8235222
도로변(횡단보도 포함),서울특별시 구로구 경인로 662(현대백화점),-,37.5084321,126.8887332
정류소-도로(가로)변,서울특별시 구로구 신도림로11길 38(세븐일레븐),-,37.5052,126.8839
도로변(횡단보도 포함),서울특별시 구로구 신도림로13길3,-,37.5083572,126.8803328
정류소-도로(가로)변,서울특별시 구로구 경인로 619(새마을식당),-,37.5067193,126.8846127
정류소-도로(가로)변,서울특별시 구로구 신도림동 330-6(자율방범초소),-,37.5109196,126.8897629
정류소-도로(가로)변,서울특별시 구로구 신도림로 16(대림12차아파트 503동 앞),-,37.5057794,126.880714
도로변(횡단보도 포함),서울특별시 구로구 신도림로 2(파리바게트),-,37.5055476,126.8772689
정류소-도로(가로)변,서울특별시 구로구 경인로67길 23(푸르지오2차아파트 상가),-,37.5104893,126.8894187
도로변(횡단보도 포함),서울특별시 구로구 신도림로 78(신도림중학교),-,37.5107,126.8845
정류소-도로(가로)변,서울특별시 구로구 신도림로 87(동아1차아파트 102동),-,37.5108,126.8841
정류소-도로(가로)변,서울특별시 구로구 신도림로 67(도야미리식당 앞),-,37.5098672,126.8820283
정류소-도로(가로)변,서울특별시 구로구 신도림로 32(대림5차아파트),-,37.4869,126.8882
도로변(횡단보도 포함),서울특별시 구로구 신도림로40,-,37.5076903,126.8806945
도로변(횡단보도 포함),서울특별시 구로구 신도림로56-13,-,37.5083837,126.8826556
정류소-도로(가로)변,서울특별시 구로구 신도림로 11(대림3차아파트),-,37.5069,126.8785
도로변(횡단보도 포함),서울특별시 구로구 신도림동 437-8(우리은행),-,37.5059818,126.8836369
정류소-도로(가로)변,서울특별시 구로구 신도림동 646-1(대림4차아파트 놀이터),-,37.5095,126.886
도로변(횡단보도 포함),서울특별시 구로구 신도림동 385-3(대림7차아파트),-,37.5089,126.882
도로변(횡단보도 포함),서울특별시 구로구 신도림동 383-16(넥센타이어),-,37.5083209,126.8841077
도로변(횡단보도 포함),서울특별시 구로구 신도림로691,-,37.5085751,126.8814279
도로변(횡단보도 포함),서울특별시 구로구 신도림로19길7,-,37.5111606,126.8844556
도로변(횡단보도 포함),서울특별시 구로구 경인로63길21,-,37.5089027,126.8836975
정류소-도로(가로)변,서울특별시 구로구 경인로 213-1,-,37.4966112,126.8445822
도로변(횡단보도 포함),서울특별시 구로구 경인로 211-1,-,37.4964892,126.8443523
도로변(횡단보도 포함),서울특별시 구로구 경인로 203,-,37.4960336,126.8433777
정류소-도로(가로)변,서울특별시 구로구 경인로 193,-,37.4957517,126.8425667
정류소-도로(가로)변,서울특별시 구로구 고척로 6-1,-,37.49538829999999,126.8408783
정류소-도로(가로)변,서울특별시 구로구 경인로 161,-,37.4943979,126.8393997
정류소-도로(가로)변,서울특별시 구로구 경인로 176-4,-,37.4944326,126.8407302
도로변(횡단보도 포함),서울특별시 구로구 경인로 196,-,37.4953416,126.8429191
정류소-도로(가로)변,서울특별시 구로구 경인로 228,-,37.4967862,126.8461696
도로변(횡단보도 포함),서울특별시 구로구 천왕동 282-10,-,37.4803813,126.8415075
정류소-도로(가로)변,서울특별시 구로구 천왕동 12-39,-,37.4836739,126.8412447
정류소-도로(가로)변,서울특별시 구로구 천왕동 11-17,-,37.4835704,126.8410711
정류소-도로(가로)변,서울특별시 구로구 오류로66,-,37.4904101,126.8407935
다중집합장소,서울특별시 구로구 오류로86,-,37.4924193,126.8409626
다중집합장소,서울특별시 구로구 오류동 332-36,-,37.4934293,126.842978
정류소-도로(가로)변,서울특별시 구로구 오류동 169-3,-,37.4882873,126.8396978
도로변(횡단보도 포함),서울특별시 구로구 항동 115-2,-,37.4801603,126.822604
도로변(횡단보도 포함),서울특별시 구로구 항동 113-5,-,37.4798029,126.8220963
정류소-도로(가로)변,서울특별시 구로구 항동 82-7,-,37.4818324,126.824752
정류소-도로(가로)변,서울특별시 구로구 항동 88-2,-,37.48127789999999,126.8248138
정류소-도로(가로)변,서울특별시 구로구 항동 204-2,-,37.4868205,126.8241535
도로변(횡단보도 포함),서울특별시 구로구 항동 169-1,-,37.4784844,126.8236094
정류소-도로(가로)변,서울특별시 구로구 항동 100-14,-,37.4812646,126.8216663
정류소-도로(가로)변,서울특별시 구로구 항동 9-1,-,37.4853529,126.8241428
1번출구 지하철역 입구,서울특별시 금천구 63길 91 금천구청역,-,37.456001144249,126.89435425184
정류소-도로(가로)변,서울특별시 금천구 문성초등학교,-,37.4742,126.8985
정류소-도로(가로)변,서울특별시 금천구 금천우체국,-,37.4701,126.898
정류소-도로(가로)변,서울특별시 금천구 롯데캐슬,-,37.4609,126.894
정류소-도로(가로)변,서울특별시 금천구 금천구청,-,37.456440659923,126.89550733404
정류소-도로(가로)변,서울특별시 금천구 석수역,-,37.4351,126.9023
정류소-도로(가로)변,서울특별시 금천구 박미삼거리,-,37.4485,126.9031
정류소-도로(가로)변,서울특별시 금천구 시흥사거리,-,37.4547,126.9005
정류소-도로(가로)변,서울특별시 금천구 말미고개,-,37.4644,126.8975
소방서 부지:정류소-도로(가로)변,서울특별시 금천구 344,-,37.477372530484,126.90380456173
정류소-도로(가로)변,서울특별시 금천구 63길48,-,37.455406736146,126.89703796409
정류소-도로(가로)변,서울특별시 금천구 230-1,-,37.467335187223,126.90196613051
정류소-도로(가로)변,서울특별시 금천구 독산동 1008-1,-,37.4664,126.8974
정류소-도로(가로)변,서울특별시 금천구 679,-,37.452536589218,126.90581189576
정류소-도로(가로)변,서울특별시 금천구 197,-,37.464559450973,126.90265734758
정류소-도로(가로)변,서울특별시 금천구 366,-,37.479513947216,126.90404096694
정류소-도로(가로)변,서울특별시 금천구 309 가산역 1번 출구,-,37.482008521188,126.88259886507
정류소-도로(가로)변,서울특별시 노원구 동일로 1104,-,37.6284576,127.0718555
정류소-도로(가로)변,서울특별시 노원구 동일로 1082(대우직업능력개발원),-,37.6014,127.0806
정류소-도로(가로)변,서울특별시 노원구 동일로 1038,-,37.6227529,127.0742249
정류소-도로(가로)변,서울특별시 노원구 공릉동 661-7,-,37.61871319999999,127.0778613
정류소-도로(가로)변,서울특별시 노원구 공릉역,-,37.6304778,127.0901988
정류소-도로(가로)변,서울특별시 노원구 동일로 1041(은성빌딩),-,37.6230296,127.0735697
정류소-도로(가로)변,서울특별시 노원구 태릉입구역,-,37.6179085,127.0750345
정류소-도로(가로)변,서울특별시 노원구 동일로 192길 20,-,37.6258814,127.0742404
정류소-도로(가로)변,서울특별시 노원구 공릉동 산 208-1,-,37.6270141,127.0851133
정류소-도로(가로)변,서울특별시 노원구 예수사랑교회,-,37.6223,127.0879
정류소-도로(가로)변,서울특별시 노원구 화랑대역,-,37.6199,127.0837
정류소-도로(가로)변,서울특별시 노원구 공릉한보아파트,-,37.627356,127.080206
정류소-도로(가로)변,서울특별시 노원구 상계동 820(서울교통공사창동차량사업소),-,37.6613167,127.0528486
정류소-도로(가로)변,서울특별시 노원구 상계주공7단지(704동),-,37.6572,127.06
정류소-도로(가로)변,서울특별시 노원구 상계주공7단지(714동),-,37.6602,127.0591
정류소-도로(가로)변,서울특별시 노원구 상계주공9단지(914동),-,37.6627,127.0585
정류소-도로(가로)변,서울특별시 노원구 대림종합상가(대림아파트 2동),-,37.6620526,127.0742908
정류소-도로(가로)변,서울특별시 노원구 도봉운전면허시험장,-,37.6582111,127.0587282
정류소-도로(가로)변,서울특별시 노원구 수락산역,-,37.677881,127.055293
정류소-도로(가로)변,서울특별시 노원구 맥도날드,-,37.6541917,127.056793
정류소-도로(가로)변,서울특별시 노원구 노일초등학교,-,37.6734953,127.0547368
정류소-도로(가로)변,서울특별시 노원구 당고개역,-,37.67026,127.079011
정류소-도로(가로)변,서울특별시 노원구 한글비석로 463,-,37.6641776,127.0664226
정류소-도로(가로)변,서울특별시 노원구 노해로 456,-,37.6535514,127.0587825
정류소-도로(가로)변,서울특별시 노원구 노원에코센터(상계동 770-2),-,37.6441101,127.0582651
정류소-도로(가로)변,서울특별시 노원구 노원구청(상계동 704 건물),-,37.6541,127.0565
정류소-도로(가로)변,서울특별시 노원구 상계동 705-1,-,37.6539991,127.0579745
정류소-도로(가로)변,서울특별시 노원구 당현천 근린공원(동일로 1328-1),-,37.6478042,127.0634589
정류소-도로(가로)변,서울특별시 노원구 상계주공 2단지(201동 ),-,37.6494975,127.0617512
정류소-도로(가로)변,서울특별시 노원구 상계주공4단지(상계동 749-3 ),-,37.6507047,127.0619099
정류소-도로(가로)변,서울특별시 노원구 상계동 666(1005동),-,37.6629991,127.05545
정류소-도로(가로)변,서울특별시 노원구 상계주공15단지(1508동 ),-,37.6683,127.0566
정류소-도로(가로)변,서울특별시 노원구 상계주공10단지(1001동 ),-,37.6623,127.0581
정류소-도로(가로)변,서울특별시 노원구 광운대학교(광운로 20),-,37.6194277,127.05982
정류소-도로(가로)변,서울특별시 노원구 광운대역,-,37.6237325,127.061817
정류소-도로(가로)변,서울특별시 노원구 월계한일1차아파트,-,37.6219462,127.0617376
정류소-도로(가로)변,서울특별시 노원구 월계주공 1단지(103동),-,37.6281642,127.0527347
정류소-도로(가로)변,서울특별시 노원구 월계로 55길 16(월계사슴2단지 205동 ),-,37.6325561,127.0608762
정류소-도로(가로)변,서울특별시 노원구 월계헬스케어센터(월계로 378),-,37.6313974,127.061568
정류소-도로(가로)변,서울특별시 노원구 한글비석로 269,-,37.6516789,127.0767715
정류소-도로(가로)변,서울특별시 노원구 한글비석로 245,-,37.649542,127.0763583
정류소-도로(가로)변,서울특별시 노원구 어린이교통공원(중계동 500),-,37.6452,127.0627
정류소-도로(가로)변,서울특별시 노원구 중계역,-,37.6514398,127.0831273
정류소-도로(가로)변,서울특별시 노원구 노원구민의전당(동일로 1229),-,37.638841,127.0661233
정류소-도로(가로)변,서울특별시 노원구 서울시립북서울미술관(동일로 1238) ,-,37.6407938,127.0667628
정류소-도로(가로)변,서울특별시 노원구 중계동 591,-,37.6597817,127.0731906
정류소-도로(가로)변,서울특별시 노원구 한글비석로 383,-,37.6590511,127.0728631
정류소-도로(가로)변,서울특별시 노원구 한글비석로 250,-,37.6499858,127.0769999
정류소-도로(가로)변,서울특별시 노원구 한글비석로 276,-,37.6518767,127.0777573
정류소-도로(가로)변,서울특별시 노원구 노원경찰서,-,37.6421389,127.0710473
정류소-도로(가로)변,서울특별시 노원구 중계주공 9단지(주공905동),-,37.642,127.0725
정류소-도로(가로)변,서울특별시 노원구 하계역 미성아파트(6동),-,37.6351,127.0688
정류소-도로(가로)변,서울특별시 노원구 하계역,-,37.637576,127.0725939
정류소-도로(가로)변,서울특별시 노원구 하계역 세이브존,-,37.6366808,127.0684246
도봉산 환승센터 앞,서울특별시 도봉구 도봉로 955,-,37.6703415,127.0407797
도봉산역 만남의광장 앞,서울특별시 도봉구 도봉동 288-20,-,37.6883746,127.044035
애플타이어 앞,서울특별시 도봉구 도봉1동 도봉로 921,-,37.6866839,127.0455567
파리바게트 앞,서울특별시 도봉구 도봉로 891,-,37.6839865,127.0457001
도담동물병원앞,서울특별시 도봉구 도봉로 875,-,37.6826262,127.0455067
농협앞,서울특별시 도봉구 도봉로 851,-,37.6794041,127.0444982
유외과 앞,서울특별시 도봉구 도봉로 813,-,37.6770421,127.0445523
타이어 365앞,서울특별시 도봉구 도봉로 785,-,37.6745536,127.044133
제주고기국밥 앞,서울특별시 도봉구 도봉로 767,-,37.672918,127.0437584
해밀칼국수 앞,서울특별시 도봉구 도봉로 749,-,37.671358,127.0435064
웰메이드 앞,서울특별시 도봉구 도봉로 703,-,37.667232,127.0428056
정병원 버스정류장 앞,서울특별시 도봉구 도봉로 639,-,37.6614997,127.0418104
쌍문2동 제5공영주차장 앞 횡단보도,서울특별시 도봉구 도봉로 613,-,37.6594445,127.0407068
쿠쿠서비스센터 앞,서울특별시 도봉구 도봉로 603-1,-,37.65874950000001,127.040225
송월타월 앞,서울특별시 도봉구 도봉로 593,-,37.657824,127.0398845
수유리우동 앞,서울특별시 도봉구 도봉로 581,-,37.6569552,127.0393018
아름다운 약국 앞,서울특별시 도봉구 도봉로 551,-,37.6544377,127.0377487
위니아 앞,서울특별시 도봉구 도봉로 523,-,37.652078,127.036434
소피아호텔 앞,서울특별시 도봉구 도봉로 511,-,37.6510466,127.0356926
쌍문역4번출구 앞,서울특별시 도봉구 도봉로 483,-,37.6488979,127.0345192
창동한의원 앞,서울특별시 도봉구 도봉로 479,-,37.6486098,127.0343291
쌍문역3번출구 앞,서울특별시 도봉구 도봉로 473,-,37.6479302,127.0339708
안경매니저 앞,서울특별시 도봉구 도봉로 457,-,37.6467349,127.0332406
우이1교 버스정류장 앞,서울특별시 도봉구 도봉로 428,-,37.643914,127.0323888
창일택시 앞,서울특별시 도봉구 도봉로 438,-,37.6448426,127.032787
탐나어시장 앞,서울특별시 도봉구 도봉로 460,-,37.646655,127.0339375
SUBWAY앞,서울특별시 도봉구 도봉로 468,-,37.6474337,127.0344022
쌍문역2번출구 앞,서울특별시 도봉구 도봉로 476,-,37.6478375,127.0347482
쌍문역1번출구 앞,서울특별시 도봉구 도봉로 484,-,37.6485806,127.0350548
소피아4거리 의정부 방향,서울특별시 도봉구 창동 662-43,-,37.65103630000001,127.0367501
전자랜드 앞,서울특별시 도봉구 노해로 259,-,37.6516289,127.0369453
영창피아노 앞,서울특별시 도봉구 도봉로 534,-,37.6527217,127.0374785
구민회관 앞 ,서울특별시 도봉구 도봉로 552,-,37.6540005,127.0386044
미화볼링장 앞,서울특별시 도봉구 도봉로 578,-,37.656117,127.0397115
전설의 짬뽕앞 버스 정류장,서울특별시 도봉구 도봉로 592,-,37.6574191,127.0402829
에이치큐브 병원앞,서울특별시 도봉구 도봉로 604,-,37.6582748,127.0410177
신한은행 앞,서울특별시 도봉구 도봉로136길 7,-,37.6593503,127.0417621
제일모직아울렛 앞,서울특별시 도봉구 도봉로 636,-,37.661058,127.0424564
홈플러스 앞,서울특별시 도봉구 도봉로 678,-,37.6648183,127.0435994
방학동 우체국 앞,서울특별시 도봉구 도봉로 686,-,37.6656075,127.0432594
노보스 병원앞,서울특별시 도봉구 도봉로 726,-,37.6691144,127.0438299
방학약국 건너편 횡단보도,서울특별시 도봉구 도봉로 730,-,37.6694092,127.0438522
도봉역2번출구앞 버스정류장,서울특별시 도봉구 도봉동 637-37,-,37.6772305,127.0449058
도봉삼환 버스정류장 앞,서울특별시 도봉구 도봉로 859,-,37.6812007,127.0451599
동아에코빌 101동 앞,서울특별시 도봉구 도봉로 869,-,37.6819792,127.0453857
도봉산삼거리 횡단보도,서울특별시 도봉구 도봉로 927,-,37.6871437,127.0454771
도봉산역1번출구 앞,서울특별시 도봉구 도봉로 948,-,37.6703415,127.0407797
이디야커피숍 앞,서울특별시 도봉구 도봉산길 18,-,37.6879391,127.0336271
아진교통 차고지 앞,서울특별시 도봉구 도봉동 262-26,-,37.6837277,127.0318174
CU편의점 앞,서울특별시 도봉구 도봉산길 43,-,37.68693409999999,127.0406318
도봉고등학교 앞 ,서울특별시 도봉구 도봉산길 27,-,37.6867707,127.0428051
요거프레소 앞,서울특별시 도봉구 도봉산길 15,-,37.6871701,127.0439485
빙그레 앞,서울특별시 도봉구 마들로 690,-,37.6716632,127.0467002
한양수자인아파트 상가 앞,서울특별시 도봉구 마들로 724,-,37.67449939999999,127.0476796
둥지노래방 앞,서울특별시 도봉구 마들로 744,-,37.6760718,127.0483556
서울북부지방법원검찰청 앞,서울특별시 도봉구 마들로 749,-,37.67712,127.0469489
한밭법조타운 앞,서울특별시 도봉구 마들로 760,-,37.6777252,127.0493661
누원고사거리,서울특별시 도봉구 마들로 849,-,37.6855142,127.0498868
도봉산역2번출구(창포원 입구 앞),서울특별시 도봉구 마들로 916,-,37.6892727,127.0475814
파크빌2단지 앞,서울특별시 도봉구 마들로 835,-,37.6841853,127.0506781
도봉동 극동아파트 후문,서울특별시 도봉구 도봉동 81-1,-,37.6824746,127.0493723
기적의 도서관 앞,서울특별시 도봉구 마들로 797,-,37.6676581,127.049132
노원교 앞(도봉산 방향),서울특별시 도봉구 도봉로170길,-,37.67989,127.046927
도봉래미안아파트 앞,서울특별시 도봉구 도봉로170길 14,-,37.6802876,127.0463427
성대야구장 앞,서울특별시 도봉구 마들로 776,-,37.678829,127.0497045
성우사우나 상가 앞,서울특별시 도봉구 마들로 735-8,-,37.6763021,127.0476373
햇빝산 상가 앞,서울특별시 도봉구 마들로 721,-,37.6746397,127.0467517
새살림그릇 매장 앞,서울특별시 도봉구 마들로 707-1,-,37.6733222,127.0464999
하나약국 앞,서울특별시 도봉구 마들로 697,-,37.6724695,127.0463475
피자애 앞,서울특별시 도봉구 마들로 685,-,37.6714363,127.0462758
유경약국 앞,서울특별시 도봉구 마들로 664,-,37.6693897,127.0464436
도봉중학교 앞,서울특별시 도봉구 마들로 671,-,37.67072840000001,127.0459742
방학역3번출구앞,서울특별시 도봉구 도봉로150다길 3,-,37.6663079,127.0444088
홍능갈비 건너편,서울특별시 도봉구 마들로 657,-,37.66856200000001,127.0454839
륜경 앞,서울특별시 도봉구 마들로 667,-,37.6696017,127.0460385
빅마켓 앞,서울특별시 도봉구 마들로 645,-,37.66756640000001,127.0454944
삼성래미안 201동 앞 ,서울특별시 도봉구 방학동 715-12,-,37.6650641,127.0458053
도봉청소년독서실 앞,서울특별시 도봉구 마들로 605,-,37.6639988,127.0461091
창동현대아이파크 상가 CU앞,서울특별시 도봉구 마들로 573,-,37.6609417,127.046112
마들유치원 앞,서울특별시 도봉구 마들로 567,-,37.6597623,127.048132
365동물병원 앞,서울특별시 도봉구 방학로 56,-,37.6629216,127.0461626
쌍용아파트102동 앞 상가,서울특별시 도봉구 마들로 555,-,37.6597623,127.048132
청아어린이집 앞,서울특별시 도봉구 노해로69가길 11,-,37.6571794,127.0483916
도봉아이나라도서관 앞,서울특별시 도봉구 노해로69길 151,-,37.6590072,127.0494699
동아청솔상가 앞,서울특별시 도봉구 노해로69길 97,-,37.6571794,127.0483916
창동문화산업단지 앞,서울특별시 도봉구 창동 1-9,-,37.6540342,127.048434
창동역동측(도봉방면),서울특별시 도봉구 마들로11길 61,-,37.6534485,127.0498842
SUBWAY 매장 앞,서울특별시 도봉구 마들로11길 61 ,-,37.6534485,127.0498842
강북민물장어 앞,서울특별시 도봉구 노해로69길 25,-,37.6535673,127.0504176
벽제갈비촌 앞,서울특별시 도봉구 노해로69길 15,-,37.6529434,127.0506023
국민은행 앞,서울특별시 도봉구 노해로 383,-,37.6525406,127.0507105
동아아파트 상가,서울특별시 도봉구 노해로 384,-,37.65116810000001,127.050345
주공19단지 종합상가 앞,서울특별시 도봉구 노해로70길 46,-,37.6501755,127.0513911
창동주공 1907동 앞,서울특별시 도봉구 노해로70길 19,-,37.6508326,127.0525489
월천초등학교 앞,서울특별시 도봉구 노해로70길 96,-,37.6478402,127.0522016
창동주공 1809동 앞,서울특별시 도봉구 노해로70길 112,-,37.646865,127.0520542
녹천역3번출구 앞,서울특별시 도봉구 덕릉로66길 17,-,37.6439505,127.0533207
주공17단지 상가 앞,서울특별시 도봉구 덕릉로 398,-,37.6457382,127.0531088
창4동주민센터 앞,서울특별시 도봉구 노해로 390,-,37.6521968,127.0515433
창동지구대 앞,서울특별시 도봉구 노해로 392,-,37.6522486,127.0517002
하이마트 앞,서울특별시 도봉구 노해로 395,-,37.6528488,127.0518354
론스타호텔 앞,서울특별시 도봉구 마들로11길 37,-,37.65369949999999,127.0511797
창동농협물류센터(창동역동측 노원방면),서울특별시 도봉구 창동 1-15,-,37.6548847,127.0514389
창동운동장 앞,서울특별시 도봉구 노해로69길 132,-,37.6582713,127.0506149
자운고 앞,서울특별시 도봉구 노해로69길 150,-,37.6592612,127.0504663
밀방떡 가게 앞,서울특별시 도봉구 마들로 550,-,37.6605123,127.049623
대안카크리닉 앞,서울특별시 도봉구 마들로 574,-,37.6614812,127.0475388
문화고 창동중 횡단보도,서울특별시 도봉구 방학로35,-,37.6621473,127.0483554
문화고 사거리 삼천리 자전거 건너편,서울특별시 도봉구 마들로 598,-,37.6638554,127.0475357
금호타이어 앞,서울특별시 도봉구 방학로 37,-,37.6621446,127.0481231
창도초등학교 후문앞,서울특별시 도봉구 방학로 32-28,-,37.663831,127.0490956
대상현대아파트 상가 앞,서울특별시 도봉구 마들로 624,-,37.664974,127.048155
삼성래미안 108동 앞,서울특별시 도봉구 마들로 646,-,37.6668979,127.0473902
도봉구의회 앞,서울특별시 도봉구 마들로 656,-,37.66862870000001,127.0470496
벽운빌딩 앞,서울특별시 도봉구 시루봉로 301,-,37.6713454,127.0426201
방학2동 공영주차장 앞,서울특별시 도봉구 방학동 600-13,-,37.6701244,127.0371812
CU 편의점 앞,서울특별시 도봉구 시루봉로 243,-,37.6695549,127.0365107
곰돌이 빵집(방학2동주민센터 건너편),서울특별시 도봉구 시루봉로 221,-,37.6682248,127.0345024
드림교회 앞,서울특별시 도봉구 시루봉로15길 40,-,37.66879,127.0318948
신풍천마트 앞 사거리,서울특별시 도봉구 시루봉로 205,-,37.6673396,127.033131
신방학중학교 앞,서울특별시 도봉구 시루봉로 156,-,37.6636445,127.0295168
신방학초등학교 앞,서울특별시 도봉구 시루봉로 173,-,37.6659578,127.0292294
방학동성당 앞,서울특별시 도봉구 시루봉로 145,-,37.6638153,127.0278235
신방학파출소 앞,서울특별시 도봉구 방학동 498-12,-,37.6584704,127.027169
세븐일레븐 앞,서울특별시 도봉구 시루봉로 57,-,37.65584339999999,127.0276577
쌍문동 극동아파트 101동 앞 ,서울특별시 도봉구 쌍문동 721,-,37.6512992,127.0272796
쌍문그린스테이트 아파트 앞 사거리,서울특별시 도봉구 시루봉로 2,-,37.6511284,127.0287573
둘리뮤지엄 길 건너편,서울특별시 도봉구 시루봉로1길 6,-,37.6530842,127.0235327
261 사우나 앞,서울특별시 도봉구 시루봉로 64,-,37.6564391,127.0281044
김가네김밥 앞,서울특별시 도봉구 해등로 255,-,37.6573275,127.0282084
방학3동주민센터 앞,서울특별시 도봉구 시루봉로 94,-,37.6591413,127.0279921
학마을도서관 건너편(노점방향),서울특별시 도봉구 시루봉로 128,-,37.6621078,127.0278197
GS편의점 앞,서울특별시 도봉구 시루봉로 148,-,37.6633879,127.0286599
신화주택 앞,서울특별시 도봉구 시루봉로 270,-,37.6704397,127.039162
홍천강민물매운탕 가게 앞,서울특별시 도봉구 시루봉로 286,-,37.6709097,127.0407746
여수밤바다 횟집 앞,서울특별시 도봉구 시루봉로 302,-,37.6711326,127.0425945
제생약국 앞,서울특별시 도봉구 도당로 94,-,37.6655892,127.0373509
신원상가 행복한 닭강정 가게 앞,서울특별시 도봉구 도당로 2,-,37.6583766,127.0352771
대웅아파트 4동 앞 ,서울특별시 도봉구 도당로 18,-,37.6598202,127.0356267
발바닥공원 입구,서울특별시 도봉구 도당로 32,-,37.6609195,127.0354108
농협상가 앞,서울특별시 도봉구 도당로 76,-,37.6645784,127.0359347
동부상가 앞,서울특별시 도봉구 방학로 116,-,37.6636071,127.0390268
청진동해장국집앞,서울특별시 도봉구 방학로 108,-,37.6629909,127.0402611
MG새마을금고 앞,서울특별시 도봉구 도당로 134,-,37.6670554,127.0412527
신한은행 앞,서울특별시 도봉구 방학로 136,-,37.6631288,127.0370642
가나동물병원 앞,서울특별시 도봉구 방학로 160,-,37.6626509,127.0342652
방학2동구립어린이집 앞,서울특별시 도봉구 방학로 180,-,37.662435,127.032102
신동아타워상가 앞,서울특별시 도봉구 방학로 210,-,37.66216989999999,127.0287936
홍콩안경,서울특별시 도봉구 방학로 187,-,37.66122259999999,127.0316077
Tworld 앞,서울특별시 도봉구 방학로 172,-,37.6625376,127.0331865
한국SGI 앞,서울특별시 도봉구 방학로 161,-,37.6619974,127.034336
푸디스 힐 앞,서울특별시 도봉구 방학로3길 6,-,37.6624722,127.0406305
트라이 매장 앞,서울특별시 도봉구 해등로 172,-,37.6574465,127.0376702
신원프라자 앞,서울특별시 도봉구 해등로 190,-,37.6583229,127.0358637
국민은행 앞,서울특별시 도봉구 해등로 218,-,37.6581169,127.0325037
쌍문동현대1차 108동 앞,서울특별시 도봉구 해등로 242-12,-,37.6585281,127.0312211
성원아파트 105동 앞,서울특별시 도봉구 해등로 242-11,-,37.6583437,127.0289579
초당초교 사거리 ,서울특별시 도봉구 해등로 286-5,-,37.6578986,127.023934
초당스포츠센터 앞,서울특별시 도봉구 방학동 514-2,-,37.6584988,127.0221014
청한빌라 2동 옆,서울특별시 도봉구 해등로 373,-,37.6569201,127.0148371
우성2차아파트 201동 앞 4거리,서울특별시 도봉구 해등로 305,-,37.6568265,127.0219908
청구아파트 107동 앞,서울특별시 도봉구 방학동 734-1,-,37.6574187,127.0269187
금호2차 201동 앞,서울특별시 도봉구 해등로 241-14,-,37.656669,127.0295385
한양2&3&4차 상가 앞,서울특별시 도봉구 해등로 229,-,37.6570975,127.0311388
삼익아파트 109동 앞,서울특별시 도봉구 해등로 195,-,37.6572028,127.0351948
연수빌딩 앞,서울특별시 도봉구 해등로 165,-,37.6569642,127.0380788
쉐보레 AS센터 앞,서울특별시 도봉구 노해로 269-1,-,37.6516549,127.0381416
반석교회 앞,서울특별시 도봉구 노해로 237,-,37.6513368,127.0345001
둥지인테리어 매장 옆,서울특별시 도봉구 노해로 213,-,37.6511174,127.0316857
한샘리하우스 앞,서울특별시 도봉구 노해로 199,-,37.6510316,127.0301309
e편한세상 102동 앞 둘리 버스정류장,서울특별시 도봉구 노해로41가길 16,-,37.6496953,127.027271
쌍문1동주민센터 앞,서울특별시 도봉구 노해로 147,-,37.6479992,127.0260364
진암빌딩 앞,서울특별시 도봉구 노해로 137,-,37.6471961,127.0253364
쌍문1동주민센터 건너편,서울특별시 도봉구 노해로 152,-,37.6497784,127.03332
금용아파트 101동 앞,서울특별시 도봉구 노해로 170,-,37.6492235,127.0279696
신일라이프아파트 앞,서울특별시 도봉구 노해로 184-49,-,37.65045320000001,127.0287083
쌍문3동 어린이집 앞,서울특별시 도봉구 노해로 224,-,37.6508789,127.0329342
창동고 정문 앞,서울특별시 도봉구 노해로62길 7,-,37.6509764,127.0383612
창동주공 306동 앞,서울특별시 도봉구 해등로 50,-,37.65004150000001,127.0436076
창원초교 교차로,서울특별시 도봉구 해등로 103,-,37.6525531,127.040553
창동주공 315동 앞,서울특별시 도봉구 노해로 327,-,37.6514584,127.0447838
신원오피스텔상가 고봉민김밥 앞,서울특별시 도봉구 노해로 341,-,37.651399,127.0458986
창동역2번출구 이마트방향 도로,서울특별시 도봉구 노해로63길 84-8,-,37.6525213,127.046639
상아프라자 하나은행 앞,서울특별시 도봉구 노해로63가길 6,-,37.6529305,127.0452092
등기소 앞,서울특별시 도봉구 노해로 325,-,37.6516203,127.044418
현대아파트 앞,서울특별시 도봉구 해등로16길 12,-,37.6558439,127.0406987
CU편의점 앞,서울특별시 도봉구 도봉로136길 111,-,37.6609417,127.046112
창동주공1806동앞,서울특별시 도봉구 노해로70길 119,-,37.6468384,127.0539005
청한빌라 3동 앞,서울특별시 도봉구 우이천로 493,-,37.6570365,127.0151812
덕성여대 입구,서울특별시 도봉구 삼양로 538,-,37.6510179,127.0131597
덕성여대 후문,서울특별시 도봉구 삼양로144길 33,-,37.6511988,127.0161604
쌍문1동치안센터 앞,서울특별시 도봉구 우이천로 401,-,37.6500463,127.0201532
덕성여대 기숙사 앞,서울특별시 도봉구 우이천로 381,-,37.6492689,127.022023
한일병원 앞 수유교 옆,서울특별시 도봉구 우이천로 302,-,37.6446407,127.0290468
우이교 앞 사거리 교각 시작부,서울특별시 도봉구 우이천로 413,-,37.6492052,127.0230667
창동태영 111동,서울특별시 도봉구 우이천로20길,-,37.6411219,127.0344599
동방공업사 건너편,서울특별시 도봉구 우이천로 218,-,37.6386112,127.0346693
금용아파트 앞,서울특별시 도봉구 우이천로 196-11,-,37.6377532,127.0357466
한일병원 정문 앞,서울특별시 도봉구 우이천로 308,-,37.6458568,127.0285789
친환경나눔텃밭 효문중학교 앞,서울특별시 도봉구 우이천로 432,-,37.6520737,127.0183236
덕성여대 후문 건너편,서울특별시 도봉구 우이천로 446-3,-,37.6531359,127.0171117
약초원 동아슈퍼 정류장,서울특별시 도봉구 우이천로 463,-,37.6545311,127.0158637
파리바게트 앞,서울특별시 도봉구 삼양로 582,-,37.6550069,127.0132882
솔밭공원역 앞,서울특별시 도봉구 삼양로 592,-,37.655745,127.0135176
베이직 병원 앞,서울특별시 도봉구 삼양로 610,-,37.6574006,127.0138958
연세빌딩 앞,서울특별시 도봉구 덕릉로 218-1,-,37.6373693,127.0373922
지명약국 앞,서울특별시 도봉구 덕릉로 236,-,37.63871100000001,127.0384977
창동골목시장 입구 앞,서울특별시 도봉구 덕릉로 238,-,37.6389175,127.0386367
신창시장 입구 뚜레쥬르 앞,서울특별시 도봉구 덕릉로 239,-,37.6391474,127.0382089
GS편의점 앞,서울특별시 도봉구 덕릉로 248-1,-,37.6395825,127.0393091
파크힐아파트 앞,서울특별시 도봉구 덕릉로 276,-,37.6416387,127.0411896
도봉정보문화도서관 건너편,서울특별시 도봉구 덕릉로 315,-,37.6445808,127.0438827
창동주공4단지 401동 앞,서울특별시 도봉구 덕릉로 350,-,37.6441224,127.0479248
경화빌라 앞,서울특별시 도봉구 덕릉로 275,-,37.6418103,127.0407977
수정다방 앞,서울특별시 도봉구 덕릉로 253,-,37.6402463,127.0393776
양조장 앞,서울특별시 도봉구 덕릉로 219,-,37.6378683,127.036817
창일중학교 앞,서울특별시 도봉구 노해로66길 60,-,37.6488018,127.0465188
삼성아파트 창일중학교 건너편,서울특별시 도봉구 노해로66길 59,-,37.6488798,127.0484783
신원빌딩 앞,서울특별시 도봉구 노해로63길 78,-,37.6525232,127.0463148
공영주차장 앞,서울특별시 도봉구 창동 330,-,37.6522104,127.0458531
초안산생태공원,서울특별시 도봉구 해등로4길,-,37.6485286,127.0440451
KT전화국 앞,서울특별시 도봉구 도봉로110길 25,-,37.6463887,127.0350831
미소애아파트 앞 버스정류장,서울특별시 도봉구 해등로 139,-,37.6558021,127.0402108
창1동주민센터 버스정류장,서울특별시 도봉구 창동 347-5,-,37.6483328,127.0437847
창북중학교 앞 횡단보도,서울특별시 도봉구 노해로62길 36,-,37.6496135,127.0377396
창동지하차도 이마트 건너편 횡단보도,서울특별시 도봉구 창동 135-26,-,37.6516821,127.046933
삼환빌라 앞 횡단보도,서울특별시 도봉구 해등로3길 41,-,37.6463034,127.0423138
창원초등학교 앞 횡단보도,서울특별시 도봉구 해등로 103 ,-,37.6525531,127.040553
신도봉사거리 도봉중학교방향 횡단보도,서울특별시 도봉구 도봉동 620-23,-,37.6709584,127.0434492
창1동 서울가든아파트 버스정류장,서울특별시 도봉구 해등로 32,-,37.6478368,127.0445084
정류소-도로(가로)변,서울특별시 동대문구 경희대로 2,-,37.5917699,127.0525463
정류소-도로(가로)변,서울특별시 동대문구 고미술로 11,-,37.5700305,127.0504071
정류소-도로(가로)변,서울특별시 동대문구 고산자로 53,-,37.58234880000001,127.0379096
정류소-도로(가로)변,서울특별시 동대문구 고산자로 517,-,37.5855983,127.0381204
정류소-도로(가로)변,서울특별시 동대문구 답십리로 55,-,37.5763747,127.0473831
정류소-도로(가로)변,서울특별시 동대문구 답십리로 150,-,37.5725451,127.0565607
정류소-도로(가로)변,서울특별시 동대문구 답십리로 224-1,-,37.5725467,127.0652616
정류소-도로(가로)변,서울특별시 동대문구 답십리로 268,-,37.572214,127.0701404
정류소-도로(가로)변,서울특별시 동대문구 망우로 105,-,37.5915268,127.064876
정류소-도로(가로)변,서울특별시 동대문구 망우로 14,-,37.5876069,127.0551002
정류소-도로(가로)변,서울특별시 동대문구 무학로 189,-,37.58123459999999,127.0295471
정류소-도로(가로)변,서울특별시 동대문구 사가정로 31-1,-,37.57231890000001,127.0508218
동대문중학교 앞,서울특별시 동대문구 전농1동 사가정로 59,-,37.5763402,127.0562953
정류소-도로(가로)변,서울특별시 동대문구 사가정로 91,-,37.5762167,127.0554197
정류소-도로(가로)변,서울특별시 동대문구 사가정로 6,-,37.5771492,127.0643595
정류소-도로(가로)변,서울특별시 동대문구 사가정로 230,-,37.5785383,127.0703504
정류소-도로(가로)변,서울특별시 동대문구 서울시립대로 26,-,37.573866,127.0460237
정류소-도로(가로)변,서울특별시 동대문구 서울시립대로 147,-,37.5832086,127.0531462
정류소-도로(가로)변,서울특별시 동대문구 전농1동 675-2,-,37.5784797,127.0493138
정류소-도로(가로)변,서울특별시 동대문구 서울시립대로 44,-,37.5751829,127.0470847
이문초등학교 앞,서울특별시 동대문구 신이문로 16,-,37.60204,127.0641929
정류소-도로(가로)변,서울특별시 동대문구 약령시로 126,-,37.5829069,127.0439995
정류소-도로(가로)변,서울특별시 동대문구 왕산로 33,-,37.5770056,127.0270853
정류소-도로(가로)변,서울특별시 동대문구 왕산로 60-1,-,37.5772497,127.0301377
정류소-도로(가로)변,서울특별시 동대문구 왕산로 28,-,37.5764295,127.0266071
정류소-도로(가로)변,서울특별시 동대문구 왕산로 68,-,37.5774477,127.0308778
제기동역 1번출구,서울특별시 동대문구 왕산로 87,-,37.5784853,127.0332509
정류소-도로(가로)변,서울특별시 동대문구 왕산로 195,-,37.580197,127.0446172
정류소-도로(가로)변,서울특별시 동대문구 왕산로 226,-,37.5817288,127.0476274
정류소-도로(가로)변,서울특별시 동대문구 왕산로 312,-,37.5876352,127.0536913
정류소-도로(가로)변,서울특별시 동대문구 이문로 17,-,37.5898258,127.0549465
정류소-도로(가로)변,서울특별시 동대문구 이문로 12,-,37.5887905,127.0548294
정류소-도로(가로)변,서울특별시 동대문구 이문로 100,-,37.5956549,127.0599471
정류소-도로(가로)변,서울특별시 동대문구 이문동 255-256,-,37.6024167,127.0622697
정류소-도로(가로)변,서울특별시 동대문구 장안벚꽃로 279,-,37.583672,127.0725907
정류소-도로(가로)변,서울특별시 동대문구 장한로 191,-,37.577102,127.0712615
정류소-도로(가로)변,서울특별시 동대문구 장한로 149-1,-,37.5738104,127.0714779
정류소-도로(가로)변,서울특별시 동대문구 장한로 119,-,37.5714281,127.0704615
정류소-도로(가로)변,서울특별시 동대문구 장한로 84,-,37.5681662,127.0694108
정류소-도로(가로)변,서울특별시 동대문구 장한로 39,-,37.5647933,127.0665165
정류소-도로(가로)변,서울특별시 동대문구 장한로 25,-,37.5637881,127.0657695
정류소-도로(가로)변,서울특별시 동대문구 장한로 124,-,37.5713669,127.0715026
정류소-도로(가로)변,서울특별시 동대문구 장한로 12길 62,-,37.5646575,127.0707844
정류소-도로(가로)변,서울특별시 동대문구 전농로 21,-,37.5668913,127.0562506
정류소-도로(가로)변,서울특별시 동대문구 전농로 26,-,37.5671621,127.0569909
정류소-도로(가로)변,서울특별시 동대문구 전농로 97-1,-,37.5736428,127.0572691
정류소-도로(가로)변,서울특별시 동대문구 정릉천동로 103,-,37.5828579,127.0355471
정류소-도로(가로)변,서울특별시 동대문구 제기동 142-12,-,37.5861543,127.0328336
정류소-도로(가로)변,서울특별시 동대문구 제기로 155,-,37.5861119,127.0503693
홍파초등학교 앞,서울특별시 동대문구 고산자로 518,-,37.5858976,127.0395874
정류소-도로(가로)변,서울특별시 동대문구 제기로 115,-,37.5870182,127.0459929
정류소-도로(가로)변,서울특별시 동대문구 천호대로 14길 2,-,37.5736553,127.0297926
정류소-도로(가로)변,서울특별시 동대문구 용두동 39-7,-,37.5774517,127.0430741
정류소-도로(가로)변,서울특별시 동대문구 용두4교다리,-,37.5739794,127.0346027
정류소-도로(가로)변,서울특별시 동대문구 천호대로 83길 98,-,37.5660301,127.0670501
정류소-도로(가로)변,서울특별시 동대문구 용두동 255-53,-,37.5711277,127.0331649
정류소-도로(가로)변,서울특별시 동대문구 한천로 421-1,-,37.5982407,127.0675347
정류소-도로(가로)변,서울특별시 동대문구 한천로 84-1,-,37.5689121,127.0640381
정류소-도로(가로)변,서울특별시 동대문구 한천로 62,-,37.5671656,127.0627469
정류소-도로(가로)변,서울특별시 동대문구 한천로 49,-,37.5665276,127.0616048
정류소-도로(가로)변,서울특별시 동대문구 한천로 138,-,37.583784,127.065484
정류소-도로(가로)변,서울특별시 동대문구 한천로 137,-,37.5732991,127.0662926
정류소-도로(가로)변,서울특별시 동대문구 한천로 205,-,37.5791285,127.0680709
정류소-도로(가로)변,서울특별시 동대문구 한천로 272,-,37.5853838,127.0685624
영휘원사거리,서울특별시 동대문구 청량리동 491 ,-,37.5868986,127.0433461
정류소-도로(가로)변,서울특별시 동대문구 황물로 49,-,37.5730544,127.0470597
정류소-도로(가로)변,서울특별시 동대문구 황물로 181-1,-,37.5646498,127.057756
국방연구원 앞,서울특별시 동대문구 회기로 37,-,37.5927369,127.0406318
세종대왕 기념관 앞,서울특별시 동대문구 회기로 56,-,37.5907181,127.0429099
정류소-도로(가로)변,서울특별시 동대문구 회기로 18길 3,-,37.5911262,127.0522804
외대역 앞,서울특별시 동대문구 휘경로 27,-,37.5953604,127.0630252
외대 앞,서울특별시 동대문구 이문로 107,-,37.5976171,127.0582192
휘경SK아파트,서울특별시 동대문구 휘경1동 휘경로 60,-,37.5940169,127.0663101
노량진로 24길 노들지구대,서울특별시 동작구 본동 150-1,-,37.5123614,126.9536299
노량진로(ID:20-014),서울특별시 동작구 노들역,-,37.513416,126.952213
노량진로 노량진우체국,서울특별시 동작구 본동 387-1,-,37.5124265,126.9506168
사육신묘 가로변,서울특별시 동작구 191,-,37.512402,126.9392525
마을버스 정류장 옆(ID:20-115) 노량진역,서울특별시 동작구 157-1,-,37.512402,126.9392525
장승배기역5번출구,서울특별시 동작구 11가길11,-,37.5550067,126.8675071
노량진초등학교,서울특별시 동작구 160,-,37.512402,126.9392525
버스 중앙차로(ID:20-010),서울특별시 동작구 노들로 674,-,37.5144828,126.9370209
해박난치과,서울특별시 동작구 노량진로 152-1,-,37.5134095,126.9428253
마을버스 정류장 옆(ID:20-244),서울특별시 동작구 53길39번지,-,37.50491,126.939603
동양아파트 앞 정류장(ID:20-917),서울특별시 동작구 1길17,-,37.4953419,126.9419367
마을버스 정류장 옆(ID:20-222),서울특별시 동작구 양녕로23길 9,-,37.512402,126.9392525
주작나무 한의원,서울특별시 동작구 94번지,-,37.512402,126.9392525
왕세숫대야냉면,서울특별시 동작구 104번지,-,37.512402,126.9392525
삼거리 왕만두,서울특별시 동작구 101번지,-,37.5018245,126.9225543
서울공업고등학교,서울특별시 동작구 대방동1길 46,-,37.4959779,126.9135245
교수아파트,서울특별시 동작구 여의대방로10길 14,-,37.512455,126.9383764
마을버스 정류장 옆,서울특별시 동작구 2-5,-,37.4875294,126.9067493
동작상떼빌아파트,서울특별시 동작구 신대방1동 719,-,37.4759331,126.978553
대방할인마트 앞,서울특별시 동작구 123번지,-,37.5126967,126.9308125
대방동현대1차아파트,서울특별시 동작구 대방동 등용로 127,-,37.5248013,126.9626416
마을버스 정류장 옆,서울특별시 동작구 40번지,-,37.5095412,126.9477571
흑석역 4번출구,서울특별시 동작구 15길 8-12,-,37.512402,126.9392525
조선일보뉴지엄,서울특별시 동작구 124번지,-,37.5105519,126.9628103
효사정,서울특별시 동작구 흑석동 141-2,-,37.51244210000001,126.9534025
동작실버센터입구,서울특별시 동작구 본동 현충로 2,-,37.4933383,126.9822717
경문고등학교,서울특별시 동작구 동작대로 171,-,37.4998616,126.9742991
정금마을 방배경찰서,서울특별시 동작구 동작동 333,-,37.512402,126.9392525
깨마을,서울특별시 동작구 235번지,-,37.4996897,126.9785099
국립현충원,서울특별시 동작구 현충로 210,-,37.4878954,126.9814771
남성시장,서울특별시 동작구 사당동 동작대로29길 9,-,37.512402,126.9392525
다비치안경 앞,서울특별시 동작구 101번지,-,37.5490246,126.9212976
미샤 앞,서울특별시 동작구 121번지,-,37.5037999,126.9238707
세븐일레븐 앞,서울특별시 동작구 대방동23길 23-2,-,37.476379,126.9735832
사당시장,서울특별시 동작구 사당동,-,37.5507275,126.9192082
남성역 4번출구,서울특별시 동작구 219번지,-,37.5550067,126.8675071
사당대창센시타아파트 앞,서울특별시 동작구 9가길 55,-,37.4805401,126.9794943
사당지구대 앞,서울특별시 동작구 동작대로9길 35,-,37.4781249,126.9810071
한국전력 앞,서울특별시 동작구 동작대로 19,-,37.4788846,126.9812331
IBK기업은행 앞,서울특별시 동작구 동작대로 27,-,37.476379,126.9735832
더본병원,서울특별시 동작구 사당1동,-,37.48587819999999,126.9817125
이수역 앞,서울특별시 동작구 동작대로 105-2 ,-,37.4833218,126.9814928
사당동우체국 앞,서울특별시 동작구 사당동 동작대로 75,-,37.4975715,126.9531092
신한은행 앞,서울특별시 동작구 상도동 486,-,37.512402,126.9392525
올리브영 앞,서울특별시 동작구 114-5,-,37.50817139999999,126.9462154
신동아리버파크,서울특별시 동작구 만양로3길20,-,37.5128129,126.9531293
버스정류장 옆,서울특별시 동작구 노량진로 238,-,37.5102931,126.9450783
강남교회 앞 정류장,서울특별시 동작구 노량진1동 222-73,-,37.5137034,126.9400329
노량진역 7번출구 앞,서울특별시 동작구 노량진동 60-29번지,-,37.4846165,126.9791799
이디야 커피숍 앞,서울특별시 동작구 사당로 285,-,37.4866967,126.9814391
태평백화점 앞,서울특별시 동작구 사당동 동작대로 115,-,37.4769253,126.9773252
다이소 앞,서울특별시 동작구 남부순환로 2057,-,37.4886232,126.9668169
총신대 앞,서울특별시 동작구 사당로 143,-,37.48914449999999,126.9804628
새마을금고 앞,서울특별시 동작구 사당동 91-141,-,37.4843768,126.9760567
남성초등학교,서울특별시 동작구 사당동 324-20,-,37.4873664,126.9116399
버스정류장 옆,서울특별시 동작구 대림로 14,-,37.50969360000001,126.9323077
버스정류장 옆,서울특별시 동작구 등용로 96,-,37.5133706,126.9439197
올리브영 앞,서울특별시 동작구 노량진로 162,-,37.5027719,126.9504938
세븐일레븐 옆,서울특별시 동작구 53길 70번지,-,37.476379,126.9735832
상도시장 앞,서울특별시 동작구 상도1동,-,37.4968806,126.9535395
동진빌딩 앞,서울특별시 동작구 사당동,-,37.4963462,126.9568865
버스정류장 옆,서울특별시 동작구 상도로 357,-,37.49916520000001,126.9498321
마을버스 정류장 옆,서울특별시 동작구 53길39번지,-,37.5005625,126.9535625
세븐일레븐 옆,서울특별시 동작구 상도로53길 70,-,37.5022216,126.954303
도로(가로)변,서울특별시 마포구 만리재로 14 마포경찰서 교통센터,-,37.543843,126.9526701
6번출구 지하철역 입구,서울특별시 마포구 공덕역,-,37.5432,126.9527
정류소-도로(가로)변,서울특별시 마포구 공덕 오거리,-,37.5436,126.9514
5번출구 지하철역 입구,서울특별시 마포구 공덕역,-,37.5442,126.9516
도로(가로)변,서울특별시 마포구 마포대로25 화로연각(토정로방향),-,37.5392,126.9446
도로(가로)변,서울특별시 마포구 마포대로 207 둘둘치킨(애오개역 1번 출구),-,37.5526026,126.9559648
3번출구 지하철역 입구,서울특별시 마포구 애오개역,-,37.5533,126.9568
4번출구 지하철역 입구,서울특별시 마포구 애오개역,-,37.5529,126.9567
도로(가로)변,서울특별시 마포구 마포대로 233-1 (아현초교담 횡단보도),-,37.5458958,126.9515058
도로(가로)변,서울특별시 마포구 마포대로 114번지 기업은행,-,37.54476450000001,126.951998
도로(가로)변,서울특별시 마포구 독막로 242 노기홍사무소,-,37.5465629,126.9402795
GS편의점:도로(가로)변,서울특별시 마포구 독막로 241,-,37.5468732,126.9405173
도로(가로)변,서울특별시 마포구 독막로 192 신수동 주민센터,-,37.547009,126.935308
1번출구 지하철역 입구,서울특별시 마포구 마포대로 33 마포역,-,37.5395,126.9455
3번출구 지하철역 입구,서울특별시 마포구 마포대로 40-1 마포역,-,37.5397,126.9465
도로(가로)변,서울특별시 마포구 신촌로 174 중우빌딩,-,37.55639660000001,126.9447786
5번출구 지하철역 입구,서울특별시 마포구 신촌로 신촌역,-,37.5551,126.9376
2번출구 지하철역 입구,서울특별시 마포구 노고산동 112-5 서강대역,-,37.5523268,126.9350746
2번출구 지하철역 입구,서울특별시 마포구 창전동 242 광흥창역,-,37.5475826,126.9318535
2번출구 지하철역 입구,서울특별시 마포구 대흥역,-,37.547674,126.942332
3번출구 지하철역 입구,서울특별시 마포구 대흥역,-,37.5476,126.9422
1번출구 지하철역 입구,서울특별시 마포구 공덕역 자전거보관대,-,37.544,126.9505
도로(가로)변,서울특별시 마포구 백범로 122 풍천민물장어,-,37.5472,126.943
정류소-도로(가로)변,서울특별시 마포구 만리재로 83-1,-,37.5481215,126.9586924
정류소-도로(가로)변,서울특별시 마포구 만리재로 88,-,37.5480753,126.9591717
다중집합장소,서울특별시 마포구 창전로 32번지,-,37.5451124,126.9319012
3번출구 지하철역 입구,서울특별시 마포구 창전로 60 광흥창역,-,37.5478,126.9327
도로(가로)변,서울특별시 마포구 독막로 246,-,37.5463291,126.9408317
도로(가로)변,서울특별시 마포구 서강로 137,-,37.5546344,126.9355782
정류소-도로(가로)변,서울특별시 마포구 서강로 127-1,-,37.5540331,126.9347459
도로(가로)변,서울특별시 마포구 노고산동 31-123 신촌노외주차장,-,37.5535731,126.9341144
도로(가로)변,서울특별시 마포구 서강로 97 삼성 프라자,-,37.5519783,126.9325793
정류소-도로(가로)변,서울특별시 마포구 창전 현대홈타운,-,37.5508,126.9321
도로(가로)변,서울특별시 마포구 서강로 55,-,37.548,126.9301
1번출구 지하철역 입구,서울특별시 마포구 광흥창역,-,37.5477,126.9312
6번출구 다중집합장소,서울특별시 마포구 신촌역,-,37.555,126.9374
도로(가로)변,서울특별시 마포구 백범로 88 경총회관,-,37.5479018,126.9410754
도로(가로)변,서울특별시 마포구 신촌로 210 아현어린이집,-,37.5568,126.949
도로(가로)변,서울특별시 마포구 신촌로 234 새마을금고,-,37.5568631,126.9516305
3번출구 지하철역 입구,서울특별시 마포구 아현역,-,37.5569,126.9561
도로(가로)변,서울특별시 마포구 대흥로 122 치매센터,-,37.554,126.9486
5번출구 지하철역 입구,서울특별시 마포구 이대역,-,37.5563,126.9461
다중집합장소,서울특별시 마포구 고산2길 61 노고산체육공원,-,37.5539261,126.9407796
1번출구 지하철역 입구,서울특별시 마포구 양화로 홍대입구 CGV,-,37.5563,126.9227
도로(가로)변,서울특별시 마포구 신촌로 66번지 하나로마트,-,37.5562,126.9332
7번출구 지하철역 입구,서울특별시 마포구 신촌로 94번지 신촌역,-,37.5549516,126.9359732
도로(가로)변,서울특별시 마포구 신촌로 82 유앤아이 치과,-,37.5555743,126.9347873
도로(가로)변,서울특별시 마포구 어울마당로 109 유가네 닭갈비,-,37.5547,126.9227
도로(가로)변,서울특별시 마포구 어울마당로 113 양꼬치,-,37.5549,126.9229
도로(가로)변,서울특별시 마포구 어울마당로 122,-,37.5553,126.9239
도로(가로)변,서울특별시 마포구 어울마당로 131 보승회관,-,37.5561,126.9244
도로(가로)변,서울특별시 마포구 어울마당로 136 7번가피자,-,37.5559382,126.9249299
도로(가로)변,서울특별시 마포구 양화로 119 메디람 한방병원,-,37.55431859999999,126.919755
도로(가로)변,서울특별시 마포구 양화로 133 서교타워,-,37.5552296,126.9209476
2번출구 지하철역 입구,서울특별시 마포구 양화로 171 삼성디지털프라자(홍대입구역 2번출구),-,37.5575065,126.9240936
도로(가로)변,서울특별시 마포구 양화로 183 홍익인간오피스텔,-,37.5583026,126.9251866
다모아가구:도로(가로)변,서울특별시 마포구 연희로 1-1,-,37.5589755,126.9261166
정류소-도로(가로)변,서울특별시 마포구 연희로 43,-,37.5625741,126.9274888
도로(가로)변,서울특별시 마포구 독막로 74 한빛부동산,-,37.5475639,126.9213923
도로(가로)변,서울특별시 마포구 독막로 101 BR오피스텔,-,37.5483,126.9251
도로(가로)변,서울특별시 마포구 독막로 87,-,37.5495035,126.9240921
도로(가로)변,서울특별시 마포구 독막로 27 브라운시티 합정점,-,37.5484642,126.9165599
6번출구 도로(가로)변,서울특별시 마포구 독막로 5,-,37.5490003,126.9142821
5번출구 지하철역 입구,서울특별시 마포구 양화로 50,-,37.5496,126.9143
3번출구 지하철역 입구,서울특별시 마포구 양화로 68,-,37.5508,126.9159
도로(가로)변,서울특별시 마포구 양화로 29 배전반(아람광고),-,37.5491548,126.9123921
2번출구 지하철역 입구,서울특별시 마포구 양화로 67 합정역,-,37.5510911,126.9155237
도로(가로)변,서울특별시 마포구 양화로 99 지산한의원,-,37.5530076,126.918198
도로(가로)변,서울특별시 마포구 양화로 107 스타벅스,-,37.5535191,126.9187378
도로(가로)변,서울특별시 마포구 양화로 134 KB국민은행,-,37.5546559,126.9213652
도로(가로)변,서울특별시 마포구 양화로 136 스파오건물,-,37.554803,126.9215905
도로(가로)변,서울특별시 마포구 양화로 140 CU편의점,-,37.5549797,126.922095
다중집합장소,서울특별시 마포구 어울마당로 55 (정자나무),-,37.5500496,126.9208442
도로(가로)변,서울특별시 마포구 잔다리로 17 티켓라운지,-,37.5506124,126.9210036
도로(가로)변,서울특별시 마포구 잔다리로 16 엠플레이그라운드,-,37.5508588,126.9214448
도로(가로)변,서울특별시 마포구 어울마당로 65 KT,-,37.5509155,126.9210433
도로(가로)변,서울특별시 마포구 잔다리로 40 GS25시편의점,-,37.5519122,126.9192884
도로(가로)변,서울특별시 마포구 홍익로3길 8 경서빌딩,-,37.5540909,126.9220864
도로(가로)변,서울특별시 마포구 홍익로 19 세븐일레븐,-,37.5539599,126.9226065
도로(가로)변,서울특별시 마포구 홍익로 11 프리스비빌딩,-,37.5534726,126.9232678
도로(가로)변,서울특별시 마포구 홍익로 5 LG유플러스,-,37.5530646,126.9237274
도로(가로)변,서울특별시 마포구 홍익로 10 서교푸르지오아파트,-,37.553754,126.923004
도로(가로)변,서울특별시 마포구 홍익로 18 국민은행,-,37.5541,126.9228
도로(가로)변,서울특별시 마포구 홍익로 20 걷고관광초소,-,37.5543308,126.9227687
도로(가로)변,서울특별시 마포구 양화로 140 신선설농탕,-,37.5549797,126.922095
도로(가로)변,서울특별시 마포구 와우산로 56 우리은행,-,37.5495156,126.9233518
도로(가로)변,서울특별시 마포구 와우산로 55 아크스테이션,-,37.5493482,126.9228744
도로(가로)변,서울특별시 마포구 와우산로 157 산울림소극장,-,37.5550951,126.9299385
도로(가로)변,서울특별시 마포구 와우산로 71 쏠로포차,-,37.5508819,126.922906
정류소-도로(가로)변,서울특별시 마포구 와우산로 97 하나은행,-,37.553062,126.9243329
도로(가로)변,서울특별시 마포구 와우산로 121 삼진제약,-,37.5534795,126.9267455
정류소-도로(가로)변,서울특별시 마포구 중동초등학교,-,37.5666,126.9107
정류소-도로(가로)변,서울특별시 마포구 월드컵경기장,-,37.5695,126.9001
정류소-도로(가로)변,서울특별시 마포구 하늘공원주차장,-,37.5675,126.8921
정류소-도로(가로)변,서울특별시 마포구 월드컵파크3단지,-,37.572507,126.888275
정류소-도로(가로)변,서울특별시 마포구 서부면허시험장,-,37.577947,126.880405
정류소-도로(가로)변,서울특별시 마포구 월드컵파크9단지,-,37.5833058,126.8785092
정류소-도로(가로)변,서울특별시 마포구 상암동 하늘초등학교,-,37.585185,126.879708
도로(가로)변,서울특별시 마포구 월드컵북로396 누리꿈스퀘어간판,-,37.579396,126.8897942
도로(가로)변,서울특별시 마포구 월드컵북로 15 시디즈 홍대점,-,37.55617,126.9199241
정류소-도로(가로)변,서울특별시 마포구 누리꿈스퀘어(MBC),-,37.579203,126.889296
도로(가로)변,서울특별시 마포구 월드컵북로 74 현대자동차 성산대리점,-,37.5605322,126.9163494
도로(가로)변,서울특별시 마포구 월드컵북로 136 하나은행,-,37.5649,126.9124
다중집합장소,서울특별시 마포구 월드컵북로56길 9 가온문화공원,-,37.5807,126.8868
정류소-도로(가로)변,서울특별시 마포구 월드컵파크7단지,-,37.581836,126.87896
정류소-도로(가로)변,서울특별시 마포구 상암고등학교,-,37.5813449,126.8836186
도로(가로)변,서울특별시 마포구 상암산로1길 52 월드컵파크5단지 508동,-,37.5802252,126.8859404
정류소-도로(가로)변,서울특별시 마포구 월드컵파크5단지,-,37.5804,126.8865
1번출구 도로(가로)변,서울특별시 마포구 월드컵로202 마포구청역,-,37.5647,126.9024
도로(가로)변,서울특별시 마포구 월드컵로204 마포구 청사,-,37.5653365,126.9020861
도로(가로)변,서울특별시 마포구 상암산로1길 26 상암중학교,-,37.5788468,126.8878697
도로(가로)변,서울특별시 마포구 월드컵북로381 월드컵파크4단지 401동,-,37.5776394,126.8886338
정류소-도로(가로)변,서울특별시 마포구 마포구의회,-,37.5662279,126.901477
정류소-도로(가로)변,서울특별시 마포구 월드컵북로 381,-,37.5776394,126.8886338
정류소-도로(가로)변,서울특별시 마포구 성중길 월드컵경기장역,-,37.5698549,126.9005648
정류소-도로(가로)변,서울특별시 마포구 상암이안 2단지,-,37.5770598,126.8913944
도로(가로)변,서울특별시 마포구 마포농수산물시장 3거리 홈플러스,-,37.5651596,126.89847
정류소-도로(가로)변,서울특별시 마포구 월드컵경기장,-,37.5682588,126.8972774
정류소-도로(가로)변,서울특별시 마포구 월드컵파크2단지,-,37.57531,126.890248
도로(가로)변,서울특별시 마포구 평화공원 주차장,-,37.5657001,126.8944222
정류소-도로(가로)변,서울특별시 마포구 상암초등학교,-,37.5759905,126.8922651
정류소-도로(가로)변,서울특별시 마포구 성암로 37,-,37.5690995,126.912238
5번출구 지하철역 입구,서울특별시 마포구 마포구청역,-,37.5625,126.9041
7번출구 지하철역 입구,서울특별시 마포구 성암로184 DMC역,-,37.5767,126.8987
도로(가로)변,서울특별시 마포구 월드컵로 59 기업은행,-,37.5543631,126.9111632
정류소-도로(가로)변,서울특별시 마포구 월드컵로 41-1,-,37.553038,126.9117823
도로(가로)변,서울특별시 마포구 월드컵로 29 링컨 더파크모터스,-,37.5518986,126.9121168
도로(가로)변,서울특별시 마포구 월드컵로 30 세븐일레븐,-,37.5520734,126.9126032
9번출구 지하철역 입구,서울특별시 마포구 디지털미디어시티역,-,37.5776,126.8972
도로(가로)변,서울특별시 마포구 월드컵로 54 횡단보도,-,37.5539973,126.9120365
정류소-도로(가로)변,서울특별시 마포구 마포중앙도서관,-,37.5638765,126.907996
정류소-도로(가로)변,서울특별시 마포구 월드컵파크5단지 상암고등학교,-,37.5808,126.8833
정류소-도로(가로)변,서울특별시 마포구 DMC첨단산업센터,-,37.5848659,126.88598
3번출구 지하철역 입구,서울특별시 마포구 마포구청역,-,37.563,126.9046
도로(가로)변,서울특별시 마포구 마포중앙도서관,-,37.5638765,126.907996
8번출구 지하철역 입구,서울특별시 마포구 디지털미디어시티역,-,37.5769,126.898
도로(가로)변,서울특별시 마포구 월드컵로74 올리브영,-,37.5557302,126.9106996
도로(가로)변,서울특별시 마포구 월드컵로 94 위니아딤채프라자,-,37.557,126.9094
도로(가로)변,서울특별시 마포구 월드컵로 108 시골김치삼겹살,-,37.5583483,126.9083209
도로(가로)변,서울특별시 마포구 월드컵북로 69 바다약국,-,37.5598401,126.9163091
도로(가로)변,서울특별시 마포구 월드컵북로43길 11 세븐일레븐,-,37.574231,126.8961424
도로(가로)변,서울특별시 마포구 월드컵로 213 마포장애인복지회관,-,37.5653602,126.9007592
정류소-도로(가로)변,서울특별시 마포구 월드컵경기장 서측(문화비축기지),-,37.569434,126.894875
정류소-도로(가로)변,서울특별시 마포구 성산아파트 버스정류장 14-163,-,37.57134200000001,126.901469
도로(가로)변,서울특별시 마포구 월드컵북로 221,-,37.5692518,126.9043458
정류소-도로(가로)변,서울특별시 마포구 성산2동주민센터,-,37.5685712,126.9089833
동부아파트:정류소-도로(가로)변,서울특별시 서대문구 통일로 549,-,37.5964439,126.9386609
정류소-도로(가로)변,서울특별시 서대문구 통일로443,-,37.5882938,126.9443565
정류소-도로(가로)변,서울특별시 서대문구 통일로423,-,37.5868317,126.9457993
정류소-도로(가로)변,서울특별시 서대문구 통일로419-1,-,37.5867399,126.9460112
무악재역 4번출구 지하철역 입구,서울특별시 서대문구 통일로357,-,37.5821378,126.9497885
도로(가로)변,서울특별시 서대문구 통일로341,-,37.580797,126.9509961
대한노인회:도로(가로)변,서울특별시 서대문구 통일로279,-,37.5764246,126.9553979
정류소-도로(가로)변,서울특별시 서대문구 통일로 독립문공원,-,37.576452,126.955123
5번출구 지하철역 입구,서울특별시 서대문구 천연동 독립문역,-,37.575,126.957
4번출구 지하철역 입구,서울특별시 서대문구 천연동 독립문역,-,37.5735,126.9587
정류소-도로(가로)변,서울특별시 서대문구 천연동 통일로189,-,37.5701977,126.9619554
정류소-도로(가로)변,서울특별시 서대문구 천연동 통일로155,-,37.5679445,126.9642427
정류소-도로(가로)변,서울특별시 서대문구 천연동 통일로135,-,37.5665,126.9658
정류소-도로(가로)변,서울특별시 서대문구 홍제3동 통일로 478,-,37.5889,126.9441
도로(가로)변,서울특별시 서대문구 홍은1동 통일로 484,-,37.591121,126.9421154
정류소-도로(가로)변,서울특별시 서대문구 홍제3동 세검정로46,-,37.59200269999999,126.9462937
정류소-도로(가로)변,서울특별시 서대문구 홍제3동 세검정로96,-,37.5960078,126.9492346
유원하나아파트:정류소-도로(가로)변,서울특별시 서대문구 홍제3동 세검정로 134,-,37.5952116,126.9524131
도로(가로)변,서울특별시 서대문구 홍제3동 홍지문 35,-,37.597025,126.956383
정류소-도로(가로)변,서울특별시 서대문구 홍제3동 세검정로134,-,37.5952116,126.9524131
정류소-도로(가로)변,서울특별시 서대문구 홍제3동 세검정로89,-,37.5957143,126.9486488
정류소-도로(가로)변,서울특별시 서대문구 홍은1동 세검정로71,-,37.594117,126.9478684
정류소-도로(가로)변,서울특별시 서대문구 홍은1동 세검정로51,-,37.5926145,126.9467017
정류소-도로(가로)변,서울특별시 서대문구 홍은1동 세검정로13,-,37.5920897,126.942823
현대아파트:정류소-도로(가로)변,서울특별시 서대문구 홍은2동 연희로377,-,37.5899283,126.9375328
도로(가로)변,서울특별시 서대문구 홍은2동 연희로271,-,37.5812674,126.9358003
횡단보도 입구,서울특별시 서대문구 연희동 연희로245,-,37.5789583,126.9357358
도로(가로)변,서울특별시 서대문구 연희동 연희로239,-,37.5784875,126.9356848
정류소-도로(가로)변,서울특별시 서대문구 연희동 연희로207,-,37.5755598,126.9350574
정류소-도로(가로)변,서울특별시 서대문구 연희동 연희로173,-,37.5725326,126.935079
횡단보도 입구,서울특별시 서대문구 연희동 연희로125,-,37.5689545,126.9322796
정류소-도로(가로)변,서울특별시 서대문구 연희동 연희로113,-,37.56800339999999,126.9315291
정류소-도로(가로)변,서울특별시 서대문구 연희동 연희로85,-,37.5659531,126.9298842
정류소-도로(가로)변,서울특별시 서대문구 연희동 연희로46,-,37.5625917,126.9280308
정류소-도로(가로)변,서울특별시 서대문구 연희동 연희로170,-,37.5720898,126.9353423
정류소-도로(가로)변,서울특별시 서대문구 연희동 연희로204,-,37.5754798,126.9361793
보건소:정류소-도로(가로)변,서울특별시 서대문구 연희동 연희로242,-,37.5785747,126.9362575
구청:도로(가로)변,서울특별시 서대문구 연희동 연희로248,-,37.5792607,126.9364946
정류소-도로(가로)변,서울특별시 서대문구 홍은2동 연희로331,-,37.5865928,126.9346421
1번출구 지하철역 입구,서울특별시 서대문구 충현동 충정로77,-,37.56547270000001,126.9659669
골든타원:도로(가로)변,서울특별시 서대문구 충현동 충정로53,-,37.5637129,126.9646194
정류소-도로(가로)변,서울특별시 서대문구 충현동 충정로45,-,37.5628917,126.9642663
횡단보도 입구,서울특별시 서대문구 충현동 충정로24,-,37.5610413,126.9636943
2번출구 지하철역 입구,서울특별시 서대문구 북아현동 신촌로273,-,37.5575805,126.9565359
횡단보도 입구,서울특별시 서대문구 북아현동 신촌로231,-,37.5573834,126.9515757
1번출구 지하철역 입구,서울특별시 서대문구 북아현동 아현역,-,37.557382,126.956083
도로(가로)변,서울특별시 서대문구 북아현동 신촌로 279-1,-,37.5575478,126.9572234
4번출구 지하철역 입구,서울특별시 서대문구 신촌동 신촌로183,-,37.5570255,126.9462895
도로(가로)변,서울특별시 서대문구 신촌동 신촌로173,-,37.5569329,126.9452066
정류소-도로(가로)변,서울특별시 서대문구 신촌동 신촌로159,-,37.5568819,126.9437314
횡단보도 입구,서울특별시 서대문구 신촌동 신촌로155,-,37.556908,126.9432342
정류소-도로(가로)변,서울특별시 서대문구 신촌동 신촌로129,-,37.5564819,126.940327
도로(가로)변,서울특별시 서대문구 신촌동 신촌로121,-,37.556187,126.9392967
정류소-도로(가로)변,서울특별시 서대문구 신촌동 신촌로113,-,37.5559441,126.9385305
도로(가로)변,서울특별시 서대문구 신촌동 신촌로73,-,37.5562647,126.9345138
도로(가로)변,서울특별시 서대문구 신촌동 신촌로55-2,-,37.556837,126.9327309
장로교회:도로(가로)변,서울특별시 서대문구 신촌동 신촌로43,-,37.5573514,126.9314266
도로(가로)변,서울특별시 서대문구 신촌동 신촌로21,-,37.5580229,126.9292699
정류소-도로(가로)변,서울특별시 서대문구 신촌동 신촌로이대역,-,37.556761,126.945857
정류소-도로(가로)변,서울특별시 서대문구 신촌동 신촌로 신촌오거리,-,37.556043,126.93988
정류소-도로(가로)변,서울특별시 서대문구 신촌동 신촌로 동교동삼거리,-,37.558067,126.928544
정류소-도로(가로)변,서울특별시 서대문구 연희동 증가로16,-,37.5697885,126.9313428
정류소-도로(가로)변,서울특별시 서대문구 연희동 증가로15,-,37.569493,126.9310448
정류소-도로(가로)변,서울특별시 서대문구 연희동 증가로81,-,37.5745813,126.9269012
정류소-도로(가로)변,서울특별시 서대문구 연희동 가좌로27,-,37.577027,126.9325006
정류소-도로(가로)변,서울특별시 서대문구 홍은2동 가좌로 142,-,37.5846694,126.9240447
도로(가로)변,서울특별시 서대문구 연희동 가좌로28,-,37.5774463,126.9326259
정류소-도로(가로)변,서울특별시 서대문구 연희동 가좌로82,-,37.5804602,126.928249
도로(가로)변,서울특별시 서대문구 거북골로53,-,37.5782618,126.9223233
정류소-도로(가로)변,서울특별시 서대문구 거북골로39,-,37.579102,126.9235599
도로(가로)변,서울특별시 서대문구 거북골로25,-,37.5798956,126.9247248
정류소-도로(가로)변,서울특별시 서대문구 남가좌2동 거북골로69,-,37.5772765,126.9209914
정류소-도로(가로)변,서울특별시 서대문구 홍은2동 거북골로11,-,37.5807591,126.9259453
정류소-도로(가로)변,서울특별시 서대문구 홍은2동 거북골로8,-,37.581166,126.9261059
정류소-도로(가로)변,서울특별시 서대문구 남가좌2동 거북골로27,-,37.5797412,126.9244926
정류소-도로(가로)변,서울특별시 서대문구 남가좌2동 거북골로59,-,37.5778795,126.9218001
정류소-도로(가로)변,서울특별시 서대문구 남가좌2동 거북골로162,-,37.5762014,126.9121381
정류소-도로(가로)변,서울특별시 서대문구 남가좌2동 거북골로174,-,37.5768439,126.9111664
정류소-도로(가로)변,서울특별시 서대문구 남가좌2동 거북골로106-1,-,37.575221,126.9178184
도로(가로)변,서울특별시 서대문구 모래내로 193,-,37.5724725,126.9214218
정류소-도로(가로)변,서울특별시 서대문구 북가좌2동 응암로117,-,37.5830974,126.9134564
정류소-도로(가로)변,서울특별시 서대문구 북가좌2동 응암로79,-,37.5802444,126.9112641
정류소-도로(가로)변,서울특별시 서대문구 북가좌2동 응암로78,-,37.5797791,126.9115154
정류소-도로(가로)변,서울특별시 서대문구 북가좌2동 응암로106,-,37.5819266,126.9132221
횡단보도 입구,서울특별시 서대문구 신촌동 신촌역로12,-,37.5577282,126.9430574
도로(가로)변,서울특별시 서대문구 신촌동 신촌역로7,-,37.5584845,126.942202
횡단보도 입구,서울특별시 서대문구 연희동 성산로318,-,37.566014,126.9254745
횡단보도 입구,서울특별시 서대문구 연희동 성산로317,-,37.5665374,126.9254703
정류소-도로(가로)변,서울특별시 서대문구 신촌동 성산로 세브란스,-,37.5623371,126.9408692
정류소-도로(가로)변,서울특별시 서대문구 신촌동 신촌역로16,-,37.558031,126.9431674
정류소-도로(가로)변,서울특별시 서대문구 신촌동 신촌역로27,-,37.5587897,126.9422603
도로(가로)변,서울특별시 서대문구 성산로 486,-,37.560681,126.9412601
이대부고:정류소-도로(가로)변,서울특별시 서대문구 신촌동 성산로560,-,37.5645969,126.9460935
정류소-도로(가로)변,서울특별시 서대문구 천연동 성산로 독립문공원,-,37.5757,126.9561
정류소-도로(가로)변,서울특별시 서대문구 신촌동 성산로 연세대학교,-,57.5628,126.9434
도로(가로)변,서울특별시 서대문구 성산로 565,-,37.566388,126.9462765
도로(가로)변,서울특별시 서대문구 연희동 성산로 사천교,-,37.5682,126.9169
정류소-도로(가로)변,서울특별시 서대문구 연희동 성산로 사천교,-,37.5681,126.9175
도로(가로)변,서울특별시 서대문구 남가좌1동 수색로48,-,37.5703688,126.9135791
횡단보도 입구,서울특별시 서대문구 북가좌1동 수색로132 북가좌삼거리,-,37.5751,126.9051
정류소-도로(가로)변,서울특별시 서대문구 북가좌1동 수색로6길 모래내삼거리,-,37.5708,126.9132
도로(가로)변,서울특별시 서대문구 북가좌1동 수색로 장미터널,-,37.5907,126.9136
도로(가로)변,서울특별시 서대문구 이화여대길26,-,37.5579609,126.9460081
도로(가로)변,서울특별시 서대문구 이화여대1길 5,-,37.5572036,126.9454495
도로(가로)변,서울특별시 서대문구 이화여대길30,-,37.5582106,126.9459141
도로(가로)변,서울특별시 서대문구 이화여대길48,-,37.5590229,126.9458709
도로(가로)변,서울특별시 서대문구 이화여대길55,-,37.5590457,126.9453975
도로(가로)변,서울특별시 서대문구 이화여대길60,-,37.5592251,126.9451018
도로(가로)변,서울특별시 서대문구 이화여대길67,-,37.5590502,126.9446946
도로(가로)변,서울특별시 서대문구 이화여대길79,-,37.5590034,126.9439878
도로(가로)변,서울특별시 서대문구 이화여대길84,-,37.5592062,126.9437959
일삼약국:도로(가로)변,서울특별시 서대문구 연세로 42,-,37.5592048,126.9371136
대학약국:도로(가로)변,서울특별시 서대문구 연세로 37-1,-,37.5590212,126.936737
횡단보도 입구,서울특별시 서대문구 연세로 37,-,37.5588323,126.9366673
횡단보도 입구,서울특별시 서대문구 연세로 23,-,37.5577123,126.9366662
도로(가로)변,서울특별시 서대문구 연세로 31,-,37.5584022,126.9367345
도로(가로)변,서울특별시 서대문구 연세로 30 ,-,37.55828229999999,126.9371358
도로(가로)변,서울특별시 서대문구 연세로 29 ,-,37.5581742,126.9366314
도로(가로)변,서울특별시 서대문구 연세로 21,-,37.5575356,126.9366653
도로(가로)변,서울특별시 서대문구 연세로 22 ,-,37.5575465,126.9370738
횡단보도 입구,서울특별시 서대문구 연세로 19,-,37.5573586,126.9367143
횡단보도 입구,서울특별시 서대문구 연세로 18,-,37.5571262,126.9371239
현대유플렉스:도로(가로)변,서울특별시 서대문구 연세로 13,-,37.5567009,126.9365267
도로(가로)변,서울특별시 서대문구 연세로 14-1,-,37.5568019,126.9370312
도로(가로)변,서울특별시 서대문구 연세로 6,-,37.5560251,126.937015
도로(가로)변,서울특별시 서대문구 연세로 7,-,37.5562476,126.9366135
도로(가로)변,서울특별시 서대문구 신촌로 93,-,37.5557471,126.9365663
1번출구 지하철역 입구,서울특별시 서대문구 신촌로 91,-,37.5557016,126.9364107
3번출구 지하철역 입구,서울특별시 서대문구 신촌로 101,-,37.555587,126.9372974
도로(가로)변,서울특별시 서대문구 연세로5,-,37.5560788,126.9365751
도로(가로)변,서울특별시 서대문구 창천문화공원,-,37.55678520000001,126.9355017
도로(가로)변,서울특별시 서대문구 명물길19,-,37.5580661,126.9375418
도로(가로)변,서울특별시 서대문구 명물길23,-,37.55815090000001,126.9378529
도로(가로)변,서울특별시 서대문구 명물길33,-,37.5583569,126.9382111
도로(가로)변,서울특별시 서대문구 명물길41,-,37.5586305,126.9385773
도로(가로)변,서울특별시 서대문구 명물길49,-,37.5588613,126.9388898
도로(가로)변,서울특별시 서대문구 명물길71,-,37.5592206,126.9400754
도로(가로)변,서울특별시 서대문구 신촌역로 39,-,37.5589272,126.9410201
도로(가로)변,서울특별시 서대문구 불광천길 152,-,37.5819479,126.9089795
정류소-도로(가로)변,서울특별시 서대문구 통일로 산골고개,-,37.59500999999999,126.94063
정류소-도로(가로)변,서울특별시 서대문구 통일로 홍제역,-,37.5887,126.9441
정류소-도로(가로)변,서울특별시 서대문구 통일로 무악재역,-,37.5827,126.9501
정류소-도로(가로)변,서울특별시 서대문구 통일로 안산초등학교,-,37.5806,126.9516
정류소-도로(가로)변,서울특별시 서대문구 통일로 독립문역,-,37.574453,126.957918
정류소-도로(가로)변,서울특별시 서대문구 통일로 영천시장,-,37.5701,126.9625
정류소-도로(가로)변,서울특별시 서대문구 통일로 서대문역,-,37.5657,126.9667
정류소-도로(가로)변,서울특별시 서대문구 충정로 충정로역,-,37.5597,126.9641
정류소-도로(가로)변,서울특별시 서대문구 신촌로 아현역,-,37.557382,126.956083
정류소-도로(가로)변,서울특별시 서대문구 신촌로 웨딩타운,-,37.55694,126.951593
상가지역,서울특별시 서대문구 이화여대3길8,-,37.5580569,126.9452586
정류소-도로(가로)변,서울특별시 서대문구 성산로255,-,37.5677169,126.9189548
정류소-도로(가로)변,서울특별시 서대문구 서소문로21,-,37.5598507,126.964065
도로(가로)변,서울특별시 서대문구 성산로490,-,37.5609892,126.9415682
정류소-도로(가로)변,서울특별시 서대문구 홍제천로118,-,37.5751905,126.9271075
정류소-도로(가로)변,서울특별시 서대문구 홍제천로156,-,37.5770931,126.9307449
도로(가로)변,서울특별시 서대문구 신촌로279-1,-,37.5575478,126.9572234
도로(가로)변,서울특별시 서대문구 북아현로14,-,37.558658,126.9566183
정류소-도로(가로)변,서울특별시 서대문구 가좌로 52,-,37.5784571,126.9302261
정류소-도로(가로)변,서울특별시 서대문구 가좌로 143,-,37.5846391,126.9234858
정류소-도로(가로)변,서울특별시 서대문구 가좌로 89,-,37.5808386,126.9272552
정류소-도로(가로)변,서울특별시 서대문구 모래내로 289,-,37.5781819,126.9296798
정류소-도로(가로)변,서울특별시 서대문구 모래내로 263,-,37.5766715,126.9274757
정류소-도로(가로)변,서울특별시 서대문구 모래내로 239,-,37.5753214,126.9251528
정류소-도로(가로)변,서울특별시 서대문구 모래내로 173,-,37.5712336,126.9198379
정류소-도로(가로)변,서울특별시 서대문구 모래내로 193,-,37.5724725,126.9214218
4번출구:횡단보도,서울특별시 서초구 신사역,-,37.5155,127.0195
셀트리온:상가지역,서울특별시 서초구 강남대로 601,-,37.5153,127.0194
대도식당:상가지역,서울특별시 서초구 강남대로 567,-,37.5125,127.02
고도일병원:상가지역,서울특별시 서초구 강남대로 505,-,37.507,127.023
스타벅스:상가지역,서울특별시 서초구 강남대로 483,-,37.5054,127.0238
2번출구 지하철역 입구,서울특별시 서초구 신논현역,-,37.5047,127.0242
자라:상가지역,서울특별시 서초구 강남대로 447,-,37.5022,127.0253
유화빌딩:상가지역,서울특별시 서초구 강남대로 441,-,37.501799778651,127.02542601366
이니스프리:상가지역,서울특별시 서초구 강남대로 423,-,37.50031521788,127.02614447083
대동빌딩:상가지역,서울특별시 서초구 강남대로 415,-,37.499641724088,127.02643201379
더바디샵:상가지역,서울특별시 서초구 강남대로61길 3,-,37.4992,127.0264
하나은행:상가지역,서울특별시 서초구 강남대로 405 통영빌딩,-,37.4988,127.0269
6번출구 지하철역 입구,서울특별시 서초구 강남역,-,37.4965,127.028
던킨도너츠:상가지역,서울특별시 서초구 강남대로 373,-,37.496073628243,127.027985106
도씨에빛:상가지역,서울특별시 서초구 강남대로 365,-,37.495379064235,127.02847035469
티월드:상가지역,서울특별시 서초구 강남대로 359,-,37.49483466037,127.02871475306
신한금융투자:상가지역,서울특별시 서초구 강남대로 343 신한금융투자 강남중앙지점,-,37.4935,127.0294
파스쿠치:상가지역,서울특별시 서초구 강남대로 331,-,37.492558329229,127.02971578283
페이토호텔:상가지역,서울특별시 서초구 강남대로 259,-,37.486538464988,127.03270993815
1~2번출구 지하철역 입구,서울특별시 서초구 양재역,-,37.4848,127.0335
11번출구 지하철역 입구,서울특별시 서초구 양재역,-,37.4842,127.034
맥도널드:상가지역,서울특별시 서초구 강남대로 213,-,37.4829,127.0352
7~8번출구 지하철역 입구,서울특별시 서초구 양재역,-,37.4833,127.0354
상가지역,서울특별시 서초구 강남대로 148 상록빌딩,-,37.4896,127.0194
정류소-도로(가로)변,서울특별시 서초구 일동제약사거리,-,37.479,127.0382
3번출구 지하철역 입구,서울특별시 서초구 강남대로 48-3,-,37.4693,127.0398
4번출구 지하철역 입구,서울특별시 서초구 양재시민의숲역,-,37.4693,127.039
1번출구 지하철역 입구,서울특별시 서초구 양재시민의숲역,-,37.4703,127.0386
정류소-도로(가로)변,서울특별시 서초구 효령로 22,-,37.4774,126.9872
정류소-도로(가로)변,서울특별시 서초구 효령로 92,-,37.48,126.9935
정류소-도로(가로)변,서울특별시 서초구 효령로 132,-,37.481417464782,126.99845464413
정류소-도로(가로)변,서울특별시 서초구 효령로 161,-,37.482511626334,127.00178498647
5번출구 지하철역 입구,서울특별시 서초구 효령로 남부터미널역,-,37.4848,127.0158
정류소-도로(가로)변,서울특별시 서초구 효령로 336,-,37.486080079279,127.02092022963
무지개아파트:정류소-도로(가로)변,서울특별시 서초구 효령로 388,-,37.487770364169,127.02632234999
뱅뱅사거리:정류소-도로(가로)변,서울특별시 서초구 효령로 418,-,37.488655377028,127.02952475115
정류소-도로(가로)변,서울특별시 서초구 효령로 194,-,37.482730038187,127.00538311634
정류소-도로(가로)변,서울특별시 서초구 효령로 197,-,37.483167559134,127.00579875969
정류소-도로(가로)변,서울특별시 서초구 효령로 114 백석대학교,-,37.4811,126.9966
정류소-도로(가로)변,서울특별시 서초구 서울성모병원사거리 서래공원,-,37.5013,127.0032
정류소-도로(가로)변,서울특별시 서초구 반포대로 275 래미안 퍼스티지,-,37.5023,126.9972
정류소-도로(가로)변,서울특별시 서초구 반포대로 38 와라와라,-,37.4839,127.0118
정류소-도로(가로)변,서울특별시 서초구 서초3동사거리 고용노동부 서초고용센터,-,37.4842,127.0109
한독모터스:정류소-도로(가로)변,서울특별시 서초구 반포대로 72,-,37.486905044719,127.01049110888
3번출구 지하철역 입구,서울특별시 서초구 서초역,-,37.4914,127.0076
2번출구 지하철역 입구,서울특별시 서초구 서초역,-,37.4916,127.0081
정류소-도로(가로)변,서울특별시 서초구 반포대로 95,-,37.4886,127.009
정류소-도로(가로)변,서울특별시 서초구 서울성모병원,-,37.5004,127.0041
정류소-도로(가로)변,서울특별시 서초구 반포대로 144,-,37.492952726057,127.00740135204
3번출구(맥도널드) 지하철역 입구,서울특별시 서초구 방배역,-,37.4817,126.9973
1번출구(미스터피자) 지하철역 입구,서울특별시 서초구 방배역,-,37.4815,126.9983
정류소-도로(가로)변,서울특별시 서초구 방배로 278,-,37.497612591472,126.987612831
하나은행방배서래지점:정류소-도로(가로)변,서울특별시 서초구 방배로 268,-,37.496726393611,126.98822080921
정류소-도로(가로)변,서울특별시 서초구 방배열린문화센터,-,37.489107803378,126.99245540859
3~4번출구 지하철역 입구,서울특별시 서초구 내방역,-,37.4873,126.9935
인혜빌딩:정류소-도로(가로)변,서울특별시 서초구 방배로 104 인혜빌딩,-,37.483582892492,126.99651419741
5번출구 지하철역 입구,서울특별시 서초구 내방역,-,37.4877,126.993
2번출구 지하철역 입구,서울특별시 서초구 방배역,-,37.4811,126.9976
정류소-도로(가로)변,서울특별시 서초구 방배로 14 임광1·2차 아파트,-,37.4767,127.0009
2~3번출구 지하철역 입구,서울특별시 서초구 구반포역,-,37.5017,126.9869
정류소-도로(가로)변,서울특별시 서초구 신반포로 17,-,37.501719833959,126.98646431725
4번출구 지하철역 입구,서울특별시 서초구 신반포역,-,37.5032,126.9958
1번출구 지하철역 입구,서울특별시 서초구 신반포역,-,37.5035,126.9957
5번출구:정류소-도로(가로)변,서울특별시 서초구 논현역,-,37.5111,127.0209
5번출구 지하철역 입구,서울특별시 서초구 반포역,-,37.5083,127.0112
정류소-도로(가로)변,서울특별시 서초구 신반포로 270,-,37.508400701487,127.01390019329
정류소-도로(가로)변,서울특별시 서초구 반포3동 잠원로 51,-,37.5093,127.0077
정류소-도로(가로)변,서울특별시 서초구 잠원로 60,-,37.51500214579,127.01659775639
정류소-도로(가로)변,서울특별시 서초구 잠원로 117,-,37.514497955879,127.0072832322
정류소-도로(가로)변,서울특별시 서초구 잠원로 69,-,37.510565250669,127.00693381396
정류소-도로(가로)변,서울특별시 서초구 잠원로 110,-,37.513616091746,127.00726245845
정류소-도로(가로)변,서울특별시 서초구 잠원로8길 35,-,37.513933932667,127.01229478706
정류소-도로(가로)변,서울특별시 서초구 남부순환로 2183,-,37.474573911062,126.99124823251
예술의전당:정류소-도로(가로)변,서울특별시 서초구 남부순환로 2406,-,37.480430367362,127.01345631836
SPC본사:정류소-도로(가로)변,서울특별시 서초구 남부순환로 2620,-,37.484655898245,127.03722694165
6번출구 지하철역 입구,서울특별시 서초구 양재역,-,37.4842,127.0348
정류소-도로(가로)변,서울특별시 서초구 남부순환로 2383,-,37.479911726402,127.01104636157
정류소-도로(가로)변,서울특별시 서초구 사평대로 55 심산기념문화센터,-,37.498481641919,126.9907162314
정류소-도로(가로)변,서울특별시 서초구 사평대로 98 골프존마켓,-,37.498706094323,126.99546415101
정류소-도로(가로)변,서울특별시 서초구 사평대로 130 서래마을입구,-,37.5,126.9986
정류소-도로(가로)변,서울특별시 서초구 사평대로 142 신궁전아파트,-,37.500483701059,126.99985070144
정류소-도로(가로)변,서울특별시 서초구 반포1동 주민센터,-,37.505038898966,127.01337133126
2번출구:정류소-도로(가로)변,서울특별시 서초구 사평역,-,37.5038,127.0158
빽다방:정류소-도로(가로)변,서울특별시 서초구 사평대로 367,-,37.504296967512,127.02308523073
1번출구 지하철역 입구,서울특별시 서초구 총신대입구역,-,37.4883,126.9825
4번출구 지하철역 입구,서울특별시 서초구 이수역,-,37.4856,126.9826
5~6번출구 지하철역 입구,서울특별시 서초구 이수역,-,37.4851,126.9825
11번출구 지하철역 입구,서울특별시 서초구 사당역,-,37.4782,126.982
12출구 지하철역 입구,서울특별시 서초구 사당역 파스텔시티,-,37.4777,126.982
신한은행(반포남금융센터):정류소-도로(가로)변,서울특별시 서초구 서초중앙로 238,-,37.5028856252,127.01158357767
11번출구 지하철역 입구,서울특별시 서초구 교대역,-,37.4939,127.0133
6번출구 지하철역 입구,서울특별시 서초구 교대역,-,37.4942,127.0137
정류소-도로(가로)변,서울특별시 서초구 서초중앙로 64,-,37.487376901581,127.01508903055
3번출구 지하철역 입구,서울특별시 서초구 교대역,-,37.4943,127.0149
1번출구 지하철역 입구,서울특별시 서초구 남부터미널역,-,37.4853,127.0162
정류소-도로(가로)변,서울특별시 서초구 명달로 134,-,37.489226615547,127.00476070096
정류소-도로(가로)변,서울특별시 서초구 고무래로 34 서초구립반포도서관,-,37.502536839982,127.01246718182
1번출구 지하철역 입구,서울특별시 서초구 서초대로 294 교대역,-,37.493732629949,127.01431918107
정류소-도로(가로)변,서울특별시 서초구 서초대로 46,-,37.4857,126.9865
3~7번출구 지하철역 입구,서울특별시 서초구 교대역,-,37.4939,127.0145
정류소-도로(가로)변,서울특별시 서초구 서운로 104,-,37.492979919179,127.02636612363
정류소-도로(가로)변,서울특별시 서초구 서운로 107,-,37.4931982199,127.02578688974
정류소-도로(가로)변,서울특별시 서초구 서운로 201,-,37.500998544887,127.02156157825
정류소-도로(가로)변,서울특별시 서초구 서운로 212,-,37.502076447747,127.02198083339
서초참요양병원:정류소-도로(가로)변,서울특별시 서초구 양재대로 54,-,37.459885536653,127.02548550942
5번출구 지하철역 입구,서울특별시 서초구 양재시민의숲역,-,37.4695,127.0386
정류소-도로(가로)변,서울특별시 서초구 헌릉로 13 염곡동 305,-,37.4648,127.0443
정류소-도로(가로)변,서울특별시 서초구 헌릉로 170,-,37.457161168001,127.05902432291
2번출구 지하철역 입구,서울특별시 서초구 청계산입구역,-,37.4477,127.055
정류소-도로(가로)변,서울특별시 서초구 서초힐스 아파트 210동,-,37.4564,127.0197
정류소-도로(가로)변,서울특별시 성동구 성동구 도선동 15-3,-,37.56334890000001,127.0358043
정류소-도로(가로)변,서울특별시 성동구 성동구 도선동 409,-,37.5688177,127.0266179
정류소-도로(가로)변,서울특별시 성동구 성동구 마장동 792,-,37.5653041,127.042324
정류소-도로(가로)변,서울특별시 성동구 성동구 사근동 33-10,-,37.5413,127.0504
지하철역 입구,서울특별시 성동구 성동구 행당동 1-13,-,37.5610662,127.0391829
지하철역 입구,서울특별시 성동구 성동구 하왕십리동 966-13,-,37.5624052,127.0330026
지하철역 입구,서울특별시 성동구 성동구 도선동 256-1,-,37.5629766,127.0330235
지하철역 입구,서울특별시 성동구 성동구 행당동 284,-,37.5608503,127.0346933
정류소-도로(가로)변,서울특별시 성동구 성동구 행당동 347,-,37.5578253,127.027423
정류소-도로(가로)변,서울특별시 성동구 성동구 금호동4가 559,-,37.548016,127.022123
정류소-도로(가로)변,서울특별시 성동구 성동구 금호동4가 1109,-,37.5481354,127.0209795
정류소-도로(가로)변,서울특별시 성동구 성동구 금호동 4가 340,-,37.54469840000001,127.0223406
정류소-도로(가로)변,서울특별시 성동구 성동구 옥수동 559,-,37.5420277,127.0119445
정류소-도로(가로)변,서울특별시 성동구 성동구 옥수동 428,-,37.5434044,127.0117249
지하철역 입구,서울특별시 성동구 성동구 성수동1가 685-701,-,37.5429305,127.0433514
정류소-도로(가로)변,서울특별시 성동구 성동구 성수동1가 685-580,-,37.5462824,127.0443475
정류소-도로(가로)변,서울특별시 성동구 성동구 성수동2가 236-7,-,37.5368298,127.0605491
정류소-도로(가로)변,서울특별시 성동구 성동구 성수동2가 299-239,-,37.5493153,127.0553269
정류소-도로(가로)변,서울특별시 성동구 성동구 성수동2가 280-41,-,37.5478926,127.0619924
정류소-도로(가로)변,서울특별시 성동구 성동구 성수동2가 315-1,-,37.5440067,127.0566082
정류소-도로(가로)변,서울특별시 성동구 성동구 성수동2가 300-5,-,37.5451586,127.055075
정류소-도로(가로)변,서울특별시 성동구 성동구 송정동 66-263,-,37.5483258,127.0640172
정류소-도로(가로)변,서울특별시 성동구 성동구 용답동 62-2,-,37.5651883,127.0542199
정류소-도로(가로)변,서울특별시 성동구 성동구 용답동 235-1,-,37.5607874,127.0665382
지하철역 입구,서울특별시 성동구 행당동 196,-,37.5608742,127.0359618
정류소-도로(가로)변,서울특별시 성동구 행당동 7,-,37.5611,127.0363
정류소-도로(가로)변,서울특별시 성동구 마장동 521-10,-,37.5697415,127.0378637
정류소-도로(가로)변,서울특별시 성동구 마장동 474-25,-,37.5702023,127.0373619
도로변(횡단보도 포함),서울특별시 성동구 하왕십리동 890-81,-,37.5644667,127.0280634
정류소-도로(가로)변,서울특별시 성동구 행당동 322-1,-,37.5571395,127.0333298
정류소-도로(가로)변,서울특별시 성동구 응봉동 101,-,37.5530997,127.0333888
정류소-도로(가로)변,서울특별시 성동구 행당동 349,-,37.5551685,127.0361451
도로변(횡단보도 포함),서울특별시 성동구 행당동 320-6,-,37.5575762,127.0348363
정류소-도로(가로)변,서울특별시 성동구 금호동1가 632,-,37.5542479,127.0257504
도로변(횡단보도 포함),서울특별시 성동구 금호동1가 122,-,37.55493999999999,127.020216
정류소-도로(가로)변,서울특별시 성동구 금호동1가 1756,-,37.551379,127.0257515
도로변(횡단보도 포함),서울특별시 성동구 금호동3가 210-2,-,37.548188,127.0253811
지하철역 입구,서울특별시 성동구 행당동 산17,-,37.5552593,127.0436579
정류소-도로(가로)변,서울특별시 성동구 행당동 251-2,-,37.5599172,127.0360692
정류소-도로(가로)변,서울특별시 성동구 마장동 798-1,-,37.5647672,127.041337
도로변(횡단보도 포함),서울특별시 성동구 용답동 228-5,-,37.5616469,127.0608431
정류소-도로(가로)변,서울특별시 성동구 송정동 97,-,37.5575833,127.0723697
정류소-도로(가로)변,서울특별시 성동구 송정동 15-2,-,37.5518971,127.0692023
도로변(횡단보도 포함),서울특별시 성동구 성수동2가 279-44,-,37.5443681,127.0648871
정류소-도로(가로)변,서울특별시 성동구 성수동2가 300-9,-,37.5455006,127.053896
지하철역 입구,서울특별시 성동구 성수동1가 656-745,-,37.5471773,127.0473802
지하철역 입구,서울특별시 성동구 성수동2가 315-1,-,37.5440067,127.0566082
정류소-도로(가로)변,서울특별시 성동구 성수동2가 275-53,-,37.5413723,127.0632045
지하철역 입구,서울특별시 성동구 성수동1가 656-3,-,37.5426768,127.0452874
정류소-도로(가로)변,서울특별시 성동구 성수동1가 661-2,-,37.546083,127.0449815
정류소-도로(가로)변,서울특별시 성동구 성수동1가 656-1731,-,37.5477759,127.0449633
상가지역,서울특별시 성동구 행당동192-29,-,37.5648706,127.0367774
상가지역,서울특별시 성동구 하왕십리동700,-,37.5665973,127.0269264
상가지역,서울특별시 성동구 행당동286-70,-,37.5618505,127.0340352
상가지역,서울특별시 성동구 도선동53,-,37.5624577,127.0340319
도로변(횡단보도 포함),서울특별시 성동구 성수동2가302-5,-,37.5453734,127.052078
지하철역 입구,서울특별시 성동구 성수동1가656-766,-,37.5464578,127.0484361
도로변(횡단보도 포함),서울특별시 성동구 성수동1가656-75,-,37.5478789,127.0441053
상가지역,서울특별시 성동구 금호동3가373-1,-,37.5483205,127.022437
도로변(횡단보도 포함),서울특별시 성동구 금호동4가593,-,37.5475889,127.021032
상가지역,서울특별시 성동구 금호동4가198,-,37.5465441,127.0248865
도로변(횡단보도 포함),서울특별시 성동구 옥수동285-85,-,37.5436,127.0147
도로변(횡단보도 포함),서울특별시 성동구 옥수동 244-3,-,37.5425516,127.0125339
상가지역,서울특별시 성동구 옥수동262-12,-,37.5428659,127.0129507
도로변(횡단보도 포함),서울특별시 성동구 옥수동447-4,-,37.541153,127.0107917
지하철역 입구,서울특별시 성동구 행당동192-8,-,37.5617303,127.0364217
도로변(횡단보도 포함),서울특별시 성동구 마장동523-4,-,37.5710401,127.0383348
도로변(횡단보도 포함),서울특별시 성동구 마장동568-19,-,37.5688966,127.0370119
정류소-도로(가로)변,서울특별시 성동구 행당동322-175,-,37.55613580000001,127.0338962
도로변(횡단보도 포함),서울특별시 성동구 응봉동200-1,-,37.5498491,127.0311323
도로변(횡단보도 포함),서울특별시 성동구 응봉동228-20,-,37.5516321,127.035515
도로변(횡단보도 포함),서울특별시 성동구 행당동133-5,-,37.558876,127.0369949
도로변(횡단보도 포함),서울특별시 성동구 금호동1가167-35,-,37.5557528,127.023912
도로변(횡단보도 포함),서울특별시 성동구 금호동1가103,-,37.5560898,127.0201127
도로변(횡단보도 포함),서울특별시 성동구 금호동1가179-59,-,37.5537184,127.0243731
도로변(횡단보도 포함),서울특별시 성동구 금호동1가1797-1,-,37.5492286,127.0262378
상가지역,서울특별시 성동구 금호동4가145,-,37.5479468,127.0240964
정류소-도로(가로)변,서울특별시 성동구 행당동19-100,-,37.5586706,127.0405402
정류소-도로(가로)변,서울특별시 성동구 마장동388-2,-,37.5630005,127.0419245
지하철역 입구,서울특별시 성동구 마장동773-2,-,37.5656077,127.0414281
상가지역,서울특별시 성동구 용답동1-2,-,37.5649422,127.0545478
도로변(횡단보도 포함),서울특별시 성동구 용답동232-1,-,37.5612819,127.0633333
도로변(횡단보도 포함),서울특별시 성동구 용답동235-5,-,37.560624,127.0677604
지하철역 입구,서울특별시 성동구 성수동2가300-1,-,37.5446009,127.0568847
도로변(횡단보도 포함),서울특별시 성동구 송정동81-16,-,37.5496777,127.0563647
정류소-도로(가로)변,서울특별시 성동구 송정동 90-7,-,37.5552762,127.0710617
정류소-도로(가로)변,서울특별시 성동구 독서당로 173,-,37.5418197,127.0102397
정류소-도로(가로)변,서울특별시 성동구 341-1,-,37.570202305086,127.03736931653
정류소-도로(가로)변,서울특별시 성동구 15나길 19,-,37.563989536317,127.04096778396
정류소-도로(가로)변,서울특별시 성동구 왕십리로 410,-,37.565277907959,127.02478106155
정류소-도로(가로)변,서울특별시 성동구 마장로 137,-,37.567838071399,127.02515948683
정류소-도로(가로)변,서울특별시 성동구 왕십리로 327,-,37.5623833,127.0331908
정류소-도로(가로)변,서울특별시 성동구 고사자로 197,-,37.5571395,127.0333298
정류소-도로(가로)변,서울특별시 성동구 행당로 87,-,37.557206975289,127.0286801837
정류소-도로(가로)변,서울특별시 성동구 금호로 173,-,37.556348359117,127.01973079975
정류소-도로(가로)변,서울특별시 성동구 금호로 105,-,37.552384660216,127.02459682601
정류소-도로(가로)변,서울특별시 성동구 독서당로 299-2,-,37.548331878736,127.02242052566
정류소-도로(가로)변,서울특별시 성동구 독서당로 207,-,37.543745093367,127.01390659709
정류소-도로(가로)변,서울특별시 성동구 독서당로 222,-,37.5438401,127.0153426
정류소-도로(가로)변,서울특별시 성동구 독서당로 216,-,37.543635928179,127.01483272057
정류소-도로(가로)변,서울특별시 성동구 금호로 40,-,37.546925531701,127.025513035
도로변(횡단보도 포함),서울특별시 성동구 살곶이길 352,-,37.556808103232,127.04093401808
도로변(횡단보도 포함),서울특별시 성동구 마장로 310,-,37.566530351946,127.0439542963
도로변(횡단보도 포함),서울특별시 성동구 천호대로 312,-,37.565037541124,127.05461887307
지하철역 입구,서울특별시 성동구 용답동 232-6,-,37.5609104,127.0639843
도로변(횡단보도 포함),서울특별시 성동구 광나루로 337,-,37.548461,127.0672136
정류소-도로(가로)변,서울특별시 성동구 동일로 223,-,37.5517898,127.06919
정류소-도로(가로)변,서울특별시 성동구 광나루로 243,-,37.5494444,127.0569323
정류소-도로(가로)변,서울특별시 성동구 뚝섬로 452,-,37.537152,127.0606231
지하철역 입구,서울특별시 성동구 아차산로 120,-,37.5438853,127.0572038
정류소-도로(가로)변,서울특별시 성동구 광나루로 328,-,37.5479812,127.0662384
정류소-도로(가로)변,서울특별시 성동구 광나루로 297,-,37.5484719,127.0627818
도로변(횡단보도 포함),서울특별시 성동구 광나루로 319,-,37.5483159,127.0652644
정류소-도로(가로)변,서울특별시 성동구 광나루로 190,-,37.5505058,127.0509661
정류소-도로(가로)변,서울특별시 성동구 광나루로 142-1,-,37.5513041,127.0460409
정류소-도로(가로)변,서울특별시 성동구 광나루로 184,-,37.5508115,127.0504428
정류소-도로(가로)변,서울특별시 성동구 살곶이 8길 22,-,37.5562628,127.0429615
횡단보도,서울특별시 성동구 살곶이길 327,-,37.554724703649,127.04043089879
횡단보도,서울특별시 성동구 광나루로 334,-,37.5479245,127.0668242
정류소-도로(가로)변,서울특별시 성동구 동일로 169,-,37.5475085,127.0665058
정류소-도로(가로)변,서울특별시 성동구 왕십리로 241,-,37.557115221504,127.04036515616
분수광장:다중집합장소,서울특별시 성북구 한성대입구역,-,37.582,127.0067
정류소-도로(가로)변,서울특별시 성북구 한성대입구,-,37.5886,127.0067
지하철역 입구,서울특별시 성북구 한성대입구역 5번출구,-,37.5888,127.0056
다중집합장소,서울특별시 성북구 성북구청 바람마당,-,37.5897,127.0176
정류소-도로(가로)변,서울특별시 성북구 성신여대입구,-,37.5933,127.0177
정류소-도로(가로)변,서울특별시 성북구 성신여대입구역,-,37.5926,127.0163
정류소-도로(가로)변,서울특별시 성북구 돈암삼성아파트입구,-,37.6019,127.0244
정류소-도로(가로)변,서울특별시 성북구 정릉로394 돈암1동주민센터,-,37.6038,127.0265
정류소-도로(가로)변,서울특별시 성북구 미아리고개,-,37.5984,127.0218
정류소-도로(가로)변,서울특별시 성북구 미아리고개,-,37.5981,127.0218
정류소-도로(가로)변,서울특별시 성북구 서울다원학교,-,37.5946,126.9913
정류소-도로(가로)변,서울특별시 성북구 숭덕초교,-,37.6037,127.0146
정류소-도로(가로)변,서울특별시 성북구 정릉2동주민센터,-,37.6045,127.0112
정류소-도로(가로)변,서울특별시 성북구 정릉우체국,-,37.6054,127.0114
정류소-도로(가로)변,서울특별시 성북구 고려사대부고,-,37.609,126.9997
정류소-도로(가로)변,서울특별시 성북구 청덕초교,-,37.6086,127.0001
정류소-도로(가로)변,서울특별시 성북구 국민대학교 후문,-,37.6111,126.9993
정류소-도로(가로)변,서울특별시 성북구 국민대학교 정문,-,37.6107,126.9947
정류소-도로(가로)변,서울특별시 성북구 북악중학교,-,37.6073,127.003
정류소-도로(가로)변,서울특별시 성북구 정릉2동주민센터,-,37.6045,127.0113
정류소-도로(가로)변,서울특별시 성북구 정릉동풍림아파트,-,37.6165,127.0088
정류소-도로(가로)변,서울특별시 성북구 경국사,-,37.6135,127.0063
2번출구 지하철역 입구,서울특별시 성북구 돌곶이역,-,37.6112,127.0565
1번출구:정류소-도로(가로)변,서울특별시 성북구 돌곷이역,-,37.6107,127.0564
정류소-도로(가로)변,서울특별시 성북구 월곡중학교,-,37.6063,127.0478
정류소-도로(가로)변,서울특별시 성북구 상월곡역,-,37.6057,127.0467
5번출구:정류소-도로(가로)변,서울특별시 성북구 월곡역,-,37.6019,127.0416
정류소-도로(가로)변,서울특별시 성북구 장위2동주민센터,-,37.6122,127.0557
9번출구 지하철역 입구,서울특별시 성북구 길음역,-,37.6046,127.0253
도로변(횡단보도 포함),서울특별시 성북구 종암경찰서,-,37.602,127.0322
정류소-도로(가로)변,서울특별시 성북구 숭례초교,-,37.5948,127.0356
정류소-도로(가로)변,서울특별시 성북구 월곡동신아파트,-,37.6046,127.0359
정류소-도로(가로)변,서울특별시 성북구 숭곡초교,-,37.6093,127.0328
정류소-도로(가로)변,서울특별시 성북구 성가복지병원,-,37.606,127.0311
정류소-도로(가로)변,서울특별시 성북구 종암동주민센터,-,37.5983,127.0349
정류소-도로(가로)변,서울특별시 성북구 종암경찰서,-,37.6021,127.0325
정류소-도로(가로)변,서울특별시 성북구 브라운호텔,-,37.5823,127.021
정류소-도로(가로)변,서울특별시 성북구 보문동주민센터,-,37.5799,127.0224
3번출구:정류소-도로(가로)변,서울특별시 성북구 보문역,-,37.5857,127.0193
정류소-도로(가로)변,서울특별시 성북구 대광초교,-,37.5797,127.025
3번출구:정류소-도로(가로)변,서울특별시 성북구 안암역,-,37.5862,127.0298
정류소-도로(가로)변,서울특별시 성북구 국민은행장위동지점,-,37.6136,127.0482
상가지역,서울특별시 성북구 돌곶이로209 농협,-,37.6183,127.0467
정류소-도로(가로)변,서울특별시 성북구 아리랑시네미디어센터,-,37.6005,127.0138
정류소-도로(가로)변,서울특별시 성북구 일신건영아파트,-,37.6006,127.0136
정류소-도로(가로)변,서울특별시 성북구 돈암시장입구,-,37.5918,127.0167
정류소-도로(가로)변,서울특별시 성북구 삼선동주민센터,-,37.5908,127.0145
정류소-도로(가로)변,서울특별시 성북구 경신중고입구,-,37.5918,127.0029
정류소-도로(가로)변,서울특별시 성북구 홍익대부속중고등학교입구,-,37.5933,127.0006
도로변(횡단보도 포함),서울특별시 성북구 성신여대 정문 오거리,-,37.5913,127.0199
10번출구 지하철역 입구,서울특별시 성북구 길음역,-,37.6044,127.0256
지하철역 입구,서울특별시 성북구 길음역 환승주차장,-,37.604,127.0258
정류소-도로(가로)변,서울특별시 성북구  현대백화점별관 주차장,-,37.6078,127.0293
2번출구 지하철역 입구,서울특별시 성북구 성신여대입구역,-,37.5925,127.0166
3번출구 지하철역 입구,서울특별시 성북구 성신여대입구역,-,37.5924,127.0162
다중집합장소,서울특별시 성북구 석계역 음식문화거리 입구,-,37.6137,127.0652
1번출구 지하철역 입구,서울특별시 성북구 고려대역,-,37.5896,127.0355
도로변(횡단보도 포함),서울특별시 성북구 안암로터리,-,37.5824,127.0299
정류소-도로(가로)변,서울특별시 성북구 개운사입구,-,37.5856,127.0295
정류소-도로(가로)변,서울특별시 성북구 종암경찰서,-,37.6016,127.033
정류소-도로(가로)변,서울특별시 성북구  길음1동주민센터,-,37.6109,127.0198
정류소-도로(가로)변,서울특별시 성북구  길음시장입구,-,37.605,127.0223
2번출구:정류소-도로(가로)변,서울특별시 성북구 보문역,-,37.5859,127.0189
정류소-도로(가로)변,서울특별시 성북구 고려대이공대,-,37.5862,127.0251
정류소-도로(가로)변,서울특별시 성북구 우신향병원,-,37.5851,127.0315
정류소-도로(가로)변,서울특별시 성북구 숭례초등학교,-,37.5943,127.0361
정류소-도로(가로)변,서울특별시 성북구 청덕초교입구,-,37.6087,126.9993
정류소-도로(가로)변,서울특별시 성북구 창문여고,-,37.612,127.0362
정류소-도로(가로)변,서울특별시 성북구 월곡뉴타운,-,37.607,127.0284
정류소-도로(가로)변,서울특별시 성북구 길음뉴타운,-,37.6032,127.0236
2번출구 지하철역 입구,서울특별시 성북구 월곡역,-,37.6024,127.0412
정류소-도로(가로)변,서울특별시 성북구 정릉길음시장,-,37.6022,127.0193
정류소-도로(가로)변,서울특별시 성북구 종암동주민센터,-,37.5991,127.0351
2번출구:정류소-도로(가로)변,서울특별시 성북구 정릉입구,-,37.6027,127.0133
1번출구:정류소-도로(가로)변,서울특별시 성북구 정릉입구,-,37.6029,127.0135
정류소-도로(가로)변,서울특별시 성북구 생명의전화,-,37.6045,127.0372
정류소-도로(가로)변,서울특별시 성북구 성가복지병원,-,37.6069,127.031
4번출구:정류소-도로(가로)변,서울특별시 성북구 석계역,-,37.6147,127.0668
정류소-도로(가로)변,서울특별시 성북구 돈암2동주민센터입구,-,37.5978,127.011
정류소-도로(가로)변,서울특별시 성북구 한국과학기술연구원입구,-,37.6041,127.0451
도로변(횡단보도 포함),서울특별시 성북구 보문역 사거리,-,37.5858,127.0207
정류소-도로(가로)변,서울특별시 성북구 종암SK아파트,-,37.6019,127.0375
정류소-도로(가로)변,서울특별시 성북구 석관동코오롱아파트,-,37.6064,127.0662
정류소-도로(가로)변,서울특별시 성북구 KT월곡지사,-,37.6029,127.0352
정류소-도로(가로)변,서울특별시 송파구 롯데호텔 공항버스정류장,-,37.5107,127.1006
상가지역,서울특별시 송파구 롯데마트 주차장 출구,-,37.5119,127.0962
8번출구 지하철역 입구,서울특별시 송파구 잠실새내역,-,37.5118,127.0878
지하철역 입구,서울특별시 송파구 잠실역 5번출구,-,37.5131,127.0989
지하철역 입구,서울특별시 송파구 잠실역 6번출구,-,37.514,127.0992
정류소-도로(가로)변,서울특별시 송파구 잠실역.잠실대교.남단,-,37.5155,127.0984
정류소-도로(가로)변,서울특별시 송파구 잠실역.롯데월드,-,37.5126,127.0978
정류소-도로(가로)변,서울특별시 송파구 잠실엘스아파트,-,37.5119,127.0833
지하철역 입구,서울특별시 송파구 잠실새내역 6번출구,-,37.5121,127.0853
정류소-도로(가로)변,서울특별시 송파구 배명중고교,-,37.4996,127.0968
정류소-도로(가로)변,서울특별시 송파구 석촌호수.한솔병원,-,37.5072,127.1054
정류소-도로(가로)변,서울특별시 송파구 석촌역,-,37.5057,127.107
정류소-도로(가로)변,서울특별시 송파구 송파역,-,37.4998,127.1122
정류소-도로(가로)변,서울특별시 송파구 잠실종합운동장,-,37.5105,127.0728
지하철역 입구,서울특별시 송파구 종합운동장역,-,37.5114,127.0728
도로변(횡단보도 포함),서울특별시 송파구 배명고등학교 과학관,-,37.4989,127.0965
도로변(횡단보도 포함),서울특별시 송파구 올림픽로 118,-,37.5115,127.0838
정류소-도로(가로)변,서울특별시 송파구 잠실119안전센터,-,37.507,127.0948
정류소-도로(가로)변,서울특별시 송파구 종합운동장사거리,-,37.5117,127.0792
정류소-도로(가로)변,서울특별시 송파구 아시아선수촌아파트,-,37.5103,127.0785
정류소-도로(가로)변,서울특별시 송파구 아주중학교,-,37.5048,127.0767
정류소-도로(가로)변,서울특별시 송파구 잠실우성4차현대아파트,-,37.5049,127.0857
정류소-도로(가로)변,서울특별시 송파구 잠실새내역앞,-,37.5104,127.086
도로변(횡단보도 포함),서울특별시 송파구 백제고분로 284,-,37.5023,127.098
도로변(횡단보도 포함),서울특별시 송파구 잠실트리지움 346동,-,37.5111,127.0895
도로변(횡단보도 포함),서울특별시 송파구 백제고분로 204,-,37.5038,127.0893
지하철역 입구,서울특별시 송파구 잠실새내역 4번출구,-,37.5115,127.0847
정류소-도로(가로)변,서울특별시 송파구 잠실역1번.11번출구,-,37.514,127.103
도로변(횡단보도 포함),서울특별시 송파구 오금로 95,-,37.5137,127.1075
도로변(횡단보도 포함),서울특별시 송파구 방이삼거리(석촌호수 동호),-,37.512,127.108
지하철역 입구,서울특별시 송파구 송파나루역 1번출구,-,37.5103,127.1119
도로변(횡단보도 포함),서울특별시 송파구 방이동 고분군사거리(오금로 204),-,37.5078,127.1165
지하철역 입구,서울특별시 송파구 올림픽공원역 1번출구,-,37.5166,127.1315
지하철역 입구,서울특별시 송파구 올림픽공원역 4번출구,-,37.5167,127.1308
정류소-도로(가로)변,서울특별시 송파구 올림픽공원테니스장,-,37.5133,127.1287
정류소-도로(가로)변,서울특별시 송파구 올림픽공원장미광장,-,37.5128,127.1248
지하철역 입구,서울특별시 송파구 한성백제역 2번출구,-,37.5168,127.1164
정류소-도로(가로)변,서울특별시 송파구 몽촌토성역.한성백제역,-,37.517,127.1135
정류소-도로(가로)변,서울특별시 송파구 올림픽회관,-,37.521,127.1151
지하철역 입구,서울특별시 송파구 강동구청역 4번 출구,-,37.5304,127.1203
정류소-도로(가로)변,서울특별시 송파구 풍납동극동.쌍용아파트,-,37.5266,127.118
도로변(횡단보도 포함),서울특별시 송파구 잠실나루역사거리(파크리오101동),-,37.519,127.105
도로변(횡단보도 포함),서울특별시 송파구 잠실나루역사거리(더샵스타리버),-,37.5177,127.1047
도로변(횡단보도 포함),서울특별시 송파구 잠실나루역사거리(장미3차맨션) ,-,37.5198,127.1027
지하철역 입구,서울특별시 송파구 잠실나루역 1번출구,-,37.5211,127.1038
지하철역 입구,서울특별시 송파구 잠실나루역 2번출구,-,37.5206,127.104
도로변(횡단보도 포함),서울특별시 송파구 장미1차아파트,-,37.5202,127.0983
정류소-도로(가로)변,서울특별시 송파구 잠실역.잠실대교.남단,-,37.5141,127.0995
정류소-도로(가로)변,서울특별시 송파구 잠실역.롯데월드몰,-,37.5123,127.101
정류소-도로(가로)변,서울특별시 송파구 잠실역 9번출구,-,37.5148,127.1041
지하철역 입구,서울특별시 송파구 잠실역 8번출구,-,37.5139,127.1012
다중집합장소,서울특별시 송파구 방이초등학교 가락로285,-,37.5138,127.1217
정류소-도로(가로)변,서울특별시 송파구 송파역,-,37.4997,127.1122
정류소-도로(가로)변,서울특별시 송파구 방이역3번출구대림아파트,-,37.5083,127.1255
지하철역 입구,서울특별시 송파구 방이역 1번출구,-,37.5088,127.1264
다중집합장소,서울특별시 송파구 보성중학교 후문,-,37.5196,127.1351
정류소-도로(가로)변,서울특별시 송파구 송파레미니스아파트,-,37.5079,127.1369
정류소-도로(가로)변,서울특별시 송파구 오륜초.올림픽선수촌아파트,-,37.5106,127.1317
정류소-도로(가로)변,서울특별시 송파구 남천초.마천동우아파트앞,-,37.4999,127.152
다중집합장소,서울특별시 송파구 남한산성 만남의장소,-,37.4908,127.1572
정류소-도로(가로)변,서울특별시 송파구 마천동사거리,-,37.4986,127.1467
다중집합장소,서울특별시 송파구 체육문화회관,-,37.4907,127.1428
정류소-도로(가로)변,서울특별시 송파구 오금동상아파트,-,37.4977,127.1359
정류소-도로(가로)변,서울특별시 송파구 오금동사거리,-,37.5026,127.1381
정류소-도로(가로)변,서울특별시 송파구 삼익미성아파트,-,37.5062,127.1203
정류소-도로(가로)변,서울특별시 송파구 오금동현대아파트,-,37.5034,127.1264
정류소-도로(가로)변,서울특별시 송파구 삼환아파트,-,37.4965,127.1374
다중집합장소,서울특별시 송파구 송파경찰서,-,37.5017,127.1272
정류소-도로(가로)변,서울특별시 송파구 경찰병원.KT가락지사,-,37.4963,127.1223
지하철역 입구,서울특별시 송파구 가락시장역 5번출구,-,37.4927,127.1195
정류소-도로(가로)변,서울특별시 송파구 문현고등학교,-,37.4808,127.1294
정류소-도로(가로)변,서울특별시 송파구 문정2동주민센터.청소년수련관,-,37.4906,127.1126
도로변(횡단보도 포함),서울특별시 송파구 문정동 216,-,37.4858,127.1191
도로변(횡단보도 포함),서울특별시 송파구 문정동 375,-,37.4839,127.117
정류소-도로(가로)변,서울특별시 송파구 장지역.가든파이브,-,37.4799,127.1256
지하철역 입구,서울특별시 송파구 장지역 1번출구,-,37.4789,127.1264
지하철역 입구,서울특별시 송파구 복정역 3번출구,-,37.4783,127.1261
정류소-도로(가로)변,서울특별시 송파구 삼성래미안아파트 후문,-,37.489,127.1318
상가지역,서울특별시 송파구 문정로데오거리(동남로 123),-,37.4908,127.1247
상가지역,서울특별시 송파구 문정로데오거리(동남로 136),-,37.4912,127.1259
도로변(횡단보도 포함),서울특별시 송파구 개롱근린공원 사거리,-,37.4933,127.1296
정류소-도로(가로)변,서울특별시 송파구 위례동주민센터.위례스타힐스,-,37.4814,127.1436
도로변(횡단보도 포함),서울특별시 송파구 위례아이파크2차아파트 204동,-,37.4805,127.1441
도로변(횡단보도 포함),서울특별시 송파구 힐스테이트 송파위례아파트 104동,-,37.4805,127.1423
도로변(횡단보도 포함),서울특별시 송파구 위례순환로 413 공원,-,37.4776,127.1416
정류소-도로(가로)변,서울특별시 송파구 위례송파한라비발디.송파푸르지오,-,37.4815,127.1429
정류소-도로(가로)변,서울특별시 송파구 위례아이파크아파트,-,37.4759,127.1412
정류소-도로(가로)변,서울특별시 송파구 송파더센트레 송례초앞,-,37.4785,127.139
정류소-도로(가로)변,서울특별시 송파구 스타필드시티 위례스타힐스,-,37.48,127.1474
상가지역,서울특별시 송파구 위례중앙광장(장지동 896-1),-,37.4774,127.1285
정류소-도로(가로)변,서울특별시 송파구 가락시장 가락시장역,-,37.4946,127.1172
정류소-도로(가로)변,서울특별시 송파구 송파나루역,-,37.5107,127.1116
도로변(횡단보도 포함),서울특별시 양천구 서서울호수공원 삼거리,-,37.5289,126.8327
정류소-도로(가로)변,서울특별시 양천구 신월 보건지소,-,37.5312,126.8316
정류소-도로(가로)변,서울특별시 양천구 서부여성발전센터,-,37.5341,126.8296
정류소-도로(가로)변,서울특별시 양천구 신월5동주민센터,-,37.538538366829,126.82728885826
정류소-도로(가로)변,서울특별시 양천구 푸른마을3단지,-,37.51202597821,126.83719232284
정류소-도로(가로)변,서울특별시 양천구 신월7동 문화체육센터,-,37.5197,126.8356
정류소-도로(가로)변,서울특별시 양천구 경창빌딩,-,37.5179,126.8389
정류소-도로(가로)변,서울특별시 양천구 이펜하우스1단지,-,37.515485546041,126.82766672824
정류소-도로(가로)변,서울특별시 양천구 서남병원,-,37.511791512586,126.83311087484
정류소-도로(가로)변,서울특별시 양천구 양강중학교,-,37.524533039752,126.850417346
정류소-도로(가로)변,서울특별시 양천구 우리은행(신정4동지점),-,37.5218,126.8586
정류소-도로(가로)변,서울특별시 양천구 목10단지 A상가,-,37.516,126.8598
정류소-도로(가로)변,서울특별시 양천구 양천문화회관,-,37.5169,126.8626
정류소-도로(가로)변,서울특별시 양천구 목11단지 1117동,-,37.5071,126.86
정류소-도로(가로)변,서울특별시 양천구 양천구민체육센터,-,37.516159077254,126.86454518814
정류소-도로(가로)변,서울특별시 양천구 신서중학교,-,37.514990782829,126.85551812925
정류소-도로(가로)변,서울특별시 양천구 남부법원,-,37.522222592604,126.86399336975
지하철역 입구,서울특별시 양천구 양천구청역,-,37.512735666579,126.86611451887
정류소-도로(가로)변,서울특별시 양천구 한성교회,-,37.5109,126.8424
정류소-도로(가로)변,서울특별시 양천구 해성산부인과,-,37.5173,126.8543
정류소-도로(가로)변,서울특별시 양천구 신정3동 주민센터,-,37.51518684963,126.85488621181
정류소-도로(가로)변,서울특별시 양천구 12단지,-,37.5143,126.8606
정류소-도로(가로)변,서울특별시 양천구 대일고등학교,-,37.5394,126.8627
버스중앙차로,서울특별시 양천구 염창역,-,37.547,126.8749
4번출구 지하철역 입구,서울특별시 양천구 등촌역,-,37.5495,126.8672
정류소-도로(가로)변,서울특별시 양천구 행복한백화점,-,37.529559907403,126.8761424586
정류소-도로(가로)변,서울특별시 양천구 목운초등학교,-,37.526960194446,126.87229387389
정류소-도로(가로)변,서울특별시 양천구 7단지,-,37.5282,126.8702
다중집합장소,서울특별시 양천구 오목공원(CBS교차로 앞),-,37.5278,126.8741
정류소-도로(가로)변,서울특별시 양천구 목동 파라곤,-,37.529650478576,126.87485798272
정류소-도로(가로)변,서울특별시 양천구 목3단지 302동,-,37.5347,126.8757
정류소-도로(가로)변,서울특별시 양천구 월촌중학교,-,37.538,126.8821
정류소-도로(가로)변,서울특별시 양천구 이대목동병원,-,37.5368,126.8845
정류소-도로(가로)변,서울특별시 양천구 목5단지 B상가,-,37.5358,126.8813
다중집합장소,서울특별시 양천구 파리공원 사잇길,-,37.5346,126.8782
지하철역 입구,서울특별시 양천구 양천공원,-,37.5178,126.8682
도로변(횡단보도 포함),서울특별시 양천구 신월3동 우체국,-,37.5347,126.8288
도로변(횡단보도 포함),서울특별시 양천구 신월동 양강초교,-,37.5235,126.8483
도로변(횡단보도 포함),서울특별시 양천구 신월동 강서초교,-,37.522,126.841
3번출구 지하철역 입구,서울특별시 양천구 신목동역,-,37.5443,126.8831
도로변(횡단보도 포함),서울특별시 양천구 진명여고,-,37.5241,126.8651
횡단보도 입구,서울특별시 영등포구 안상규벌꿀,-,37.525390184031,126.90911499466
횡단보도 입구,서울특별시 영등포구 서강 어린이공원,-,37.5257,126.9057
정류소-도로(가로)변,서울특별시 영등포구 영등포시장,-,37.5216,126.905
횡단보도 입구,서울특별시 영등포구 SK텔레콤 영등포CV센터,-,37.5215,126.8952
횡단보도 입구,서울특별시 영등포구 양평로 프리마트,-,37.5374,126.895
1번출구 지하철역 입구,서울특별시 영등포구 당산역,-,37.5343,126.9018
2번출구:정류소-도로(가로)변,서울특별시 영등포구 당산역,-,37.5347,126.9023
7번출구 지하철역 입구,서울특별시 영등포구 당산역 7번 출구 ,-,37.5338,126.9025
정류소-도로(가로)변,서울특별시 영등포구 영등포 소방서,-,37.5183,126.9039
횡단보도 입구,서울특별시 영등포구 국민은행,-,37.5196,126.9042
정류소-도로(가로)변,서울특별시 영등포구 당산공원,-,37.5254,126.8964
정류소-도로(가로)변,서울특별시 영등포구 씨티은행,-,37.5202,126.903
정류소-도로(가로)변,서울특별시 영등포구 제비표 페인트,-,37.5131,126.9107
정류소-도로(가로)변,서울특별시 영등포구 문래 청소년 수련관,-,37.519,126.8942
정류소-도로(가로)변,서울특별시 영등포구 한솔요리학원,-,37.5159,126.9052
정류소-도로(가로)변,서울특별시 영등포구 영등포기계상가,-,37.5226,126.888
정류소-도로(가로)변,서울특별시 영등포구 교보생명,-,37.521463293335,126.89197029188
정류소-도로(가로)변,서울특별시 영등포구 대신시장,-,37.5113,126.9176
정류소-도로(가로)변,서울특별시 영등포구 공군회관,-,37.5098,126.9244
정류소-도로(가로)변,서울특별시 영등포구 병무청,-,37.506233469555,126.92110558088
정류소-도로(가로)변,서울특별시 영등포구 대방역,-,37.513379538688,126.92652335463
횡단보도 입구,서울특별시 영등포구 사러가 교차로,-,37.5672,126.9303
정류소-도로(가로)변,서울특별시 영등포구 우신초교,-,37.5093,126.9109
정류소-도로(가로)변,서울특별시 영등포구 백악관웨딩홀,-,37.5005,126.9085
정류소-도로(가로)변,서울특별시 영등포구 남서울아파트,-,37.5016,126.911
정류소-도로(가로)변,서울특별시 영등포구 우성 5차 아파트,-,37.5072,126.9029
정류소-도로(가로)변,서울특별시 영등포구 대동초교,-,37.492995238013,126.90058403669
횡단보도 입구,서울특별시 영등포구 대림3동주민센터,-,37.498255252273,126.89812492507
정류소-도로(가로)변,서울특별시 영등포구 썬프라자,-,37.496083705556,126.90801317182
정류소-도로(가로)변,서울특별시 영등포구 천지당약국,-,37.4908,126.9079
정류소-도로(가로)변,서울특별시 영등포구 안국약품,-,37.4873,126.905
횡단보도 입구,서울특별시 영등포구 한림대학교 병원,-,37.491301944039,126.90766027911
정류소-도로(가로)변,서울특별시 영등포구 경남아너스빌,-,37.5245,126.9023
정류소-도로(가로)변,서울특별시 영등포구 보라매공원,-,37.497,126.9164
2번출구:정류소-도로(가로)변,서울특별시 영등포역,-,37.5148,126.9072
6번출구:정류소-도로(가로)변,서울특별시 영등포역,-,37.5161,126.9064
정류소-도로(가로)변,서울특별시 영등포구 KBS 별관,-,37.5182,126.9298
정류소-도로(가로)변,서울특별시 영등포구 여의도공원,-,37.526846376756,126.92233452672
정류소-도로(가로)변,서울특별시 영등포구 시범아파트 맞은편 63빌딩,-,37.5195,126.9378
정류소-도로(가로)변,서울특별시 영등포구 한서빌딩 순복음교회,-,37.5309,126.9246
5번출구 지하철역 입구,서울특별시 영등포구 여의도역,-,37.5218,126.9247
1번출구 정류소-도로(가로)변,서울특별시 영등포구 여의나루역,-,37.527,126.9322
정류소-도로(가로)변,서울특별시 영등포구 여의도중학교,-,37.524450479917,126.93517114392
정류소-도로(가로)변,서울특별시 영등포구 진주아파트,-,37.518427777127,126.93315011559
정류소-도로(가로)변,서울특별시 영등포구 여의동주민센터,-,37.517637821943,126.93464764888
도로(가로)변,서울특별시 영등포구 B & B타워,-,37.5305,126.9196
횡단보도 입구,서울특별시 영등포구 kbs연구동,-,37.5274,126.9148
1번출구 지하철역 입구,서울특별시 영등포구 국회의사당역 현대빌딩,-,37.5293,126.9179
1번출구 지하철역 입구,서울특별시 영등포구 국회의사당역 LG에클라트,-,37.5299,126.9189
도로(가로)변,서울특별시 영등포구 국회도서관 입구,-,37.5309,126.9167
도로(가로)변,서울특별시 영등포구 의원회관 입구,-,37.5295,126.9145
도로(가로)변,서울특별시 영등포구 미성아파트 A동 입구,-,37.520910452067,126.92445505071
정류소-도로(가로)변,서울특별시 영등포구 안양천입구,-,37.5475,126.8831
1번출구:정류소-도로(가로)변,서울특별시 영등포구 양평역,-,37.5257,126.8859
정류소-도로(가로)변,서울특별시 영등포구 청과시장사거리,-,37.5237,126.9018
10번출구 지하철역 입구,서울특별시 영등포구 당산역,-,37.5333,126.9019
정류소-도로(가로)변,서울특별시 영등포구 영등포역,-,37.5157,126.9073
횡단보도 입구,서울특별시 영등포구 우체국,-,37.5163,126.9062
정류소-도로(가로)변,서울특별시 영등포구 에이스하이테크시티,-,37.5141,126.8998
정류소-도로(가로)변,서울특별시 영등포구 신풍시장,-,37.5058,126.9086
정류소-도로(가로)변,서울특별시 영등포구 사러가 쇼핑센터,-,37.567,126.9298
횡단보도 입구,서울특별시 영등포구 사러가 사거리,-,37.5672,126.9303
정류소-도로(가로)변,서울특별시 영등포구 대방역,-,37.5133,126.9266
5번출구 횡단보도 입구,서울특별시 영등포구 영등포역,-,37.5164,126.9073
정류소-도로(가로)변,서울특별시 영등포구 강남성심병원,-,37.4927,126.9085
정류소-도로(가로)변,서울특별시 영등포구 동작세무서,-,37.498885465902,126.91978485177
정류소-도로(가로)변,서울특별시 영등포구 아리수 정수센터,-,37.5475,126.8831
정류소-도로(가로)변,서울특별시 영등포구 근로복지공단,-,37.520561916856,	126.91339478034
정류소-도로(가로)변,서울특별시 영등포구 신길역,-,37.5169,126.9175
정류소-도로(가로)변,서울특별시 영등포구 경방타임스퀘어,-,37.5172,126.906
정류소-도로(가로)변,서울특별시 영등포구 신세계백화점,-,37.517253165457,126.90585704299
정류소-도로(가로)변,서울특별시 영등포구 영등포소방서,-,37.518340457852,126.90404693632
정류소-도로(가로)변,서울특별시 영등포구 신화병원,-,37.5247,126.9052
정류소-도로(가로)변,서울특별시 영등포구 김안과병원,-,37.5197,126.9009
정류소-도로(가로)변,서울특별시 영등포구 대성병원,-,37.5124,126.91
정류소-도로(가로)변,서울특별시 영등포구 영일시장,-,37.5159,126.902
정류소-도로(가로)변,서울특별시 영등포구 문래주민센터마을,-,37.5177,126.8994
정류소-도로(가로)변,서울특별시 영등포구 당산동진로아파트,-,37.5211,126.8968
정류소-도로(가로)변,서울특별시 영등포구 영등포구청,-,37.526045500975,126.89652510356
정류소-도로(가로)변,서울특별시 영등포구 문래역,-,37.517252842289,126.89464464087
정류소-도로(가로)변,서울특별시 영등포구 문래동남성아파트,-,37.5115,126.893
정류소-도로(가로)변,서울특별시 영등포구 성락교회,-,37.5047,126.9028
정류소-도로(가로)변,서울특별시 영등포구 신길5동주민센터,-,37.501586763361,126.90515598604
정류소-도로(가로)변,서울특별시 영등포구 신도림역,-,37.509116491003,126.89116643237
정류소-도로(가로)변,서울특별시 영등포구 신풍역,-,37.50016518673,126.90903453451
정류소-도로(가로)변,서울특별시 영등포구 한국방송통신대학교,-,37.501750005717,126.89600200859
정류소-도로(가로)변,서울특별시 영등포구 양평한신아파트,-,37.5406,126.8923
정류소-도로(가로)변,서울특별시 영등포구 당산초등학교,-,37.5399,126.8958
정류소-도로(가로)변,서울특별시 영등포구 선유도역,-,37.537919971691,126.89390444022
정류소-도로(가로)변,서울특별시 영등포구 선유고등학교,-,37.533742947927,126.89490153235
정류소-도로(가로)변,서울특별시 영등포구 남부지방법원등기국,-,37.5135,126.8988
정류소-도로(가로)변,서울특별시 영등포구 신길건영아파트,-,37.505,126.9014
정류소-도로(가로)변,서울특별시 영등포구 대영중고후문,-,37.502959860146,126.90458667498
정류소-도로(가로)변,서울특별시 영등포구 수정교회,-,37.501,126.8986
도로(가로)변,서울특별시 영등포구 영등포로96,-,37.521463293335,126.89197029188
정류소-도로(가로)변,서울특별시 영등포구 대림로 195,-,37.498100880468,126.89827522535
정류소-도로(가로)변,서울특별시 영등포구 선유동 1로 20,-,37.5237,126.892
정류소-도로(가로)변,서울특별시 영등포구 선유동 1로 21,-,37.524034430367,126.89166437616
정류소-도로(가로)변,서울특별시 영등포구 선유로9나길 12 문5가 두산아파트,-,37.5163,126.8853
정류소-도로(가로)변,서울특별시 영등포구 영등포로 139,-,	37.521350297188,126.89697850999
정류소-도로(가로)변,서울특별시 영등포구 영등포로208 국민은행,-,37.5196,126.9042
정류소-도로(가로)변,서울특별시 영등포구 그랜드컨벤션,-,37.534948590318,126.90038474933
정류소-도로(가로)변,서울특별시 영등포구 영등포소방서,-,37.518340457852,126.90404693632
정류소-도로(가로)변,서울특별시 영등포구 여의도중학교,-,37.524450479917,126.93517114392
정류소-도로(가로)변,서울특별시 용산구 강변삼성아파트,-,37.5342,126.9491
도로(가로)변,서울특별시 용산구 목월공원,-,37.5323,126.9547
정류소-도로(가로)변,서울특별시 용산구 원효로1가 45,-,37.54,126.9689
도로(가로)변,서울특별시 용산구 원효로 2가 우리이비인후과,-,37.5349,126.961
도로(가로)변,서울특별시 용산구 원효로 2가 사거리 열린동물병원,-,37.5355,126.9617
도로(가로)변,서울특별시 용산구 용산경찰서 입구,-,37.541,126.9677
도로(가로)변,서울특별시 용산구 선린인터넷고등학교,-,37.5419,126.9661
정류소-도로(가로)변,서울특별시 용산구 소화아동병원,-,37.5532,126.9689
정류소-도로(가로)변,서울특별시 용산구 숙대입구역 청파동주민센터,-,37.5455,126.9707
정류소-도로(가로)변,서울특별시 용산구 갈월동종합사회복지관,-,37.5454,126.9739
사거리:도로(가로)변,서울특별시 용산구 용산고등학교,-,37.5459,126.9786
정류소-도로(가로)변,서울특별시 용산구 SC제일은행,-,37.5499,126.9775
정류소-도로(가로)변,서울특별시 용산구 후암시장(삼강의원방면),-,37.5501,126.9766
정류소-도로(가로)변,서울특별시 용산구 후암삼거리,-,37.553,126.9765
정류소-도로(가로)변,서울특별시 용산구 진흥빌딩,-,37.5484,126.9777
정류소-도로(가로)변,서울특별시 용산구 용산전자상가 삼구빌딩 하나은행(원효대교북단방면),-,37.5335,126.9634
2번출구 지하철역 입구,서울특별시 용산구 효창공원역,-,37.5393,126.9616
3번출구 지하철역 입구,서울특별시 용산구 효창공원역,-,37.5391,126.9617
정류소-도로(가로)변,서울특별시 용산구 손기정체육공원,-,37.5558,126.9651
정류소-도로(가로)변,서울특별시 용산구 강촌아파트,-,37.519,126.9772
도로(가로)변,서울특별시 용산구 신용산초등학교,-,37.5195,126.9756
정류소-도로(가로)변,서울특별시 용산구 이촌동 301-2,-,37.5184,126.9782
도로(가로)변,서울특별시 용산구 동부이촌동 국민은행,-,37.521,126.9699
정류소-도로(가로)변,서울특별시 용산구 이촌동두산위브아파트,-,37.5216,126.9674
정류소-도로(가로)변,서울특별시 용산구 한강맨션,-,37.5202,126.9726
정류소-도로(가로)변,서울특별시 용산구 이촌2동 주민센터,-,37.5262,126.956
정류소-도로(가로)변,서울특별시 용산구 강변맨션,-,37.5236,126.9596
도로(가로)변,서울특별시 용산구 용산공업고등학교,-,37.5241,126.9666
2번출구 지하철역 입구,서울특별시 용산구 이촌역,-,37.5221,126.9757
정류소-도로(가로)변,서울특별시 용산구 온누리교회,-,37.5179,126.9848
정류소-도로(가로)변,서울특별시 용산구 철우아파트,-,37.5237,126.9694
도로(가로)변,서울특별시 용산구 국립중앙박물관,-,37.5237,126.98
정류소-도로(가로)변,서울특별시 용산구 국립중앙박물관,-,37.5209,126.9797
도로(가로)변,서울특별시 용산구 후암로11 채가네볼태기,-,37.5469,126.9781
도로(가로)변,서울특별시 용산구 후암시장(우측)입구,-,37.5502,126.9764
정류소-도로(가로)변,서울특별시 용산구 한남시범아파트,-,37.538,127.1026
15번출구:정류소-도로(가로)변,서울특별시 용산구 서울역공항철도,-,37.5537,126.9694
도로(가로)변,서울특별시 용산구 한남2치안센터,-,37.5398,127.0016
정류소-도로(가로)변,서울특별시 용산구 한남오거리,-,37.5333,127.0076
정류소-도로(가로)변,서울특별시 용산구 한강중학교,-,37.5248,126.9922
정류소-도로(가로)변,서울특별시 용산구 용산구청 크라운 호텔(한강중학교앞방면),-,37.5323,126.9908
정류소-도로(가로)변,서울특별시 용산구 국군재정관리단,-,37.5372,126.9869
정류소-도로(가로)변,서울특별시 용산구 해방촌,-,37.5378,126.9866
정류소-도로(가로)변,서울특별시 용산구 용암초등학교입구,-,37.5437,126.9886
도로(가로)변,서울특별시 용산구 방태산식당,-,37.5264,126.9554
정류소-도로(가로)변,서울특별시 용산구 남산도서관,-,37.5523,126.9817
정류소-도로(가로)변,서울특별시 용산구 후암약수터,-,37.5486,126.9844
정류소-도로(가로)변,서울특별시 용산구 보성여중고,-,37.5463,126.9856
정류소-도로(가로)변,서울특별시 용산구 남산체육관,-,37.5427,126.9929
정류소-도로(가로)변,서울특별시 용산구 하얏트 호텔,-,37.5409,126.9973
도로(가로)변,서울특별시 용산구 한강로 2가 222-5,-,37.533042015724,126.96230312146
정류소-도로(가로)변,서울특별시 용산구 용산우체국,-,37.5300648584,126.96935916624
정류소-도로(가로)변,서울특별시 용산구 신용산역,-,37.529676495044,126.96844970582
도로(가로)변,서울특별시 용산구 KT 용산지점,-,37.5323,126.9712
정류소-도로(가로)변,서울특별시 용산구 숙대입구역,-,37.545499859161,126.97216591319
안전지대:도로(가로)변,서울특별시 용산구 삼각지,-,37.5352,126.9738
도로(가로)변,서울특별시 용산구 아웃백스테이크하우스 남영,-,37.5424,126.9729
도로(가로)변,서울특별시 용산구 신한은행 숙명여대입구역점,-,37.5447,126.9668
도로(가로)변,서울특별시 용산구 갈월동 갑을빌딩,-,37.5491,126.972
9번출구 지하철역 입구,서울특별시 용산구 갈월동 숙대입구,-,37.5447,126.9719
도로(가로)변,서울특별시 용산구 숙명여대,-,37.5468,126.9646
도로(가로)변,서울특별시 용산구 남영역 고려빌딩,-,37.5487,126.9701
정류소-도로(가로)변,서울특별시 용산구 게이트웨이타워,-,37.5536,126.9738
정류소-도로(가로)변,서울특별시 용산구 남영역,-,37.5407,126.9713
도로(가로)변,서울특별시 용산구 한강로2가 225-6,-,37.5277,126.9668
정류소-도로(가로)변,서울특별시 용산구 한강로동 베르가모,-,37.524,126.9629
도로(가로)변,서울특별시 용산구 용산역,-,37.529,126.9658
도로(가로)변,서울특별시 용산구 용사의집,-,37.5274,126.9644
정류소-도로(가로)변,서울특별시 용산구 한남역 용산노인종합복지관,-,37.5313,127.0067
정류소-도로(가로)변,서울특별시 용산구 원효로 2동 주민센터,-,37.5344,126.9513
정류소-도로(가로)변,서울특별시 용산구 보광동 신동아아파트,-,37.5257,127.0014
도로(가로)변,서울특별시 용산구 한남동 동원베네스트,-,37.5294,127.0084
도로(가로)변,서울특별시 용산구 금호타이어한남대리점,-,37.5385,126.987
1번출구 지하철역 입구,서울특별시 용산구 한강진역,-,37.5402,127.0016
도로(가로)변,서울특별시 용산구 한국폴리텍1대학,-,37.5295,126.9966
1번출구 정류소-도로(가로)변,서울특별시 용산구 녹사평역,-,37.5352,126.9862
정류소-도로(가로)변,서울특별시 용산구 이촌2동부영주유소,-,37.53,126.9545
정류소-도로(가로)변,서울특별시 용산구 이촌1동 충신교회,-,37.5213,126.9681
도로(가로)변,서울특별시 용산구 청파로 250,-,37.5425,126.9709
도로(가로)변,서울특별시 용산구 소월로168번지,-,37.548,126.9841
3번출구 지하철역 입구,서울특별시 용산구 녹사평역,-,37.5345,126.9868
도로(가로)변,서울특별시 용산구 이태원입구,-,37.5344,126.994
정류소-도로(가로)변,서울특별시 용산구 이태원버스정류장,-,37.5344,126.9904
도로(가로)변,서울특별시 용산구 국제아케이드건물,-,37.534,126.9903
도로(가로)변,서울특별시 용산구 미스전콜렉션,-,37.5343,126.992
정류소-도로(가로)변,서울특별시 용산구 해밀턴호텔,-,37.5345,126.9935
2번출구 지하철역 입구,서울특별시 용산구 이태원역,-,37.5346,126.9943
3번출구:정류소-도로(가로)변,서울특별시 용산구 이태원역,-,37.5344,126.9943
도로(가로)변,서울특별시 용산구 이태원 뉴욕콜롬비아치과,-,37.5347,126.9953
정류소-도로(가로)변,서울특별시 용산구 이태원 119 안전센타,-,37.5344,126.9957
도로(가로)변,서울특별시 용산구 제일기획실,-,37.535,126.9985
도로(가로)변,서울특별시 용산구 시화담그릴,-,37.5374,127.0011
정류소-도로(가로)변,서울특별시 용산구 삼성미술관 리움,-,37.5383,126.9992
도로(가로)변,서울특별시 용산구 이태원광장 녹사평역,-,37.5347,126.9869
도로(가로)변,서울특별시 용산구 용산구청,-,37.5321,126.9901
정류소-도로(가로)변,서울특별시 용산구 보광동입구,-,37.5248,127.002
정류소-도로(가로)변,서울특별시 용산구 한강진역 블루스퀘어,-,37.5409,127.0019
정류소-도로(가로)변,서울특별시 용산구 순천향대학병원,-,37.5354,127.0058
도로(가로)변,서울특별시 용산구 한남오거리 하나은행,-,37.5333,127.0071
정류소-도로(가로)변,서울특별시 용산구 한강대교북단,-,37.5241,126.9631
정류소-도로(가로)변,서울특별시 용산구 이태원2동 용산한신아파트(해방촌방면),-,37.5398,126.9873
정류소-도로(가로)변,서울특별시 용산구 국방부,-,37.5345,126.9772
정류소-도로(가로)변,서울특별시 용산구 전쟁기념관(용산보건분소방면),-,37.5348,126.9766
1번출구 정류소-도로(가로)변,서울특별시 용산구 녹사평역,-,37.5352,126.9862
4번출구 정류소-도로(가로)변,서울특별시 용산구 녹사평역,-,37.5347,126.986
정류소-도로(가로)변,서울특별시 용산구 용산역 버스정류장,-,37.5285,126.9652
정류소-도로(가로)변,서울특별시 용산구 용산역광장,-,37.5282,126.9656
11번출구 정류소-도로(가로)변,서울특별시 용산구 삼각지역,-,37.5359,126.9746
정류소-도로(가로)변,서울특별시 용산구 서빙고역 교차로,-,37.5196,126.9884
정류소-도로(가로)변,서울특별시 용산구 서빙고초등학교,-,37.5212,126.9909
정류소-도로(가로)변,서울특별시 용산구 원효대교 북단,-,37.532,126.9557
5번출구:정류소-도로(가로)변,서울특별시 용산구 숙대입구역,-,37.5442,126.9724
4번출구:정류소-도로(가로)변,서울특별시 용산구 갈월동 숙대입구,-,37.5447,126.9723
도로(가로)변,서울특별시 용산구 남영동 청도양꼬치남영점,-,37.5419,126.9717
도로(가로)변,서울특별시 용산구 리버힐삼성아파트,-,37.5345,126.9511
정류소-도로(가로)변,서울특별시 용산구 용산전자상가입구,-,37.5288,126.9671
정류소-도로(가로)변,서울특별시 용산구 용산 꿈나무 종합타운,-,37.5384,126.9671
도로(가로)변,서울특별시 용산구 한남나들목,-,37.5288,127.007
도로(가로)변,서울특별시 용산구 한강대로 크라운해태,-,37.5406,126.9736
2번출구 지하철역 입구,서울특별시 용산구 한강대로 숙대입구역,-,37.5453,126.9724
쌍굴다리 안:도로(가로)변,서울특별시 용산구 한강대로 갈월동 청파동입구교차로,-,37.5449,126.9712
도로(가로)변,서울특별시 용산구 용산역앞교차로 아우디한강대로전시장,-,37.5263,126.9649
도로(가로)변,서울특별시 용산구 이태원주공아파트,-,37.5423,126.9895
정류소-도로(가로)변,서울특별시 용산구 서울시중부기술교육원 블루스퀘어,-,37.5413,127.0031
정류소-도로(가로)변,서울특별시 용산구 한강중학교(금호베스트빌앞방면),-,37.5248,126.9922
정류소-도로(가로)변,서울특별시 용산구 이태원동남산대림아파트,-,37.5399,126.9874
정류소-도로(가로)변,서울특별시 용산구 용산전자상가•전자랜드(원효대교북단방면),-,37.533,126.9581
정류소-도로(가로)변,서울특별시 용산구 원효2동산호아파트(청암동강변삼성아파트방면),-,37.5327,126.9495
6번출구:횡단보도앞,서울특별시 용산구 백범로 효창공원역,-,37.5393,126.9609
3~4번출구 지하철역 입구,서울특별시 용산구 숙대입구역,-,37.5449,126.9723
정류소-도로(가로)변,서울특별시 용산구 서빙고신동아아파트/신동아아파트,-,37.5173,126.9854
정류소-도로(가로)변,서울특별시 용산구 KT용산지사(삼각지방면),-,37.5317,126.9702
도로(가로)변,서울특별시 용산구 용산푸르지오써밋오피스텔(해림턴부동산과스타부동산),-,37.5271,126.9646
정류소-도로(가로)변,서울특별시 용산구 용산꿈나무종합타원(용산경찰서방면),-,37.5385,126.9649
도로(가로)변,서울특별시 용산구 금양초등학교,-,37.5405,126.9615
정류소-도로(가로)변,서울특별시 용산구 국민은행효창동지점(숙명여대정문방면),-,37.5416,126.9622
정류소-도로(가로)변,서울특별시 용산구 숙명여대후문•이봉창활동터(효창공원후문방면),-,37.5457,126.9632
정류소-도로(가로)변,서울특별시 용산구 용산세무서(용산공고방면),-,37.5237,126.9693
횡단보도:도로(가로)변,서울특별시 용산구 기능장애인협회용산지부,-,37.5231,126.9708
횡단보도:도로(가로)변,서울특별시 용산구 GS25용산서빙고점(서빙고초등학교),-,37.5204,126.9909
횡단보도:도로(가로)변,서울특별시 용산구 녹사평역,-,37.5346,126.9871
횡단보도:도로(가로)변,서울특별시 용산구 KY빌딩,-,37.5242,126.9629
횡단보도:도로(가로)변,서울특별시 용산구 이태원랜드,-,37.5343,126.9972
도로(가로)변,서울특별시 용산구 한남동 대성표구사,-,37.5348,126.998
정류소-도로(가로)변,서울특별시 용산구 한남동새마을금고(이태원119안전센터방면),-,37.537,127.0007
정류소-도로(가로)변,서울특별시 용산구 남영동주민센터(남영우체국방면),-,37.5454,126.9749
정류소-도로(가로)변,서울특별시 용산구 성촌공원∙포르쉐센터용산(이촌2동쥔센터방면),-,37.5303,126.9546
정류소-도로(가로)변,서울특별시 용산구 강촌apt/신용산초등학교(이촌동점보아파트방면),-,37.5194,126.9755
도로(가로변),서울특별시 용산구 서빙고로 51길 52 미군부대 수송단 부지,-,37.522688171325,126.99100409602
도로(가로)변,서울특별시 용산구 용산푸르지오써밋오피스텔,-,37.5272,126.9647
평창두부 마을앞,서울특별시 은평구 가좌로204     ,-,37.5888228,126.9190776
정류소-도로(가로)변,서울특별시 은평구 가좌로252,-,37.5918386,126.9152554
봉희설렁탕 앞,서울특별시 은평구 신사동 증산로 413 ,-,37.5930798,126.9138344
뽀떼나 앞,서울특별시 은평구 가좌로333    ,-,37.596539,126.9082852
정류소-도로(가로)변,서울특별시 은평구 가좌로313,-,37.5954813,126.9100502
정류소-도로(가로)변,서울특별시 은평구 가좌로277 ,-,37.5931829,126.9129961
올래 통신사앞,서울특별시 은평구 갈현로82 ,-,37.6052307,126.9106701
한빛부동산앞,서울특별시 은평구 갈현로126,-,37.6089441,126.9110894
스마트부동산앞(신축),서울특별시 은평구 갈현로152 ,-,37.6113491,126.9114054
정류소-도로(가로)변,서울특별시 은평구 갈현로254,-,37.6194732,126.9158576
갈현상가앞,서울특별시 은평구 갈현로300,-,37.6235714,126.9173693
정류소-도로(가로)변,서울특별시 은평구 갈현로337,-,37.6265087,126.9187416
세현교회 앞,서울특별시 은평구 갈현로12길 5,-,37.6062954,126.911128
브리아몽빵집앞,서울특별시 은평구 신사1동 16-22,-,37.5992291,126.91
파리바게뜨앞,서울특별시 은평구 불광로38,-,37.610906,126.9300457
독바위역1번출구앞,서울특별시 은평구 불광로129-1,-,37.61826360000001,126.9329115
성유교회앞,서울특별시 은평구 불광로85 ,-,37.61459079999999,126.9322843
정류소-도로(가로)변,서울특별시 은평구 통일로 736,-,37.611228,126.9295835
불광역7번출구앞,서울특별시 은평구 불광로27,-,37.6107325,126.9288012
응암1동주민센터버스정류장,서울특별시 은평구 백련산로175,-,37.6003973,126.9266652
백련산힐스테이트4차 403동 앞,서울특별시 은평구 백련산로 37,-,37.589028,126.9224998
백련산힐스테이트2차 버스정류장 앞,서울특별시 은평구 백련산로 38,-,37.5941274,126.9239077
은평병원버스정류장,서울특별시 은평구 백련산로 84,-,37.5941274,126.9239077
수색역앞,서울특별시 은평구 수색로261-1,-,37.5802897,126.8959692
디지털미디어시티역4번출구,서울특별시 은평구 수색로175,-,37.5774117,126.9021398
명조천막앞,서울특별시 은평구 수색로232,-,37.5808227,126.8980456
수색우체국 앞 뒤로 20M 이동,서울특별시 은평구 수색로248 ,-,37.5817114,126.8965324
정류소-도로(가로)변,서울특별시 은평구 서오릉로267,-,37.6178496,126.9060072
귀애헤어 앞,서울특별시 은평구 서오릉로225,-,37.6149282,126.9088908
선진운수종점앞,서울특별시 은평구 서오릉로203,-,37.61375700000001,126.9108618
신한은행구산사거리점앞,서울특별시 은평구 서오릉로185,-,37.6130994,126.9127255
원창합판목재 앞,서울특별시 은평구 서오릉로129,-,37.6104411,126.9180931
이조삼계탕앞,서울특별시 은평구 서오릉로105,-,37.60908939999999,126.9200427
은성자동차공업사앞,서울특별시 은평구 서오릉로71,-,37.6068668,126.9220364
역촌역2번출구,서울특별시 은평구 서오릉로74,-,37.6070222,126.9224758
정류소-도로(가로)변,서울특별시 은평구 서오릉로90 ,-,37.6081554,126.9214628
하늘창샷시 앞,서울특별시 은평구 서오릉로104,-,37.6093117,126.9205049
루마버텍스썬팅 앞,서울특별시 은평구 서오릉로114,-,37.609976,126.919741
엘지전자대리점 앞,서울특별시 은평구 서오릉로150,-,37.6119083,126.9165553
정류소-도로(가로)변,서울특별시 은평구 서오릉로232 ,-,37.6155684,126.9088497
정류소-도로(가로)변,서울특별시 은평구 서오릉로258,-,37.6178241,126.9067563
신사1치안센터 앞,서울특별시 은평구 은평로28,-,37.5978604,126.9109701
T월드응암역점앞,서울특별시 은평구 은평로64 ,-,37.5986907,126.9148354
연도약국 앞,서울특별시 은평구 은평로144,-,37.6004752,126.9237458
정류소-도로(가로)변,서울특별시 은평구 은평로170,-,37.6010363,126.9267886
파리바게뜨 앞,서울특별시 은평구 은평로200-1,-,37.6009828,126.9300214
은평초교,서울특별시 은평구 은평로 239,-,37.6019568,126.9341059
정류소-도로(가로)변,서울특별시 은평구 은평로205-1,-,37.6015036,126.9309222
정류소-도로(가로)변,서울특별시 은평구 은평로173 ,-,37.6015726,126.9268035
정류소-도로(가로)변,서울특별시 은평구 은평로147 ,-,37.6010342,126.9240763
정류소-도로(가로)변,서울특별시 은평구 은평로107 ,-,37.6001248,126.9195154
이삭부동산 앞,서울특별시 은평구 은평로91,-,37.5996767,126.9178096
응암역 3번출구 앞,서울특별시 은평구 역촌동 85-34,-,37.5994947,126.9155587
은평로7신사동성당앞,서울특별시 은평구 은평로 7,-,37.5969996,126.9092806
대림시장 버스정류장,서울특별시 은평구 응암로190,-,37.588769,126.9171365
응암3동 지구대 앞,서울특별시 은평구 응암동 응암로 208,-,37.5904854,126.9175249
정류소-도로(가로)변,서울특별시 은평구 응암로238,-,37.5930108,126.9180964
피자헛 앞,서울특별시 은평구 응암로294 ,-,37.597648,126.9206123
정류소-도로(가로)변,서울특별시 은평구 응암로356 ,-,37.602686,126.9229223
정류소-도로(가로)변,서울특별시 은평구 응암로347 ,-,37.6021611,126.922179
서강스카이빌 2차 앞,서울특별시 은평구 응암로295 ,-,37.5980492,126.9202498
뚜레쥬르 앞,서울특별시 은평구 응암로207 ,-,37.5905227,126.9170715
일신부동산 앞,서울특별시 은평구 연서로130-1 ,-,37.6104051,126.9172125
정류소-도로(가로)변,서울특별시 은평구 연서로162,-,37.6131681,126.9178498
알라딘중고서점 앞,서울특별시 은평구 연서로214,-,37.6175183,126.9199253
정류소-도로(가로)변,서울특별시 은평구 연서로282,-,37.6208112,126.9257057
정류소-도로(가로)변,서울특별시 은평구 연서로298,-,37.6220653,126.9270822
연신초교 앞,서울특별시 은평구 연서로347,-,37.6262605,126.9282737
다보네안경 앞,서울특별시 은평구 연서로209 ,-,37.6172948,126.9188309
은평연세병원 버스정류장,서울특별시 은평구 연서로175 ,-,37.6145004,126.9175201
구산역 입구,서울특별시 은평구 연서로149,-,37.6119016,126.9168102
예일여고 담벽 앞,서울특별시 은평구 연서로117,-,37.6101791,126.9151623
서내과의원앞,서울특별시 은평구 연서로75 ,-,37.6059535,126.9150901
정류소-도로(가로)변,서울특별시 은평구 연서로43,-,37.6030108,126.9153922
정류소-도로(가로)변,서울특별시 은평구 은평터널로144 ,-,37.591823,126.9063385
카맨샵 앞,서울특별시 은평구 은평터널로145 ,-,37.5921103,126.9061305
은천교회 앞,서울특별시 은평구 은평터널로51 ,-,37.5855516,126.8994297
서울낚시프라자 앞,서울특별시 은평구 증산로393-1 ,-,37.5914394,126.9133838
증산역 4번출구,서울특별시 은평구 증산동 197-20,-,37.58458,126.9100755
파리바게뜨 앞,서울특별시 은평구 증산로299 ,-,37.5838982,126.9093235
피자헛 앞,서울특별시 은평구 증산로253 ,-,37.580956,126.905782
증산중학교 버스정류장 (불광천),서울특별시 은평구 증산동177-24 ,-,37.5806376,126.9058433
버스정류장 (불광천),서울특별시 은평구 와산교,-,37.5886301,126.9135262
버스정류장 (불광천),서울특별시 은평구 은평터널로7길 6,-,37.593125,126.9032327
버스정류장 (불광천),서울특별시 은평구 증산로413,-,37.5930798,126.9138344
박석고개버스정류장,서울특별시 은평구 통일로935 ,-,37.6265016,126.9194384
모노마트 앞,서울특별시 은평구 통일로925 ,-,37.6255726,126.9196275
신한은행갈현지점 앞,서울특별시 은평구 통일로905 ,-,37.6237305,126.9195862
신한은행 앞,서울특별시 은평구 통일로897 ,-,37.623044,126.9192971
스타벅스앞,서울특별시 은평구 통일로869,-,37.6203274,126.9197906
연신내역 7번출구앞,서울특별시 은평구 통일로861 ,-,37.6197435,126.9201797
우리은행앞,서울특별시 은평구 통일로835 ,-,37.6179076,126.9217014
연신내역 버스정류장,서울특별시 은평구 통일로827 ,-,37.6171337,126.9224024
타이어뱅크 앞,서울특별시 은평구 통일로813,-,37.6162087,126.9234261
중앙사(명찰),서울특별시 은평구 통일로755 ,-,37.6123664,126.9279407
우리은행불광지점,서울특별시 은평구 통일로713 ,-,37.6092271,126.9306123
불광역 3번출구 앞,서울특별시 은평구 대조동 15-120,-,37.6089022,126.9308491
천사부동산앞,서울특별시 은평구 통일로 675 ,-,37.6066208,126.9330427
대한적집자사 앞,서울특별시 은평구 통일로 627 ,-,37.6027148,126.9347327
녹번전철역,서울특별시 은평구 녹번동 48-7,-,37.6014772,126.9351773
녹번역 3번출구,서울특별시 은평구 통일로 599 ,-,37.6001158,126.9357754
녹번역 2번출구,서울특별시 은평구 통일로 610 ,-,37.601256,126.9358259
녹번역 1번출구,서울특별시 은평구 통일로 610,-,37.601256,126.9358259
서울혁신파크 앞,서울특별시 은평구 통일로 684 ,-,37.6084167,126.9337532
블랙야크 앞,서울특별시 은평구 통일로 716 ,-,37.6097979,126.9307593
불광역 3&6호선 경일빌딩 앞,서울특별시 은평구 통일로 750 ,-,37.6123061,126.9286427
힐스테이트 골든벨부동산 중앙차선,서울특별시 은평구 녹번동 61-6 ,-,37.6000957,126.9364495
알레르망 앞,서울특별시 은평구 통일로 830 ,-,37.6177691,126.9227183
올리비아로렌 앞,서울특별시 은평구 통일로 838 ,-,37.6182243,126.9223425
선일하이츠버스정류장,서울특별시 은평구 통일로 894,-,37.6226882,126.9200952
불광치안센터 앞,서울특별시 은평구 통일로 914,-,37.6244544,126.9202169
굿모닝부동산 앞,서울특별시 은평구 통일로 928 ,-,37.6256771,126.920317
이마트은평점 버스정류장,서울특별시 은평구 역촌동 43-24,-,37.6002099,126.9180862
정류소-도로(가로)변,서울특별시 은평구 진흥로116 ,-,37.6067748,126.9235044
올래KT직영점,서울특별시 은평구 진흥로197 ,-,37.606139,126.926186
창호유리 앞,서울특별시 은평구 진흥로113,-,37.6069168,126.9229746
연세부동산 앞,서울특별시 은평구 진흥로101,-,37.6058604,126.9223352
정류소-도로(가로)변,서울특별시 은평구 진흥로 58,-,37.606139,126.926186
충암고교앞 대주피오레 아파트에서 앞으로 30M 이동,서울특별시 은평구 가좌로5길 5,-,37.58504569999999,126.9217386
명성학원 앞,서울특별시 은평구 은평로 216,-,37.6008986,126.9314688
이마트은평점 (아늠한약국 앞),서울특별시 은평구 은평로6길 16,-,37.5983749,126.9184276
응암역 2번출구,서울특별시 은평구 역촌동 85-1,-,37.6005993,126.9157454
정류소-도로(가로)변,서울특별시 은평구 은평로23 ,-,37.5981171,126.9103764
도로변(횡단보도 포함),서울특별시 은평구 가좌로391,-,37.6003431,126.9041086
시티아파트 앞(덕산중학교 시티아파트),서울특별시 은평구 갈현로228,-,37.6173233,126.915259
버스중앙차로,서울특별시 은평구 통일로 793,-,37.6146895,126.9240099
정류소-도로(가로)변,서울특별시 은평구 은평로217,-,37.6013911,126.9319328
지하철4번출구,서울특별시 종로구 경복궁역,-,37.576,126.9735
도로(가로)변,서울특별시 종로구 자하문로 28,-,37.5861,126.9715
도로(가로)변,서울특별시 종로구 자하문로 44,-,37.58,126.9715
정류장-도로(가로)변,서울특별시 종로구 자하문로 68,-,37.582,126.9708
다중집합장소-주변,서울특별시 종로구 효자로13길 45,-,37.582,126.9708
도로(가로)변,서울특별시 종로구 자하문로13-4,-,37.5801,126.9709
공원-도로(가로)변,서울특별시 종로구 삼청로1,-,37.5761,126.9794
도로(가로)변,서울특별시 종로구 자하문로 13-2,-,37.5774,126.9721
경복궁 아트홀-도로(가로)변,서울특별시 종로구 자하문로 82,-,37.5834,126.9707
도로(가로)변,서울특별시 종로구 사직로9길 1,-,37.5762,126.9688
도로(가로)변,서울특별시 종로구 새문안로 82 ,-,37.57,126.9739
정류장-도로(가로)변,서울특별시 종로구 광화문,-,37.5691,126.9768
청계광장 입구-도로(가로)변,서울특별시 종로구 서린동 148,-,37.5692,126.978
한국무역보험공사-도로(가로)변,서울특별시 종로구 종로 14,-,37.5698,126.9788
종로분식-도로(가로)변,서울특별시 종로구 종로30,-,37.5699,126.9807
정류장-도로(가로)변,서울특별시 종로구 종로1가,-,37.5702,126.9814
도로(가로)변,서울특별시 종로구 종로80,-,37.57,126.9862
정류장-도로(가로)변,서울특별시 종로구 종로2가,-,37.5702,126.9862
정류장-도로(가로)변,서울특별시 종로구 삼일대로,-,37.5731,126.9876
도로(가로)변,서울특별시 종로구 종로73,-,37.5704,126.9857
도로(가로)변,서울특별시 종로구 종로74,-,37.57,126.9856
도로(가로)변,서울특별시 종로구 종로51,-,37.5706,126.9832
다중집합장소-주변,서울특별시 종로구 인사동길51,-,37.5747,126.9839
도로(가로)변,서울특별시 종로구 인사동길1,-,37.5711,126.9873
도로(가로)변,서울특별시 종로구 율곡로46,-,37.5755,126.9846
도로(가로)변,서울특별시 종로구 삼일대로467,-,37.5761,126.9862
KT광화문빌딩-도로(가로)변,서울특별시 종로구 종로3길 33,-,37.572,126.9786
열린마당-도로(가로)변,서울특별시 종로구 종로1길55,-,37.5752,126.9786
이마빌딩-도로(가로)변,서울특별시 종로구 종로1길 42 ,-,37.5739,126.9789
세종로공원-도로(가로)변,서울특별시 종로구 세종대로142  ,-,37.5735,126.976
세종문화회관-도로(가로)변,서울특별시 종로구 세종대로175  ,-,37.5721,126.976
지하철7번출구,서울특별시 종로구 광화문역,-,37.5716,126.9763
지하철8번출구,서울특별시 종로구 광화문역,-,37.5716,126.9763
삼원약국-도로(가로)변,서울특별시 종로구 신문로1가 1-1,-,37.5704,126.9762
서울역사박물관-도로(가로)변,서울특별시 종로구 새문안로 55,-,37.57,126.9712
도로(가로)변,서울특별시 종로구 통일로134,-,37.5666,126.9661
지하철역7번출구,서울특별시 종로구 사직로 130,-,37.5758,126.9734
광화문 우체국-도로(가로)변,서울특별시 종로구 종로 6,-,37.5698,126.978
정류장-도로(가로)변,서울특별시 종로구 사직단 ,-,37.5754,126.9683
도로(가로)변,서울특별시 종로구 종로 34,-,37.57,126.9811
도로(가로)변,서울특별시 종로구 종로 113,-,37.5705,126.9901
YBM어학원-도로(가로)변,서울특별시 종로구 종로 104,-,37.5701,126.989
맥도날드-도로(가로)변,서울특별시 종로구 종로 115,-,37.5705,126.9905
버거킹-횡단보도앞,서울특별시 종로구 종로 94,-,37.5701,126.988
정류장-도로(가로)변,서울특별시 종로구 종묘,-,37.5707,126.9946
세운상가-건물주변,서울특별시 종로구 종로160,-,37.5704,126.9953
도로(가로)변,서울특별시 종로구 돈화문로 89,-,37.5765,126.99
구풍문여고-도로(가로)변,서울특별시 종로구 율곡로3길 4,-,37.5767,126.9833
도로(가로)변,서울특별시 종로구 운니동 98-7,-,37.5774,126.989
안국역2번출구-도로(가로)변,서울특별시 종로구 율곡로 62,-,37.5765,126.9855
재동초교앞-도로(가로)변,서울특별시 종로구 북촌로4길 7,-,37.58,126.9851
도로(가로)변,서울특별시 종로구 북촌로58,-,37.5819,126.9851
돈미약국앞-도로(가로)변,서울특별시 종로구 가회동 30-9,-,37.5815,126.9849
가희동주민센터-도로(가로)변,서울특별시 종로구 율곡로 89,-,37.5801,126.9849
정독도서관-도로(가로)변,서울특별시 종로구 북촌로5길 48 ,-,37.5807,126.9831
도로(가로)변,서울특별시 종로구 율곡로3길 87,-,37.5795,126.9818
삼청파출소-도로(가로)변,서울특별시 종로구 삼청로 66,-,37.5814,126.9811
총리공관앞-도로(가로)변,서울특별시 종로구 삼청로99-1 ,-,37.5844,126.9819
도로(가로)변,서울특별시 종로구 삼청로102,-,37.5845,126.9822
현대그룹빌딩-도로(가로)변,서울특별시 종로구 연지동 1-14,-,37.5759,127.0004
헌법재판소반대편-도로(가로)변,서울특별시 종로구 북촌로 8,-,37.5777,126.9858
도로(가로)변,서울특별시 종로구 돈화문로 27,-,37.571,126.9919
동대문종합시장-정류장(가로)변,서울특별시 종로구 종로6가 ,-,37.5704,127.0078
서울대학교의과-건물(가로)변,서울특별시 종로구 대학로95,-,37.5807,126.9994
혜화동로터리-도로(가로)변,서울특별시 종로구 창경궁로270 ,-,37.5851,127.0011
서울대병원정류소-정류장(가로)변,서울특별시 종로구 창경궁,-,37.5793,126.9966
정류장-도로(가로)변,서울특별시 중구 종로 272,-,37.571,127.0059
동성중고 정류장-도로(가로)변,서울특별시 종로구 대학로 156,-,37.5846,127.0018
마로니에공원 정류장-도로(가로)변,서울 종로구 대학로 104,-,37.5805,127.0028
광장시장 정류장-도로(가로)변,서울 종로구 창경궁로 88,-,37.5708,126.9991
성대입구 정류장-도로(가로)변,서울특별시 종로구 명륜3가,-,37.5833,126.9989
정류장 - 도로(가로)변,서울특별시 종로구 혜화로터리,-,37.5855,127.0012
상가지역,서울특별시 종로구 종로266앞,-,37.5709,127.0072
종묘-도로(가로)변,서울특별시 종로구 종로4가 종묘,-,37.5705,126.9947
정류장-도로(가로)변,서울특별시 종로구 창경궁로 185,-,37.5792,126.9965
서울대학교병원암병원입구근처-도로(가로)변,서울특별시 종로구 연건동28-27,-,37.5788,126.9968
이화김치찌개근처-도로(가로)변,서울특별시 종로구 이화동 99,-,37.5761,127.0035
보건소&동부진료소-도로(가로)변,서울특별시 종로구 지봉로5길 7-5,-,37.5735,127.0144
도로(가로)변(횡단보도 포함),서울특별시 종로구 창신+A96+A100:B100,-,37.5763,127.0155
지하철역2번출구,서울특별시 종로구 창신역,-,37.5793,127.015
지하철역1번출구,서울특별시 종로구 창신역,-,37.5801,127.0151
KT버스정류장앞-도로(가로)변,서울특별시 종로구 세종로 ,-,37.5724,126.9773
FS-도로(가로)변,서울특별시 종로구 창신2동,-,37.575,127.0102
FS-도로(가로)변,서울특별시 종로구 창신3동,-,37.5785,127.0126
우리은행-도로(가로)변,서울특별시 종로구 종로 413,-,37.576,127.0226
정류장-도로(가로)변,서울특별시 종로구 동대문역 ,-,37.5721,127.0125
지하철역11번출구,서울특별시 중구 시청역,-,37.5657037,126.9768616
상가지역,서울특별시 중구 정동사거리 삼성병원 충정로1가,-,37.56746589999999,126.9687591
정류소-도로(가로)변,서울특별시 중구 한국경제신문사,-,37.560692,126.9679555
정류소-도로(가로)변,서울특별시 중구 남대문시장,-,37.5591786,126.9776692
정류소-도로(가로)변,서울특별시 중구 티마크 호텔,-,37.5625041,126.9925599
3번출구 지하철역 입구,서울특별시 중구 회현역,-,37.558,126.9778
정류소-도로(가로)변,서울특별시 중구 염천교 02-116,-,37.5599,126.9709
정류소-도로(가로)변,서울특별시 중구 손기정 체육공원,-,37.5559206,126.9651582
정류소-도로(가로)변,서울특별시 중구 종근당 충정로역,-,37.559604,126.964459
정류소-도로(가로)변,서울특별시 중구 서울역 우체국,-,37.557571,126.971423
2번출구 지하철역 입구,서울특별시 중구 명동역,-,37.5607,126.9858
4번출구 정류소-도로(가로)변,서울특별시 중구 명동역,-,37.5607,126.9848
5번출구 정류소-도로(가로)변,서울특별시 중구 명동역,-,37.5609,126.9847
다중집합장소,서울특별시 중구 충무파출소,-,37.5608691,126.9915517
6번출구 지하철역 입구,서울특별시 중구 명동역,-,37.561,126.985
정류소-도로(가로)변,서울특별시 중구 평화방송,-,37.5642734,126.988314
정류소-도로(가로)변,서울특별시 중구 남대문세무서,-,37.5650049,126.9882022
상가지역,서울특별시 중구 명동 하나은행본점,-,37.5664524,126.9818516
상가지역,서울특별시 중구 명동입구 관광경찰초소,-,37.5636,126.9822
상가지역,서울특별시 중구 명동 신한은행,-,37.5616,126.9856
상가지역,서울특별시 중구 명동 우리은행,-,37.5636741,126.9847304
정류소-도로(가로)변,서울특별시 중구 명동역 국민은행,-,37.56122999999999,126.9864133
정류소-도로(가로)변,서울특별시 중구 한국은행 신세계,-,37.5614,126.9793
다중집합장소,서울특별시 중구 명동 성당,-,37.563177,126.9873604
상가지역,서울특별시 중구 명동 자라 골목,-,37.5636,126.9829
상가지역 15번출구,서울특별시 중구 명동지하쇼핑센터,-,37.5637,126.9822
정류소-도로(가로)변,서울특별시 중구 해운센터 롯데영프라자 ,-,37.563033,126.981661
정류소-도로(가로)변,서울특별시 중구 을지로입구 로얄호텔,-,37.565938,126.985296
정류소-도로(가로)변,서울특별시 중구 을지로2가 기업은행본점,-,37.56619999999999,126.986406
정류소-도로(가로)변,서울특별시 중구 을지로2가 파인에비뉴,-,37.5657852,126.9887184
정류소-도로(가로)변,서울특별시 중구 북창동 남대문시장,-,37.561208,126.977957
정류소-도로(가로)변,서울특별시 중구 서울광장,-,37.5657037,126.9768616
정류소-도로(가로)변,서울특별시 중구 우리은행종로지점,-,37.5677,126.9829
3번출구 지하철역 입구,서울특별시 중구 을지로3가역,-,37.566288,126.991051
정류소-도로(가로)변,서울특별시 중구 을지로3가 대림상가,-,37.5669489,126.9954313
정류소-도로(가로)변,서울특별시 중구 을지로5가 방산시장,-,37.5692,127.001
정류소-도로(가로)변,서울특별시 중구 을지로5가 중부시장,-,37.565,127.0025
정류소-도로(가로)변,서울특별시 중구 을지로6가 국립의료원,-,37.5665,127.0057
정류소-도로(가로)변,서울특별시 중구 장충단로 파리바게트(장충점),-,37.5606,127.0056
정류소-도로(가로)변,서울특별시 중구 을지로 4가역,-,37.5666,126.9977
7번출구 정류소-도로(가로)변,서울특별시 중구 충무로역,-,37.5614,126.9933
2번출구 정류소-도로(가로)변,서울특별시 중구 충무로역,-,37.5613,126.9948
8번출구 정류소-도로(가로)변,서울특별시 중구 충무로역,-,37.5616,126.9954
정류소-도로(가로)변,서울특별시 중구 퇴계로6가 CJ제일제당,-,37.5636,127.0037
8번출구 정류소-도로(가로)변,서울특별시 중구 동대문역사공원역,-,37.565,127.0073
정류소-도로(가로)변,서울특별시 중구 라마다 호텔,-,37.56,126.971
1번출구 정류소-도로(가로)변,서울특별시 중구 동대문역사공원역,-,37.5657,127.0092
정류소-도로(가로)변,서울특별시 중구 동대문역사문화공원,-,37.565682,127.008953
정류소-도로(가로)변,서울특별시 중구 광희문,-,37.5643603,127.0099766
정류소-도로(가로)변,서울특별시 중구 충무아트센터,-,37.5660139,127.0148131
정류소-도로(가로)변,서울특별시 중구 중부소방서,-,37.5648219,127.0153596
정류소-도로(가로)변,서울특별시 중구 퇴계로 450 신영빌딩 하나은행,-,37.5654,127.0217
정류소-도로(가로)변,서울특별시 중구 송도병원,-,37.551103,127.008214
정류소-도로(가로)변,서울특별시 중구 버티고개남산타운입구,-,37.548111,127.00714
정류소-도로(가로)변,서울특별시 중구 중앙시장,-,37.5661516,127.0196647
정류소-도로(가로)변,서울특별시 중구 신당동 청구역,-,37.5591145,127.0131005
정류소-도로(가로)변,서울특별시 중구 황학동롯데캐슬,-,37.571596,127.022479
정류소-도로(가로)변,서울특별시 중구 황학동주민센터,-,37.5673091,127.0212702
정류소-도로(가로)변,서울특별시 중구 신당파인힐하나유보라,-,37.564947,127.024916
정류소-도로(가로)변,서울특별시 중구 성동고등학교,-,37.5641316,127.0226595
정류소-도로(가로)변,서울특별시 중구 청계8가 영도교,-,37.5708,127.0186
2번출구 정류소-도로(가로)변,서울특별시 중구 약수역,-,37.5552,127.0107
7번출구 정류소-도로(가로)변,서울특별시 중구 약수역,-,37.5533,127.0099
8번출구 정류소-도로(가로)변,서울특별시 중구 약수역,-,37.5534,127.0096
정류소-도로(가로)변,서울특별시 중랑구 신내8단지 서울의료원(07-279),-,37.612781,127.0981787
정류소-도로(가로)변,서울특별시 중랑구 신내동성3차아파트(07-275),-,37.60765000000001,127.095297
정류소-도로(가로)변,서울특별시 중랑구 봉화산역(07-296),-,37.6176,127.0908
정류소-도로(가로)변,서울특별시 중랑구 화랑대역(07-295),-,37.6198,127.0839
정류소-도로(가로)변,서울특별시 중랑구 신현중학교(07266),-,37.6047,127.0912
정류소-도로(가로)변,서울특별시 중랑구 먹골역(07-426),-,37.6105,127.0777
정류소-도로(가로)변,서울특별시 중랑구 한국전력동부지사(07-105),-,37.6073,127.0785
정류소-도로(가로)변,서울특별시 중랑구 중화역(07-108),-,37.6025,127.0793
정류소-도로(가로)변,서울특별시 중랑구 KT중랑지점사거리(07-112),-,37.5916405,127.0803745
정류소-도로(가로)변,서울특별시 중랑구 면목2동(07-115),-,37.5897,127.0790427
정류소-도로(가로)변,서울특별시 중랑구 늘푸른동아아파트(07-123),-,37.5726,127.0803
정류소-도로(가로)변,서울특별시 중랑구 용마산역(07-209),-,37.57379299999999,127.086818
정류소-도로(가로)변,서울특별시 중랑구 면중초등학교(07-200),-,37.5820628,127.0966242
정류소-도로(가로)변,서울특별시 중랑구 용마폭포공원(07-206),-,37.5728192,127.0911912
정류소-도로(가로)변,서울특별시 중랑구 용마문화복지센터(07-195),-,37.5869511,127.0951797
정류소-도로(가로)변,서울특별시 중랑구 우리은행 망우동지점(07-192),-,37.5913,127.0977
정류소-도로(가로)변,서울특별시 중랑구 삼용사입구(07-188),-,37.5976,127.1002
정류소-도로(가로)변,서울특별시 중랑구 우림시장(07-165),-,37.5967341,127.0982568
정류소-도로(가로)변,서울특별시 중랑구 동서그랜드맨션(07-222),-,37.5859509,127.0779037
정류소-도로(가로)변,서울특별시 중랑구 하나은행면목지점(07-225),-,37.5865,127.0802
정류소-도로(가로)변,서울특별시 중랑구 겸재로 135,-,37.5874023,127.0827439
정류소-도로(가로)변,서울특별시 중랑구 중랑구청(07-267),-,37.6063,127.0933
정류소-도로(가로)변,서울특별시 중랑구 동원시장(07-313),-,37.5896,127.0902
정류소-도로(가로)변,서울특별시 중랑구 상봉역(07-166),-,37.5964,127.0855
정류소-도로(가로)변,서울특별시 중랑구 면목역(07-171),-,37.5887,127.0875
정류소-도로(가로)변,서울특별시 중랑구 사가정역(면목시장방면/07-179),-,37.581,127.0885
정류소-도로(가로)변,서울특별시 중랑구 신내초등학교(능산지하차도방면)(07-304),-,37.6041,127.1007
정류소-도로(가로)변,서울특별시 중랑구 서울우유(07-145),-,37.6049,127.0772
정류소-도로(가로)변,서울특별시 중랑구 중랑교동부시장(07-321),-,37.5939,127.0725
정류소-도로(가로)변,서울특별시 중랑구 중화2동체육공원(07-427),-,37.6004,127.0737
정류소-도로(가로)변,서울특별시 중랑구 한국아파트(07-377),-,37.615,127.0735
정류소-도로(가로)변,서울특별시 중랑구 중화역(07-254),-,37.6025,127.0793
정류소-도로(가로)변,서울특별시 중랑구 쌍용아파트신내테크노타운(07-261),-,37.6033,127.0879
정류소-도로(가로)변,서울특별시 중랑구 중랑구청사거리(07-273),-,37.6059,127.0954
정류소-도로(가로)변,서울특별시 중랑구 성원아파트(07-272),-,37.6039,127.0955
정류소-도로(가로)변,서울특별시 중랑구 신내새한아파트(07-305),-,37.6059,127.1011
정류소-도로(가로)변,서울특별시 중랑구 망우역(07-417),-,37.5993,127.0924
정류소-도로(가로)변,서울특별시 중랑구 상봉터미널(07-309),-,37.5963,127.0928
정류소-도로(가로)변,서울특별시 중랑구 경남아파트(07-329),-,37.604,127.1072
정류소-도로(가로)변,서울특별시 중랑구 하나은행망우동(07-137),-,37.5997,127.1
정류소-도로(가로)변,서울특별시 중랑구 태릉시장입구(07-397),-,37.5999,127.0782
정류소-도로(가로)변,서울특별시 중랑구 묵2동주민센터(07-386),-,37.61,127.0762
도로(가로)변,서울특별시 중랑구 서울중랑우체국,-,37.5956,127.0827
정류소-도로(가로)변,서울특별시 중랑구 한샘교회(07-128),-,37.5956164,127.0808198
